{"type":"FeatureCollection","features":[{"type":"Feature","properties":{"osm_id":82061835,"amenity":"loading_dock","door":"overhead"},"geometry":{"type":"Point","coordinates":[-96.7998041,32.7832632]}},{"type":"Feature","properties":{"osm_id":356824340,"addr:city":"Dallas","addr:housenumber":"1521","addr:postcode":"75201","addr:state":"TX","addr:street":"Main Street","amenity":"place_of_worship","check_date":"2026-06-13","denomination":"roman_catholic","diocese":"Dallas","ele":"132","gnis:feature_id":"2018415;2030769","name":"Saint Jude Chapel","phone":"+1-214-742-2508","religion":"christian","source":"USGS Geonames"},"geometry":{"type":"Point","coordinates":[-96.7986257,32.7809073]}},{"type":"Feature","properties":{"osm_id":2203786752,"addr:city":"Dallas","addr:housenumber":"1623","addr:postcode":"75208","addr:state":"TX","addr:street":"Main Street","addr:unit":"104","amenity":"restaurant","bar":"yes","cuisine":"italian","delivery":"yes","indoor_seating":"yes","name":"Porta di Roma","opening_hours":"Su-Th 10:00-24:00; Fr,Sa 10:00-02:00","outdoor_seating":"yes","phone":"+1 214-752-0855","takeaway":"yes","website":"https://portadiromarestaurant.com/"},"geometry":{"type":"Point","coordinates":[-96.7972891,32.7811891]}},{"type":"Feature","properties":{"osm_id":2203786806,"addr:city":"Dallas","addr:housenumber":"1623","addr:postcode":"75201","addr:state":"TX","addr:street":"Main Street","addr:unit":"102","amenity":"restaurant","bar":"yes","cuisine":"vietnamese;asian;sushi","delivery":"yes","name":"Sapa House","opening_hours":"Mo-Fr 11:00-22:00; Sa 12:00-22:00; Su 12:00-21:00","phone":"+1 214-748-0746","takeaway":"yes","website":"https://www.ordersapahousedallas.com/"},"geometry":{"type":"Point","coordinates":[-96.7973562,32.7814205]}},{"type":"Feature","properties":{"osm_id":2203786885,"addr:city":"Dallas","addr:housenumber":"1623","addr:postcode":"75201","addr:state":"TX","addr:street":"Main Street","addr:unit":"101","amenity":"restaurant","delivery":"yes","drive_through":"no","indoor_seating":"yes","name":"Pressbox Grill","opening_hours":"Su-Th 11:00-24:00; Fr,Sa 11:00-02:00","outdoor_seating":"yes","phone":"+1 214-747-8226","takeaway":"yes","website":"https://www.pressboxgrill.com/"},"geometry":{"type":"Point","coordinates":[-96.7974139,32.7816508]}},{"type":"Feature","properties":{"osm_id":3376087187,"amenity":"bicycle_repair_station","brand":"Dero","check_date":"2026-06-13","fee":"no","note":"Pegasus Plaza","opening_hours":"24/7","service:bicycle:chain_tool":"no","service:bicycle:pump":"no","service:bicycle:stand":"yes","service:bicycle:tools":"yes","source":"osmsync:dero"},"geometry":{"type":"Point","coordinates":[-96.7990495,32.7805622]}},{"type":"Feature","properties":{"osm_id":3530860099,"addr:city":"Dallas","addr:housenumber":"1200","addr:postcode":"75202","addr:state":"TX","addr:street":"Main Street","addr:unit":"#100","amenity":"fast_food","capacity":"100","cuisine":"chicken","delivery":"yes","email":"hr@wingbucket.com","name":"WingBucket","opening_hours":"Su-Th 11:00-22:00; Fr,Sa 11:00-24:00","phone":"+1 214-760-9491","smoking":"no","takeaway":"yes","website":"https://www.wingbucket.com"},"geometry":{"type":"Point","coordinates":[-96.8015595,32.7800021]}},{"type":"Feature","properties":{"osm_id":3530869036,"addr:city":"Dallas","addr:housenumber":"1501","addr:postcode":"75202","addr:state":"TX","addr:street":"Main Street","amenity":"restaurant","check_date":"2025-08-16","check_date:opening_hours":"2024-11-23","check_date:smoking":"2025-08-16","cuisine":"burger","delivery":"no","indoor_seating":"yes","name":"Chop House Burger","opening_hours":"Su-Th 11:00-21:00; Fr,Sa 11:00-22:00","outdoor_seating":"yes","phone":"+1 214-741-2747","smoking":"no","takeaway":"yes","website":"https://www.chophouseburger.com","website:menu":"https://www.chophouseburger.com/menus"},"geometry":{"type":"Point","coordinates":[-96.79944,32.7807383]}},{"type":"Feature","properties":{"osm_id":3530875237,"addr:city":"Dallas","addr:housenumber":"1411","addr:postcode":"75202","addr:state":"TX","addr:street":"Main Street","amenity":"pharmacy","brand":"CVS Pharmacy","brand:website":"https://www.cvs.com/","brand:wikidata":"Q2078880","dispensing":"yes","drive_through":"no","healthcare":"pharmacy","name":"CVS Pharmacy","opening_hours":"07:00-24:00","operator":"CVS","phone":"+1-214-749-4092","short_name":"CVS","website":"https://www.cvs.com/store-locator/dallas-tx-pharmacies/1411-main-st-dallas-tx-75202/storeid=5314"},"geometry":{"type":"Point","coordinates":[-96.7998688,32.7806362]}},{"type":"Feature","properties":{"osm_id":3895157028,"addr:city":"Dallas","addr:housenumber":"665","addr:postcode":"75202","addr:state":"TX","addr:street":"South Lamar Street","addr:unit":"120","amenity":"restaurant","cuisine":"italian","name":"Coal Vines","opening_hours":"11:00-14:00,16:00-22:00","phone":"+1-214-749-0900","website":"https://www.omnihotels.com/hotels/dallas/dining/restaurants-on-lamar/coal-vines","wheelchair":"yes"},"geometry":{"type":"Point","coordinates":[-96.803425,32.7753516]}},{"type":"Feature","properties":{"osm_id":3895158350,"addr:city":"Dallas","addr:housenumber":"665","addr:postcode":"75202","addr:state":"TX","addr:street":"South Lamar Street","addr:unit":"110","amenity":"restaurant","cuisine":"german","name":"Biergarten","opening_hours":"Su-Th 16:00-22:00; Fr-Sa 16:00-24:00","phone":"+1-214-749-0101","website":"https://www.omnihotels.com/hotels/dallas/dining/restaurants-on-lamar/biergarten"},"geometry":{"type":"Point","coordinates":[-96.8035457,32.7755703]}},{"type":"Feature","properties":{"osm_id":5706869085,"access":"private","amenity":"parking_entrance","maxheight":"13'0\"","parking":"underground"},"geometry":{"type":"Point","coordinates":[-96.8032585,32.7774616]}},{"type":"Feature","properties":{"osm_id":5706869087,"access":"private","amenity":"parking_entrance","maxheight":"13'0\"","parking":"underground"},"geometry":{"type":"Point","coordinates":[-96.8028867,32.777517]}},{"type":"Feature","properties":{"osm_id":5706869089,"amenity":"parking_entrance"},"geometry":{"type":"Point","coordinates":[-96.7986402,32.7819519]}},{"type":"Feature","properties":{"osm_id":5706869093,"amenity":"parking_entrance"},"geometry":{"type":"Point","coordinates":[-96.7985774,32.7819038]}},{"type":"Feature","properties":{"osm_id":5706869640,"access":"customers","amenity":"parking_entrance","parking":"underground"},"geometry":{"type":"Point","coordinates":[-96.7962226,32.7775884]}},{"type":"Feature","properties":{"osm_id":5706869646,"access":"customers","amenity":"parking_entrance","parking":"underground"},"geometry":{"type":"Point","coordinates":[-96.7982559,32.7762034]}},{"type":"Feature","properties":{"osm_id":5706869658,"amenity":"parking_entrance"},"geometry":{"type":"Point","coordinates":[-96.7988425,32.7773302]}},{"type":"Feature","properties":{"osm_id":5706869659,"amenity":"parking_entrance","level":"-1","parking":"underground"},"geometry":{"type":"Point","coordinates":[-96.7988352,32.7773062]}},{"type":"Feature","properties":{"osm_id":5808063055,"amenity":"parking_entrance"},"geometry":{"type":"Point","coordinates":[-96.8038702,32.7761641]}},{"type":"Feature","properties":{"osm_id":5808063062,"access":"yes","amenity":"parking_entrance","parking":"underground"},"geometry":{"type":"Point","coordinates":[-96.8032368,32.7749845]}},{"type":"Feature","properties":{"osm_id":5813013470,"amenity":"parking_entrance"},"geometry":{"type":"Point","coordinates":[-96.7975919,32.7785874]}},{"type":"Feature","properties":{"osm_id":5813013471,"amenity":"parking_entrance"},"geometry":{"type":"Point","coordinates":[-96.7975494,32.7785987]}},{"type":"Feature","properties":{"osm_id":5837117307,"amenity":"loading_dock","maxheight":"13'0\""},"geometry":{"type":"Point","coordinates":[-96.8049193,32.7789765]}},{"type":"Feature","properties":{"osm_id":5837117311,"amenity":"parking_entrance"},"geometry":{"type":"Point","coordinates":[-96.804937,32.7792497]}},{"type":"Feature","properties":{"osm_id":5838904514,"amenity":"parking_entrance"},"geometry":{"type":"Point","coordinates":[-96.7975407,32.7799719]}},{"type":"Feature","properties":{"osm_id":5846892953,"amenity":"parking_entrance"},"geometry":{"type":"Point","coordinates":[-96.7974369,32.7794332]}},{"type":"Feature","properties":{"osm_id":5846892956,"amenity":"parking_entrance"},"geometry":{"type":"Point","coordinates":[-96.7958647,32.7797309]}},{"type":"Feature","properties":{"osm_id":5846892958,"amenity":"parking_entrance"},"geometry":{"type":"Point","coordinates":[-96.7953829,32.7793325]}},{"type":"Feature","properties":{"osm_id":6071348929,"addr:city":"Dallas","addr:housenumber":"1800","addr:postcode":"75201","addr:state":"TX","addr:street":"Main Street","addr:unit":"100","amenity":"restaurant","cuisine":"mexican","name":"Wild Salsa","phone":"+1-214-741-9453"},"geometry":{"type":"Point","coordinates":[-96.7958352,32.7811933]}},{"type":"Feature","properties":{"osm_id":6121879994,"addr:city":"Dallas","addr:housenumber":"1217","addr:postcode":"75202","addr:state":"TX","addr:street":"Main Street","amenity":"restaurant","check_date":"2025-01-30","cuisine":"coffee_shop;sandwich;american;ice_cream;bakery","delivery":"yes","name":"Commissary","opening_hours":"Mo-Sa 07:00-16:00; Su 07:00-14:00","outdoor_seating":"yes","phone":"+1-214-827-2927","takeaway":"yes","website":"https://www.commissarydallas.com"},"geometry":{"type":"Point","coordinates":[-96.8011148,32.7803923]}},{"type":"Feature","properties":{"osm_id":6184387354,"addr:floor":"1","addr:housenumber":"1530","addr:street":"Main Street","amenity":"cafe","check_date":"2025-08-16","check_date:smoking":"2025-08-16","level":"0","name":"Weekend Coffee","opening_hours":"07:00-15:00","payment:cash":"yes","payment:credit_cards":"yes","payment:debit_cards":"yes","phone":"+1 214-261-4500","smoking":"no","website":"https://www.thejouledallas.com/weekend-coffee","wheelchair":"yes"},"geometry":{"type":"Point","coordinates":[-96.798229,32.7802132]}},{"type":"Feature","properties":{"osm_id":6312858160,"access":"yes","amenity":"parking_entrance","maxheight":"6'8\"","parking":"multi-storey"},"geometry":{"type":"Point","coordinates":[-96.8010072,32.780726]}},{"type":"Feature","properties":{"osm_id":8449654597,"amenity":"parking_entrance","highway":"crossing"},"geometry":{"type":"Point","coordinates":[-96.7944279,32.7801769]}},{"type":"Feature","properties":{"osm_id":8449654599,"amenity":"parking_entrance"},"geometry":{"type":"Point","coordinates":[-96.7949215,32.7800773]}},{"type":"Feature","properties":{"osm_id":8449654600,"amenity":"parking_entrance"},"geometry":{"type":"Point","coordinates":[-96.7949752,32.7800657]}},{"type":"Feature","properties":{"osm_id":8907607118,"addr:floor":"1","addr:housenumber":"1508","addr:street":"Commerce Street","amenity":"bar","check_date":"2025-08-16","check_date:smoking":"2025-08-16","indoor_seating":"yes","level":"0","microbrewery":"yes","name":"Pegasus City Brewery","opening_hours":"Mo-Th 16:00-22:00; Fr 13:00-23:00; Sa 12:00-23:00; Su 13:00-21:00","outdoor_seating":"yes","payment:cash":"yes","payment:credit_cards":"yes","payment:debit_cards":"yes","phone":"+1 972-366-7722","smoking":"no","website":"https://www.pegasuscitybrewery.com","wheelchair":"yes"},"geometry":{"type":"Point","coordinates":[-96.7981248,32.7799307]}},{"type":"Feature","properties":{"osm_id":10127598138,"amenity":"parking_entrance","maxheight":"6'3\"","parking":"multi-storey"},"geometry":{"type":"Point","coordinates":[-96.7993203,32.7821085]}},{"type":"Feature","properties":{"osm_id":10127598142,"amenity":"parking_entrance","parking":"multi-storey"},"geometry":{"type":"Point","coordinates":[-96.7992852,32.7821161]}},{"type":"Feature","properties":{"osm_id":10164519546,"addr:city":"Dallas","addr:housenumber":"1302","addr:postcode":"75202","addr:state":"TX","addr:street":"Elm Street","addr:unit":"1st","amenity":"fast_food","brand":"Subway","brand:wikidata":"Q244457","check_date":"2023-10-29","cuisine":"sandwich","delivery":"yes","drive_through":"no","name":"Subway","opening_hours":"Mo-Su 09:00-22:00","phone":"+1 214-747-1088","takeaway":"yes","website":"https://restaurants.subway.com/united-states/tx/dallas/1302-elm-st"},"geometry":{"type":"Point","coordinates":[-96.8010447,32.7809286]}},{"type":"Feature","properties":{"osm_id":10164519547,"addr:city":"Dallas","addr:housenumber":"1525","addr:postcode":"75201","addr:state":"TX","addr:street":"Main Street","amenity":"restaurant","bar":"yes","cuisine":"tex-mex","delivery":"yes","indoor_seating":"yes","level":"0","name":"Uno Mas","opening_hours":"Su,Tu-Th 11:00-23:00; Fr-Sa 11:00-24:00","outdoor_seating":"yes","phone":"+1 214-800-4572","smoking":"no","takeaway":"yes","website":"https://unomastexmex.com/"},"geometry":{"type":"Point","coordinates":[-96.7985057,32.7809326]}},{"type":"Feature","properties":{"osm_id":10164519548,"addr:city":"Dallas","addr:housenumber":"1520","addr:postcode":"75201","addr:state":"TX","addr:street":"Elm Street","addr:unit":"111","amenity":"restaurant","cuisine":"italian","name":"Campisi's","opening_hours":"Mo-Su 11:00-21:00","outdoor_seating":"yes","phone":"+1 214-752-0141","smoking":"no","takeaway":"yes","website":"https://www.campisis.us/locations/downtown-dallas/"},"geometry":{"type":"Point","coordinates":[-96.7986557,32.7813979]}},{"type":"Feature","properties":{"osm_id":10164519549,"addr:city":"Dallas","addr:housenumber":"1800","addr:postcode":"75201","addr:state":"TX","addr:street":"Main Street","amenity":"pub","name":"The Crafty Irishman","opening_hours":"Mo-Fr 11:00-02:00; Sa-Su 10:00-02:00","phone":"+1 972-707-7589"},"geometry":{"type":"Point","coordinates":[-96.7960072,32.7811944]}},{"type":"Feature","properties":{"osm_id":10164519550,"addr:city":"Dallas","addr:housenumber":"1903","addr:postcode":"75201","addr:state":"TX","addr:street":"Main Street","amenity":"restaurant","cuisine":"italian","name":"Partenope","opening_hours":"Mo-Th 11:00-15:00,16:30-22:00; Fr 11:00-22:30; Sa 15:30-22:30","phone":"+1 214-463-6222","website":"https://partenopedallas.com/"},"geometry":{"type":"Point","coordinates":[-96.7956301,32.7815348]}},{"type":"Feature","properties":{"osm_id":10198645990,"addr:city":"Dallas","addr:housenumber":"115","addr:postcode":"75202","addr:state":"TX","addr:street":"South Field Street","amenity":"restaurant","bar":"yes","check_date":"2025-01-12","cuisine":"italian;grill","delivery":"yes","mapillary":"411380700842303","name":"Ravenna Italian Grille and Bar","opening_hours":"Su-Th 11:00-22:30; Fr,Sa 11:00-23:00","phone":"+1 214-744-9333","website":"https://www.ravennadallas.com/"},"geometry":{"type":"Point","coordinates":[-96.8010757,32.7800876]}},{"type":"Feature","properties":{"osm_id":10198645992,"addr:city":"Dallas","addr:housenumber":"1211","addr:postcode":"75202","addr:state":"TX","addr:street":"Commerce Street","amenity":"restaurant","check_date":"2025-08-26","cuisine":"mexican","delivery":"yes","name":"Twisted Trompo","opening_hours":"Su 10:00-22:00; Mo-Th 08:00-24:00; Fr 08:00-02:00; Sa 10:00-02:00","phone":"+1 214-760-9599","takeaway":"yes","website":"https://twistedtrompo.com"},"geometry":{"type":"Point","coordinates":[-96.8013652,32.7795632]}},{"type":"Feature","properties":{"osm_id":10198649388,"addr:city":"Dallas","addr:housenumber":"420","addr:postcode":"75201","addr:state":"TX","addr:street":"South Ervay Street","amenity":"restaurant","delivery":"yes","description":"order first, then pick up","mapillary":"792166275501818","name":"All Day Kitchens","opening_hours":"11:00-02:00","phone":"+1 469-425-8840","takeaway":"only","website":"https://alldaykitchens.com"},"geometry":{"type":"Point","coordinates":[-96.7962479,32.7783763]}},{"type":"Feature","properties":{"osm_id":10200472297,"addr:housenumber":"1300","addr:street":"Main Street","amenity":"restaurant","check_date":"2022-11-18","cuisine":"salad","name":"Bread Zeppelin"},"geometry":{"type":"Point","coordinates":[-96.8007393,32.7801565]}},{"type":"Feature","properties":{"osm_id":10606385601,"access":"yes","amenity":"parking_entrance","level":"-1","parking":"underground","surface":"concrete"},"geometry":{"type":"Point","coordinates":[-96.8020998,32.7807323]}},{"type":"Feature","properties":{"osm_id":10606385602,"access":"private","amenity":"parking_entrance","parking":"multi-storey"},"geometry":{"type":"Point","coordinates":[-96.8012894,32.7801014]}},{"type":"Feature","properties":{"osm_id":10606662735,"amenity":"bench"},"geometry":{"type":"Point","coordinates":[-96.7989466,32.777119]}},{"type":"Feature","properties":{"osm_id":10606662736,"amenity":"bench"},"geometry":{"type":"Point","coordinates":[-96.7989613,32.7771145]}},{"type":"Feature","properties":{"osm_id":10606662750,"amenity":"bench","backrest":"no"},"geometry":{"type":"Point","coordinates":[-96.7986857,32.7836314]}},{"type":"Feature","properties":{"osm_id":10606662752,"amenity":"waste_basket","check_date":"2026-06-13"},"geometry":{"type":"Point","coordinates":[-96.7987031,32.7836449]}},{"type":"Feature","properties":{"osm_id":10606662762,"amenity":"waste_basket"},"geometry":{"type":"Point","coordinates":[-96.803629,32.7788194]}},{"type":"Feature","properties":{"osm_id":10606662765,"amenity":"bench"},"geometry":{"type":"Point","coordinates":[-96.8036076,32.7788168]}},{"type":"Feature","properties":{"osm_id":10606662766,"amenity":"bench"},"geometry":{"type":"Point","coordinates":[-96.8033789,32.7788636]}},{"type":"Feature","properties":{"osm_id":10606662780,"amenity":"bench","backrest":"yes"},"geometry":{"type":"Point","coordinates":[-96.8033903,32.7773299]}},{"type":"Feature","properties":{"osm_id":10606662781,"amenity":"bench","backrest":"yes"},"geometry":{"type":"Point","coordinates":[-96.801891,32.7769256]}},{"type":"Feature","properties":{"osm_id":10606662782,"amenity":"bench","backrest":"yes"},"geometry":{"type":"Point","coordinates":[-96.8019158,32.7769239]}},{"type":"Feature","properties":{"osm_id":10606662783,"amenity":"waste_basket"},"geometry":{"type":"Point","coordinates":[-96.8019372,32.7769225]}},{"type":"Feature","properties":{"osm_id":10606662786,"amenity":"bench"},"geometry":{"type":"Point","coordinates":[-96.7977808,32.7755641]}},{"type":"Feature","properties":{"osm_id":10664249355,"amenity":"waste_basket"},"geometry":{"type":"Point","coordinates":[-96.8041383,32.7794654]}},{"type":"Feature","properties":{"osm_id":10664249356,"amenity":"bench"},"geometry":{"type":"Point","coordinates":[-96.8041319,32.7794398]}},{"type":"Feature","properties":{"osm_id":10684529208,"amenity":"bench"},"geometry":{"type":"Point","coordinates":[-96.8016133,32.7826161]}},{"type":"Feature","properties":{"osm_id":10684529284,"amenity":"waste_basket"},"geometry":{"type":"Point","coordinates":[-96.8028146,32.7784583]}},{"type":"Feature","properties":{"osm_id":10684529285,"amenity":"bench"},"geometry":{"type":"Point","coordinates":[-96.8028213,32.7784732]}},{"type":"Feature","properties":{"osm_id":11062479628,"amenity":"drinking_water","bottle":"yes","dog":"no","wheelchair":"yes"},"geometry":{"type":"Point","coordinates":[-96.7960728,32.783867]}},{"type":"Feature","properties":{"osm_id":11062479678,"amenity":"bicycle_parking","bicycle_parking":"hoop","capacity":"12","covered":"no","fee":"no"},"geometry":{"type":"Point","coordinates":[-96.7959827,32.7839838]}},{"type":"Feature","properties":{"osm_id":11132898782,"access":"yes","amenity":"bicycle_parking","bicycle_parking":"stands","capacity":"10","covered":"no","fee":"no"},"geometry":{"type":"Point","coordinates":[-96.8018627,32.7800177]}},{"type":"Feature","properties":{"osm_id":11132898783,"amenity":"cafe","name":"Otto's Coffee & Fine Foods","opening_hours":"Mo-Su 06:30-22:00","outdoor_seating":"no","phone":"+1-214-651-3685","website":"https://www.adolphus.com/restaurants-bars/ottos-coffee-and-fine-foods"},"geometry":{"type":"Point","coordinates":[-96.800075,32.779819]}},{"type":"Feature","properties":{"osm_id":11132898784,"amenity":"cafe","indoor_seating":"yes","name":"Flying Horse Cafe","opening_hours":"Mo-Fr 06:30-16:00; Sa 07:00-16:00; Su 07:00-14:00","outdoor_seating":"yes","phone":"+1-214-741-1731","website":"https://www.flyinghorsecafe.com"},"geometry":{"type":"Point","coordinates":[-96.799206,32.7800071]}},{"type":"Feature","properties":{"osm_id":11132898785,"amenity":"fountain","drinking_water":"no","fountain":"splash_pad","lit":"yes"},"geometry":{"type":"Point","coordinates":[-96.8020973,32.7796566]}},{"type":"Feature","properties":{"osm_id":11296554005,"addr:city":"Dallas","addr:housenumber":"1201","addr:postcode":"75202","addr:state":"TX","addr:street":"Main Street","amenity":"restaurant","brand":"Dickey's Barbecue Pit","brand:wikidata":"Q19880747","cuisine":"barbecue","level":"-1","name":"Dickey's Barbecue Pit","opening_hours":"Mo-Fr 07:00-15:30","website":"https://www.dickeys.com/locations/texas/dallas/dallas-main-st"},"geometry":{"type":"Point","coordinates":[-96.8017262,32.7806121]}},{"type":"Feature","properties":{"osm_id":11296554006,"addr:city":"Dallas","addr:housenumber":"1201","addr:postcode":"75202","addr:state":"TX","addr:street":"Main Street","addr:unit":"390","amenity":"restaurant","cuisine":"chinese","level":"-1","name":"Chef Wang","opening_hours":"Mo-Fr 11:00-17:30","website":"http://www.chefwangdallas.com/"},"geometry":{"type":"Point","coordinates":[-96.8028755,32.780467]}},{"type":"Feature","properties":{"osm_id":11296573729,"addr:city":"Dallas","addr:housenumber":"1201","addr:postcode":"75270","addr:state":"TX","addr:street":"Elm Street","amenity":"fast_food","brand":"Potbelly","brand:wikidata":"Q7234777","cuisine":"sandwich","drive_through":"no","level":"-1","name":"Potbelly","official_name":"Potbelly Sandwich Works","opening_hours":"Mo-Fr 07:00-16:00","takeaway":"yes","website":"https://www.potbelly.com/locations/texas/dallas-ren-tower"},"geometry":{"type":"Point","coordinates":[-96.8015788,32.7811167]}},{"type":"Feature","properties":{"osm_id":11298112820,"addr:city":"Dallas","addr:housenumber":"1414","addr:postcode":"75202","addr:state":"TX","addr:street":"Elm Street","amenity":"fast_food","brand":"Jimmy John's","brand:wikidata":"Q1689380","cuisine":"sandwich","delivery":"yes","drive_through":"no","level":"0","name":"Jimmy John's","official_name":"Jimmy John's Gourmet Sandwiches","opening_hours":"Mo-Su 10:30-20:00","phone":"+1 214-741-2970","takeaway":"yes","website":"https://locations.jimmyjohns.com/tx/dallas/sandwiches-1163.html"},"geometry":{"type":"Point","coordinates":[-96.799805,32.7811963]}},{"type":"Feature","properties":{"osm_id":11298112822,"addr:city":"Dallas","addr:housenumber":"1717","addr:postcode":"75201","addr:state":"TX","addr:street":"Main Street","amenity":"restaurant","cuisine":"steak_house","name":"Wicked Butcher"},"geometry":{"type":"Point","coordinates":[-96.7960242,32.7814468]}},{"type":"Feature","properties":{"osm_id":11339571669,"addr:city":"Dallas","addr:housenumber":"1401","addr:postcode":"75202","addr:state":"TX","addr:street":"Elm Street","addr:unit":"100","amenity":"cafe","check_date:opening_hours":"2026-04-25","cuisine":"coffee_shop","name":"White Rhino Coffee","opening_hours":"Mo-Su 07:00-19:00","outdoor_seating":"yes","phone":"+1-214-980-1150","takeaway":"yes","website":"https://whiterhinocoffee.com/"},"geometry":{"type":"Point","coordinates":[-96.801056,32.7811991]}},{"type":"Feature","properties":{"osm_id":11340444269,"addr:city":"Dallas","addr:housenumber":"1001","addr:postcode":"75202","addr:state":"TX","addr:street":"Ross Avenue","addr:unit":"132","amenity":"restaurant","bar":"yes","cuisine":"indian","name":"Shivas Bar & Grill","opening_hours":"Su-Th 11:00-22:00; Fr-Sa 11:00-24:00","phone":"+1-469-250-1429","smoking":"no","takeaway":"yes","website":"https://www.shivasbarandgrill.com/"},"geometry":{"type":"Point","coordinates":[-96.804366,32.7828288]}},{"type":"Feature","properties":{"osm_id":11411372264,"amenity":"bicycle_parking","bicycle_parking":"wall_loops","capacity":"3","covered":"no","fee":"no"},"geometry":{"type":"Point","coordinates":[-96.7996928,32.7789323]}},{"type":"Feature","properties":{"osm_id":11411372267,"access":"yes","amenity":"bicycle_parking","bicycle_parking":"stands","capacity":"2","covered":"no","fee":"no"},"geometry":{"type":"Point","coordinates":[-96.7994363,32.7806746]}},{"type":"Feature","properties":{"osm_id":11411372268,"access":"yes","amenity":"bicycle_parking","bicycle_parking":"stands","capacity":"4","covered":"no","fee":"no"},"geometry":{"type":"Point","coordinates":[-96.7990319,32.7807607]}},{"type":"Feature","properties":{"osm_id":11411390569,"access":"yes","amenity":"bicycle_parking","bicycle_parking":"stands","capacity":"4","covered":"no","fee":"no"},"geometry":{"type":"Point","coordinates":[-96.7974961,32.7810804]}},{"type":"Feature","properties":{"osm_id":11411390570,"access":"yes","amenity":"bicycle_parking","bicycle_parking":"stands","capacity":"6","covered":"no","fee":"no"},"geometry":{"type":"Point","coordinates":[-96.7972852,32.7811244]}},{"type":"Feature","properties":{"osm_id":11411390571,"access":"yes","amenity":"bicycle_parking","bicycle_parking":"stands","capacity":"4","covered":"no","fee":"no"},"geometry":{"type":"Point","coordinates":[-96.7990011,32.7806082]}},{"type":"Feature","properties":{"osm_id":11496079860,"access":"yes","amenity":"bicycle_parking","bicycle_parking":"stands","capacity":"2","covered":"no","fee":"no"},"geometry":{"type":"Point","coordinates":[-96.7963929,32.781176]}},{"type":"Feature","properties":{"osm_id":11496079861,"access":"yes","amenity":"bicycle_parking","bicycle_parking":"stands","capacity":"2","covered":"no","fee":"no"},"geometry":{"type":"Point","coordinates":[-96.796672,32.7811151]}},{"type":"Feature","properties":{"osm_id":11496079862,"access":"yes","amenity":"bicycle_parking","bicycle_parking":"stands","capacity":"2","covered":"no","fee":"no"},"geometry":{"type":"Point","coordinates":[-96.7959358,32.7814066]}},{"type":"Feature","properties":{"osm_id":11496079863,"access":"yes","amenity":"bicycle_parking","bicycle_parking":"stands","capacity":"2","covered":"no","fee":"no"},"geometry":{"type":"Point","coordinates":[-96.7961708,32.781353]}},{"type":"Feature","properties":{"osm_id":11496171971,"access":"yes","amenity":"bicycle_parking","bicycle_parking":"stands","capacity":"4","covered":"no","fee":"no"},"geometry":{"type":"Point","coordinates":[-96.7955403,32.7813775]}},{"type":"Feature","properties":{"osm_id":11498539804,"amenity":"bicycle_parking","bicycle_parking":"stands","capacity":"4","covered":"no","fee":"no"},"geometry":{"type":"Point","coordinates":[-96.8045041,32.7796239]}},{"type":"Feature","properties":{"osm_id":11498539805,"amenity":"bicycle_parking","bicycle_parking":"stands","capacity":"4","covered":"no","fee":"no"},"geometry":{"type":"Point","coordinates":[-96.8045954,32.7794176]}},{"type":"Feature","properties":{"osm_id":11498539806,"amenity":"bicycle_parking","bicycle_parking":"stands","capacity":"4","covered":"no","fee":"no"},"geometry":{"type":"Point","coordinates":[-96.8052375,32.7792294]}},{"type":"Feature","properties":{"osm_id":11498539807,"amenity":"bicycle_parking","bicycle_parking":"wave","capacity":"3","covered":"yes","fee":"no","indoor":"no"},"geometry":{"type":"Point","coordinates":[-96.805587,32.7794251]}},{"type":"Feature","properties":{"osm_id":11498813101,"amenity":"bicycle_parking","bicycle_parking":"staple","capacity":"2","covered":"no","fee":"no"},"geometry":{"type":"Point","coordinates":[-96.7970649,32.7788249]}},{"type":"Feature","properties":{"osm_id":11498813102,"amenity":"bicycle_parking","bicycle_parking":"stands","capacity":"4","covered":"no","fee":"no"},"geometry":{"type":"Point","coordinates":[-96.796777,32.7779629]}},{"type":"Feature","properties":{"osm_id":11498813103,"amenity":"bicycle_parking","bicycle_parking":"staple","capacity":"2","covered":"no","fee":"no"},"geometry":{"type":"Point","coordinates":[-96.7964272,32.7789815]}},{"type":"Feature","properties":{"osm_id":11498813104,"amenity":"bicycle_parking","bicycle_parking":"stands","capacity":"4","covered":"yes","fee":"no","indoor":"no"},"geometry":{"type":"Point","coordinates":[-96.7960439,32.7764093]}},{"type":"Feature","properties":{"osm_id":11498813106,"amenity":"bicycle_parking","bicycle_parking":"loops","capacity":"2","covered":"no","fee":"no"},"geometry":{"type":"Point","coordinates":[-96.7974962,32.7817022]}},{"type":"Feature","properties":{"osm_id":11535452011,"amenity":"bicycle_parking","bicycle_parking":"stands","capacity":"2","covered":"no","fee":"no"},"geometry":{"type":"Point","coordinates":[-96.8014311,32.7801053]}},{"type":"Feature","properties":{"osm_id":11535452012,"amenity":"bicycle_parking","bicycle_parking":"stands","capacity":"2","covered":"no","fee":"no"},"geometry":{"type":"Point","coordinates":[-96.8014695,32.780244]}},{"type":"Feature","properties":{"osm_id":11535452013,"amenity":"bicycle_parking","bicycle_parking":"loops","capacity":"4","covered":"yes","fee":"no"},"geometry":{"type":"Point","coordinates":[-96.8009591,32.779901]}},{"type":"Feature","properties":{"osm_id":11535452014,"amenity":"bicycle_parking","bicycle_parking":"staple","capacity":"2","covered":"no","fee":"no"},"geometry":{"type":"Point","coordinates":[-96.8006405,32.778764]}},{"type":"Feature","properties":{"osm_id":11535452019,"amenity":"bicycle_parking","bicycle_parking":"staple","capacity":"4","covered":"no","fee":"no"},"geometry":{"type":"Point","coordinates":[-96.7987685,32.7814422]}},{"type":"Feature","properties":{"osm_id":11535452020,"amenity":"bicycle_parking","bicycle_parking":"loops","capacity":"4","covered":"no","fee":"no"},"geometry":{"type":"Point","coordinates":[-96.7998946,32.7812195]}},{"type":"Feature","properties":{"osm_id":11554661454,"amenity":"bicycle_parking","bicycle_parking":"wave","capacity":"4","covered":"no","fee":"no"},"geometry":{"type":"Point","coordinates":[-96.8055394,32.7807937]}},{"type":"Feature","properties":{"osm_id":11558071282,"amenity":"bicycle_parking","bicycle_parking":"wave","capacity":"4","covered":"no","fee":"no"},"geometry":{"type":"Point","coordinates":[-96.8029445,32.7804789]}},{"type":"Feature","properties":{"osm_id":11562590103,"amenity":"bicycle_parking","bicycle_parking":"wave","capacity":"4","covered":"no","fee":"no"},"geometry":{"type":"Point","coordinates":[-96.8016564,32.7819807]}},{"type":"Feature","properties":{"osm_id":11565610892,"amenity":"bicycle_parking","bicycle_parking":"wave","capacity":"4","covered":"no","fee":"no"},"geometry":{"type":"Point","coordinates":[-96.8059878,32.7786109]}},{"type":"Feature","properties":{"osm_id":11565610893,"amenity":"bicycle_parking","bicycle_parking":"wave","capacity":"4","covered":"yes","fee":"no"},"geometry":{"type":"Point","coordinates":[-96.8050488,32.7796449]}},{"type":"Feature","properties":{"osm_id":11606327596,"amenity":"bicycle_parking","bicycle_parking":"stands","capacity":"4","covered":"yes","fee":"no","indoor":"no"},"geometry":{"type":"Point","coordinates":[-96.7977815,32.7760141]}},{"type":"Feature","properties":{"osm_id":11606327597,"amenity":"bicycle_parking","bicycle_parking":"staple","capacity":"8","covered":"yes","fee":"no","indoor":"no"},"geometry":{"type":"Point","coordinates":[-96.7975012,32.7763234]}},{"type":"Feature","properties":{"osm_id":11606327598,"amenity":"bicycle_parking","bicycle_parking":"wall_loops","capacity":"4","covered":"no","fee":"no"},"geometry":{"type":"Point","coordinates":[-96.799703,32.7796539]}},{"type":"Feature","properties":{"osm_id":11606327599,"amenity":"bicycle_parking","bicycle_parking":"wall_loops","capacity":"4","covered":"no","fee":"no"},"geometry":{"type":"Point","coordinates":[-96.7985887,32.7793132]}},{"type":"Feature","properties":{"osm_id":11606327600,"amenity":"bicycle_parking","bicycle_parking":"staple","capacity":"1","covered":"no","fee":"no"},"geometry":{"type":"Point","coordinates":[-96.8037222,32.7779778]}},{"type":"Feature","properties":{"osm_id":11606327601,"amenity":"bicycle_parking","bicycle_parking":"wave","capacity":"3","covered":"no","fee":"no"},"geometry":{"type":"Point","coordinates":[-96.8054989,32.7778606]}},{"type":"Feature","properties":{"osm_id":11606327604,"amenity":"bicycle_parking","bicycle_parking":"wave","capacity":"3","covered":"no","fee":"no"},"geometry":{"type":"Point","coordinates":[-96.8031416,32.7787147]}},{"type":"Feature","properties":{"osm_id":11606327605,"amenity":"bicycle_parking","bicycle_parking":"wall_loops","capacity":"4","covered":"no","fee":"no"},"geometry":{"type":"Point","coordinates":[-96.7981794,32.7790496]}},{"type":"Feature","properties":{"osm_id":11606327606,"amenity":"bicycle_parking","bicycle_parking":"staple","capacity":"1","covered":"no","fee":"no"},"geometry":{"type":"Point","coordinates":[-96.8024947,32.7766398]}},{"type":"Feature","properties":{"osm_id":11606327607,"amenity":"shelter","bench":"yes","bin":"yes","shelter_type":"public_transport"},"geometry":{"type":"Point","coordinates":[-96.8024515,32.7765879]}},{"type":"Feature","properties":{"osm_id":11606327608,"amenity":"bicycle_parking","bicycle_parking":"wave","capacity":"4","covered":"no","fee":"no"},"geometry":{"type":"Point","coordinates":[-96.8008475,32.7767253]}},{"type":"Feature","properties":{"osm_id":11606698263,"amenity":"bicycle_parking","bicycle_parking":"staple","capacity":"2","covered":"no","fee":"no"},"geometry":{"type":"Point","coordinates":[-96.7978217,32.7794633]}},{"type":"Feature","properties":{"osm_id":11606698264,"amenity":"bicycle_parking","bicycle_parking":"staple","capacity":"5","covered":"no","fee":"no"},"geometry":{"type":"Point","coordinates":[-96.8009283,32.7795839]}},{"type":"Feature","properties":{"osm_id":11612227395,"amenity":"shelter","bench":"yes","bin":"yes","operator":"DART","shelter_type":"public_transport"},"geometry":{"type":"Point","coordinates":[-96.8053113,32.7767816]}},{"type":"Feature","properties":{"osm_id":11617199616,"amenity":"bicycle_parking","bicycle_parking":"wave","capacity":"2","covered":"no","fee":"no"},"geometry":{"type":"Point","coordinates":[-96.8038739,32.7818292]}},{"type":"Feature","properties":{"osm_id":11623793763,"amenity":"vending_machine","currency:USD":"yes","payment:american_express":"yes","payment:credit_cards":"yes","payment:debit_cards":"yes","payment:discover_card":"yes","payment:mastercard":"yes","payment:visa":"yes","vending":"parking_tickets"},"geometry":{"type":"Point","coordinates":[-96.8058989,32.7835375]}},{"type":"Feature","properties":{"osm_id":11633151078,"amenity":"drinking_water","dog":"yes","fee":"no","wheelchair":"yes"},"geometry":{"type":"Point","coordinates":[-96.8041709,32.7806488]}},{"type":"Feature","properties":{"osm_id":11633151079,"amenity":"bicycle_parking","bicycle_parking":"loops","capacity":"4","covered":"no","fee":"no"},"geometry":{"type":"Point","coordinates":[-96.7989624,32.7823079]}},{"type":"Feature","properties":{"osm_id":11633151080,"amenity":"bicycle_parking","bicycle_parking":"wall_loops","capacity":"8","covered":"no","fee":"no"},"geometry":{"type":"Point","coordinates":[-96.7976929,32.7819573]}},{"type":"Feature","properties":{"osm_id":11633151081,"amenity":"bicycle_parking","bicycle_parking":"loops","capacity":"2","covered":"no","fee":"no"},"geometry":{"type":"Point","coordinates":[-96.8005792,32.7810785]}},{"type":"Feature","properties":{"osm_id":11638921860,"amenity":"bicycle_parking","bicycle_parking":"loops","capacity":"6","covered":"no","fee":"no"},"geometry":{"type":"Point","coordinates":[-96.7950053,32.7798845]}},{"type":"Feature","properties":{"osm_id":11638921862,"amenity":"bicycle_parking","bicycle_parking":"staple","capacity":"2","covered":"no","fee":"no"},"geometry":{"type":"Point","coordinates":[-96.7952272,32.7796383]}},{"type":"Feature","properties":{"osm_id":11741339775,"amenity":"bicycle_parking","bicycle_parking":"wave","capacity":"3","covered":"no","fee":"no"},"geometry":{"type":"Point","coordinates":[-96.8052606,32.7800298]}},{"type":"Feature","properties":{"osm_id":11760950319,"amenity":"bicycle_parking","bicycle_parking":"staple","capacity":"2","covered":"no","fee":"no"},"geometry":{"type":"Point","coordinates":[-96.8045051,32.7798929]}},{"type":"Feature","properties":{"osm_id":11760950320,"amenity":"bicycle_parking","bicycle_parking":"staple","capacity":"2","covered":"no","fee":"no"},"geometry":{"type":"Point","coordinates":[-96.8043974,32.7802062]}},{"type":"Feature","properties":{"osm_id":11762761716,"amenity":"parking_entrance","level":"-1","parking":"underground"},"geometry":{"type":"Point","coordinates":[-96.8057446,32.7762302]}},{"type":"Feature","properties":{"osm_id":11873219626,"access":"yes","amenity":"drinking_water","bottle":"yes","dog":"no","wheelchair":"yes"},"geometry":{"type":"Point","coordinates":[-96.7964884,32.783673]}},{"type":"Feature","properties":{"osm_id":11892572837,"access":"yes","amenity":"bicycle_parking","bicycle_parking":"stands","capacity":"2","covered":"no","fee":"no","panoramax":"117c5597-4801-44ad-ad9e-cfce0768cb1b"},"geometry":{"type":"Point","coordinates":[-96.7988593,32.776406]}},{"type":"Feature","properties":{"osm_id":11901848306,"amenity":"bicycle_parking","bicycle_parking":"staple","capacity":"22","covered":"no","fee":"no"},"geometry":{"type":"Point","coordinates":[-96.8044373,32.7758569]}},{"type":"Feature","properties":{"osm_id":11901848313,"access":"private","amenity":"parking_entrance"},"geometry":{"type":"Point","coordinates":[-96.8039334,32.7745624]}},{"type":"Feature","properties":{"osm_id":11901848315,"amenity":"parking_entrance"},"geometry":{"type":"Point","coordinates":[-96.8041323,32.7745175]}},{"type":"Feature","properties":{"osm_id":12001565001,"access":"yes","amenity":"bicycle_parking","bicycle_parking":"wall_loops","capacity":"16","covered":"yes","fee":"no","indoor":"yes","opening_hours":"Tu 09:00-20:00; We 09:00-17:00; Th 09:00-20:00; Fr 09:00-17:00; Sa-Su 09:00-16:00","operator":"Dallas Public Library"},"geometry":{"type":"Point","coordinates":[-96.7968349,32.7781764]}},{"type":"Feature","properties":{"osm_id":12093271659,"amenity":"bicycle_parking","bicycle_parking":"stands","capacity":"2","covered":"no","fee":"no"},"geometry":{"type":"Point","coordinates":[-96.7998666,32.7804429]}},{"type":"Feature","properties":{"osm_id":12093271660,"amenity":"bicycle_parking","bicycle_parking":"stands","capacity":"2","covered":"no","fee":"no"},"geometry":{"type":"Point","coordinates":[-96.7975104,32.7809358]}},{"type":"Feature","properties":{"osm_id":12191912751,"access":"private","amenity":"parking_entrance","level":"0","parking":"underground"},"geometry":{"type":"Point","coordinates":[-96.7978132,32.7835296]}},{"type":"Feature","properties":{"osm_id":12242555990,"access":"yes","amenity":"toilets","fee":"no","female":"yes","male":"yes","wheelchair":"yes"},"geometry":{"type":"Point","coordinates":[-96.804026,32.7815178]}},{"type":"Feature","properties":{"osm_id":12242555991,"amenity":"drinking_water","fee":"no","indoor":"yes","wheelchair":"yes"},"geometry":{"type":"Point","coordinates":[-96.8039459,32.7815745]}},{"type":"Feature","properties":{"osm_id":12299715820,"amenity":"bicycle_parking","bicycle_parking":"staple","capacity":"2","covered":"no","fee":"no"},"geometry":{"type":"Point","coordinates":[-96.7963555,32.7776029]}},{"type":"Feature","properties":{"osm_id":12310561740,"amenity":"parking_space","capacity":"2","parking_space":"disabled"},"geometry":{"type":"Point","coordinates":[-96.7987014,32.7778948]}},{"type":"Feature","properties":{"osm_id":12310561741,"amenity":"parking_space","capacity":"1","parking_space":"disabled"},"geometry":{"type":"Point","coordinates":[-96.79777,32.7785606]}},{"type":"Feature","properties":{"osm_id":12338706986,"amenity":"restaurant","cuisine":"pizza","name":"i Fratelli Pizza"},"geometry":{"type":"Point","coordinates":[-96.8046962,32.782553]}},{"type":"Feature","properties":{"osm_id":12338706988,"addr:city":"Dallas","addr:housenumber":"1001","addr:postcode":"75202","addr:state":"TX","addr:street":"Ross Avenue","addr:unit":"118","amenity":"restaurant","cuisine":"mexican","name":"The Empanada Cookhouse"},"geometry":{"type":"Point","coordinates":[-96.8048466,32.7824352]}},{"type":"Feature","properties":{"osm_id":12338706989,"amenity":"atm","brand":"Wells Fargo","brand:wikidata":"Q744149","operator":"Wells Fargo","operator:wikidata":"Q744149"},"geometry":{"type":"Point","coordinates":[-96.8048742,32.782412]}},{"type":"Feature","properties":{"osm_id":12338706991,"amenity":"parking_entrance"},"geometry":{"type":"Point","coordinates":[-96.8049795,32.7822851]}},{"type":"Feature","properties":{"osm_id":12338742106,"amenity":"fast_food","cuisine":"chicken","name":"Louisiana Fried Chicken"},"geometry":{"type":"Point","coordinates":[-96.8046031,32.7816317]}},{"type":"Feature","properties":{"osm_id":12338775967,"addr:unit":"220","amenity":"fast_food","brand":"Chick-fil-A","brand:wikidata":"Q491516","check_date":"2026-04-25","cuisine":"chicken","drive_through":"no","name":"Chick-fil-A","opening_hours":"Mo-Sa 07:00-21:00","outdoor_seating":"yes","takeaway":"yes","toilets":"yes"},"geometry":{"type":"Point","coordinates":[-96.8000097,32.7814475]}},{"type":"Feature","properties":{"osm_id":12338775968,"addr:city":"Dallas","addr:housenumber":"211","addr:postcode":"75202","addr:state":"TX","addr:street":"South Akard Street","amenity":"food_court","internet_access":"yes","internet_access:fee":"no","name":"The Exchange Food Hall","opening_hours":"Su-Th 07:00-21:00; Fr-Sa 07:00-23:00","outdoor_seating":"yes","website":"https://theexchangehall.com/"},"geometry":{"type":"Point","coordinates":[-96.7999369,32.7794088]}},{"type":"Feature","properties":{"osm_id":12338775969,"amenity":"restaurant","cuisine":"mediterranean","name":"Baboushi"},"geometry":{"type":"Point","coordinates":[-96.8001238,32.7794173]}},{"type":"Feature","properties":{"osm_id":12338775970,"amenity":"restaurant","cuisine":"pizza","name":"Basilico"},"geometry":{"type":"Point","coordinates":[-96.800195,32.7793516]}},{"type":"Feature","properties":{"osm_id":12338775971,"amenity":"fast_food","cuisine":"mexican","name":"Chilangos"},"geometry":{"type":"Point","coordinates":[-96.8002825,32.7793843]}},{"type":"Feature","properties":{"osm_id":12338775972,"amenity":"restaurant","cuisine":"salad","name":"Dallas sallaD"},"geometry":{"type":"Point","coordinates":[-96.8000408,32.7794346]}},{"type":"Feature","properties":{"osm_id":12338775973,"amenity":"restaurant","cuisine":"seafood","name":"The Dock"},"geometry":{"type":"Point","coordinates":[-96.7999732,32.7795034]}},{"type":"Feature","properties":{"osm_id":12338775974,"amenity":"fast_food","cuisine":"burger","name":"Easy Slider"},"geometry":{"type":"Point","coordinates":[-96.8002672,32.7793358]}},{"type":"Feature","properties":{"osm_id":12338775975,"amenity":"bar","name":"The Exchange Bar"},"geometry":{"type":"Point","coordinates":[-96.7999537,32.7794526]}},{"type":"Feature","properties":{"osm_id":12338775977,"amenity":"fast_food","cuisine":"chicken","name":"JuJu's Chicken Tenders"},"geometry":{"type":"Point","coordinates":[-96.8002125,32.779399]}},{"type":"Feature","properties":{"osm_id":12338775978,"amenity":"restaurant","cuisine":"indian","name":"O'Desi Aroma"},"geometry":{"type":"Point","coordinates":[-96.8002984,32.7794347]}},{"type":"Feature","properties":{"osm_id":12338775979,"amenity":"restaurant","cuisine":"ramen","name":"Oodle's Noodles"},"geometry":{"type":"Point","coordinates":[-96.8002309,32.7794488]}},{"type":"Feature","properties":{"osm_id":12338775980,"amenity":"cafe","name":"Two Wings Cofee Co."},"geometry":{"type":"Point","coordinates":[-96.8000586,32.7794853]}},{"type":"Feature","properties":{"osm_id":12338775981,"amenity":"ice_cream","name":"The Spun Cow Creamery"},"geometry":{"type":"Point","coordinates":[-96.800025,32.7793893]}},{"type":"Feature","properties":{"osm_id":12338775982,"amenity":"restaurant","name":"Dallas Cowboys Cookout"},"geometry":{"type":"Point","coordinates":[-96.8001437,32.7794673]}},{"type":"Feature","properties":{"osm_id":12349654349,"access":"private","amenity":"parking_entrance","level":"0","parking":"multi-storey"},"geometry":{"type":"Point","coordinates":[-96.7979332,32.7794543]}},{"type":"Feature","properties":{"osm_id":12459843650,"amenity":"bicycle_parking","bicycle_parking":"wave","capacity":"4","covered":"yes","fee":"no","indoor":"no"},"geometry":{"type":"Point","coordinates":[-96.797306,32.7763711]}},{"type":"Feature","properties":{"osm_id":12459843651,"amenity":"bicycle_parking","bicycle_parking":"staple","capacity":"2","covered":"yes","fee":"no"},"geometry":{"type":"Point","coordinates":[-96.800279,32.7750261]}},{"type":"Feature","properties":{"osm_id":12459843652,"amenity":"bicycle_parking","bicycle_parking":"stands","capacity":"4","covered":"no","fee":"no"},"geometry":{"type":"Point","coordinates":[-96.8018792,32.7750311]}},{"type":"Feature","properties":{"osm_id":12459843655,"access":"yes","amenity":"parking_entrance","parking":"multi-storey"},"geometry":{"type":"Point","coordinates":[-96.8048247,32.7772054]}},{"type":"Feature","properties":{"osm_id":12459843674,"access":"yes","amenity":"parking_entrance","parking":"multi-storey"},"geometry":{"type":"Point","coordinates":[-96.805043,32.7777275]}},{"type":"Feature","properties":{"osm_id":12487488914,"addr:city":"Dallas","addr:housenumber":"411","addr:postcode":"75201","addr:state":"TX","addr:street":"North Akard Street","amenity":"restaurant","bar":"no","cuisine":"mexican","drive_through":"no","name":"Salsa Lim\u00f3n","opening_hours":"Mo-Su 09:00-21:00","phone":"+1-972-803-4388","website":"https://salsalimon.com/home/"},"geometry":{"type":"Point","coordinates":[-96.8005524,32.7833323]}},{"type":"Feature","properties":{"osm_id":12505011761,"addr:city":"Dallas","addr:housenumber":"1601","addr:postcode":"75201","addr:state":"TX","addr:street":"Elm Street","addr:unit":"120","amenity":"cafe","bar":"yes","cuisine":"coffee_shop;breakfast;american","name":"Parterre","opening_hours":"Mo-Fr 07:00-19:00; Sa-Su 10:00-15:00","outdoor_seating":"yes","phone":"+1 945-209-0709","smoking":"no","website":"https://www.parterredallas.com","website:menu":"https://www.parterredallas.com/menu"},"geometry":{"type":"Point","coordinates":[-96.7977823,32.7819617]}},{"type":"Feature","properties":{"osm_id":12505011763,"addr:city":"Dallas","addr:housenumber":"1514","addr:postcode":"75201","addr:state":"TX","addr:street":"Elm Street","addr:unit":"611","amenity":"restaurant","bar":"yes","cuisine":"asian","level":"5","name":"Sky Blossom Bistro","opening_hours":"Su-Th 11:00-23:00; Fr-Sa 11:00-23:30","outdoor_seating":"yes","phone":"+1 469-313-1524","website":"https://www.skyblossombistro.com","website:menu":"https://www.skyblossombistro.com/menu"},"geometry":{"type":"Point","coordinates":[-96.7988747,32.7812546]}},{"type":"Feature","properties":{"osm_id":12505011764,"addr:city":"Dallas","addr:housenumber":"1520","addr:postcode":"75201","addr:state":"TX","addr:street":"Elm Street","addr:unit":"107","amenity":"fast_food","cuisine":"bagel","drive_through":"no","name":"Starship Bagel","opening_hours":"Mo-Su 07:00-13:00","outdoor_seating":"yes","phone":"+1 214-629-6685","smoking":"no","website":"https://www.starshipbagel.com","website:menu":"https://preorder.starshipbagel.com"},"geometry":{"type":"Point","coordinates":[-96.7984884,32.7811328]}},{"type":"Feature","properties":{"osm_id":12505011765,"addr:city":"Dallas","addr:housenumber":"1514","addr:postcode":"75201","addr:state":"TX","addr:street":"Elm Street","amenity":"restaurant","bar":"yes","cuisine":"brunch;burger;sandwich;grill","name":"City Tavern","opening_hours":"Mo-Su 11:00-02:00","outdoor_seating":"yes","phone":"+1 972-629-9300","website":"https://citytaverndowntown.com","website:menu":"https://citytaverndowntown.com/dallas-downtown-dallas-city-tavern-food-menu"},"geometry":{"type":"Point","coordinates":[-96.7990986,32.7813189]}},{"type":"Feature","properties":{"osm_id":12505011766,"addr:city":"Dallas","addr:housenumber":"1520","addr:postcode":"75201","addr:state":"TX","addr:street":"Elm Street","addr:unit":"201","amenity":"restaurant","bar":"yes","cuisine":"grill","level":"1","name":"The Woolworth","opening_hours":"Mo 16:00-23:00; Tu-Th 11:00-23:00; Fr 11:00-24:00; Sa 10:00-24:00","phone":"+1 214-814-0588","smoking":"no","website":"https://www.thewoolworthdallas.com","website:menu":"https://www.thewoolworthdallas.com/menu"},"geometry":{"type":"Point","coordinates":[-96.7985957,32.7812332]}},{"type":"Feature","properties":{"osm_id":12512702449,"addr:city":"Dallas","addr:housenumber":"1530","addr:postcode":"75201","addr:state":"TX","addr:street":"Main Street","amenity":"bar","level":"-1","name":"Midnight Rambler","opening_hours":"Tu-We 17:00-24:00; Th-Sa 17:00-02:00","smoking":"no","website":"https://midnightramblerbar.com"},"geometry":{"type":"Point","coordinates":[-96.7982855,32.7806733]}},{"type":"Feature","properties":{"osm_id":12513604611,"access":"permissive","amenity":"toilets","changing_table":"yes","female":"yes","male":"yes","wheelchair":"yes"},"geometry":{"type":"Point","coordinates":[-96.7997449,32.7791879]}},{"type":"Feature","properties":{"osm_id":12513604640,"amenity":"parking_entrance","parking":"multi-storey"},"geometry":{"type":"Point","coordinates":[-96.8011547,32.7793321]}},{"type":"Feature","properties":{"osm_id":12519505047,"addr:city":"Dallas","addr:housenumber":"1530","addr:postcode":"75201","addr:state":"TX","addr:street":"Main Street","amenity":"restaurant","bar":"yes","cuisine":"regional","name":"CBD Provisions","opening_hours":"Su-Th 07:00-22:00; Fr-Sa 07:00-23:00","phone":"+1 214-261-4500","smoking":"no","website":"https://www.thejouledallas.com/cbd-provisions"},"geometry":{"type":"Point","coordinates":[-96.7981436,32.7807292]}},{"type":"Feature","properties":{"osm_id":12519505050,"addr:city":"Dallas","addr:housenumber":"1604","addr:postcode":"75201","addr:state":"TX","addr:street":"Main Street","addr:unit":"110","amenity":"cafe","cuisine":"japanese;sandwich","indoor_seating":"yes","name":"Sandoitchi","opening_hours":"We-Fr 10:00-15:00; Sa-Su 10:00-16:00","outdoor_seating":"yes","phone":"+1 817-891-7056","takeaway":"yes","website":"https://www.sandoitchi.com","website:menu":"https://www.toasttab.com/local/order/sandoitchi/r-f24836a8-fd60-4e0d-9866-a1a0af6d15aa"},"geometry":{"type":"Point","coordinates":[-96.7980839,32.7807598]}},{"type":"Feature","properties":{"osm_id":12519505051,"addr:city":"Dallas","addr:housenumber":"1510","addr:postcode":"75201","addr:state":"TX","addr:street":"Pacific Avenue","amenity":"restaurant","check_date":"2025-04-10","cuisine":"american","name":"Caf\u00e9 Momentum","opening_hours":"Th-Sa 17:30-21:30","phone":"+1 214-303-1234","website":"https://cafemomentum.org/dallas/"},"geometry":{"type":"Point","coordinates":[-96.7994367,32.7820478]}},{"type":"Feature","properties":{"osm_id":12519505052,"access":"yes","amenity":"parking_entrance","maxheight":"6'8\"","parking":"multi-storey"},"geometry":{"type":"Point","coordinates":[-96.8006749,32.7810245]}},{"type":"Feature","properties":{"osm_id":12519505055,"addr:city":"Dallas","addr:housenumber":"1306","addr:postcode":"75202","addr:state":"TX","addr:street":"Elm Street","amenity":"restaurant","bar":"yes","cuisine":"sushi;japanese;asian","delivery":"yes","name":"SushiYa","opening_hours":"Mo-Th 11:00-14:00,17:30-21:00; Fr 11:00-14:00,17:30-22:00; Sa 11:00-14:00,17:00-22:00","phone":"+1 214-744-9600","takeaway":"yes","website":"https://www.sushiyatx.com"},"geometry":{"type":"Point","coordinates":[-96.8008925,32.7809606]}},{"type":"Feature","properties":{"osm_id":12519505058,"access":"yes","addr:city":"Dallas","addr:housenumber":"1408","addr:state":"TX","addr:street":"Elm Street","amenity":"parking_entrance","maxheight":"8'","parking":"multi-storey"},"geometry":{"type":"Point","coordinates":[-96.8003358,32.7810999]}},{"type":"Feature","properties":{"osm_id":12544063970,"amenity":"bicycle_parking","bicycle_parking":"wave","capacity":"3","covered":"no","fee":"no"},"geometry":{"type":"Point","coordinates":[-96.8047988,32.7832473]}},{"type":"Feature","properties":{"osm_id":12645629361,"amenity":"bicycle_parking","bicycle_parking":"stands","capacity":"2","covered":"no","fee":"no"},"geometry":{"type":"Point","coordinates":[-96.7955662,32.7812437]}},{"type":"Feature","properties":{"osm_id":12645629362,"amenity":"bicycle_parking","bicycle_parking":"stands","capacity":"4","covered":"no","fee":"no"},"geometry":{"type":"Point","coordinates":[-96.7953963,32.7815513]}},{"type":"Feature","properties":{"osm_id":12656788447,"amenity":"bicycle_parking","bicycle_parking":"stands","capacity":"2","covered":"no","fee":"no"},"geometry":{"type":"Point","coordinates":[-96.795385,32.7821715]}},{"type":"Feature","properties":{"osm_id":12677608190,"amenity":"loading_dock"},"geometry":{"type":"Point","coordinates":[-96.8047305,32.7775553]}},{"type":"Feature","properties":{"osm_id":12745808197,"addr:housenumber":"300","addr:street":"North Akard Street","addr:unit":"110","amenity":"fast_food","check_date":"2025-06-01","cuisine":"mexican;burger;hot_dog","drive_through":"no","name":"Primo Tacos & Hot Dogs","opening_hours":"Mo-We 08:30-23:00; Th 08:30-02:00; Fr 08:30-03:00; Sa 12:00-03:00; Su 12:00-23:00","payment:american_express":"yes","payment:cash":"no","payment:discover_card":"yes","payment:mastercard":"yes","payment:visa":"yes","phone":"+1 469-547-2047","website":"https://primostacosandhotdogs.square.site","wheelchair":"yes"},"geometry":{"type":"Point","coordinates":[-96.7997129,32.7822768]}},{"type":"Feature","properties":{"osm_id":12944880419,"amenity":"bicycle_parking","bicycle_parking":"stands","capacity":"2","covered":"no","fee":"no"},"geometry":{"type":"Point","coordinates":[-96.8041816,32.7797385]}},{"type":"Feature","properties":{"osm_id":13009997770,"amenity":"loading_dock"},"geometry":{"type":"Point","coordinates":[-96.8059749,32.7777728]}},{"type":"Feature","properties":{"osm_id":13024469390,"amenity":"parking_entrance","maxheight":"13'0\"","parking":"underground"},"geometry":{"type":"Point","coordinates":[-96.7962447,32.7819591]}},{"type":"Feature","properties":{"osm_id":13028534179,"amenity":"bicycle_parking","bicycle_parking":"stands","capacity":"2","covered":"no"},"geometry":{"type":"Point","coordinates":[-96.8044501,32.779448]}},{"type":"Feature","properties":{"osm_id":13030742617,"amenity":"parking_entrance","maxheight":"6'8\"","parking":"multi-storey"},"geometry":{"type":"Point","coordinates":[-96.8044051,32.7788919]}},{"type":"Feature","properties":{"osm_id":13030742620,"amenity":"parking_entrance"},"geometry":{"type":"Point","coordinates":[-96.804982,32.7791802]}},{"type":"Feature","properties":{"osm_id":13030742632,"amenity":"parking_entrance","maxheight":"6'8\"","parking":"multi-storey"},"geometry":{"type":"Point","coordinates":[-96.8042876,32.7790659]}},{"type":"Feature","properties":{"osm_id":13030742636,"amenity":"loading_dock"},"geometry":{"type":"Point","coordinates":[-96.8043042,32.7791232]}},{"type":"Feature","properties":{"osm_id":13046656475,"amenity":"parking_entrance","maxheight":"7'2\""},"geometry":{"type":"Point","coordinates":[-96.8001315,32.7783244]}},{"type":"Feature","properties":{"osm_id":13046656477,"amenity":"parking_entrance","maxheight":"7'2\""},"geometry":{"type":"Point","coordinates":[-96.7996878,32.7784237]}},{"type":"Feature","properties":{"osm_id":13046656479,"amenity":"loading_dock"},"geometry":{"type":"Point","coordinates":[-96.7996263,32.7784239]}},{"type":"Feature","properties":{"osm_id":13046823428,"amenity":"parking_entrance","maxheight":"7'2\""},"geometry":{"type":"Point","coordinates":[-96.8024062,32.778533]}},{"type":"Feature","properties":{"osm_id":13046936605,"access":"permit","amenity":"parking_entrance","level":"-1","maxheight":"12'","parking":"underground"},"geometry":{"type":"Point","coordinates":[-96.8058844,32.7767325]}},{"type":"Feature","properties":{"osm_id":13046936607,"amenity":"parking_entrance","maxheight:signed":"no","parking":"multi-storey"},"geometry":{"type":"Point","coordinates":[-96.8017151,32.7770428]}},{"type":"Feature","properties":{"osm_id":13070728501,"amenity":"atm","drive_through":"yes"},"geometry":{"type":"Point","coordinates":[-96.802463,32.7830048]}},{"type":"Feature","properties":{"osm_id":13072669597,"amenity":"bicycle_parking","bicycle_parking":"wall_loops","capacity":"12","covered":"no"},"geometry":{"type":"Point","coordinates":[-96.8059842,32.7794712]}},{"type":"Feature","properties":{"osm_id":13109161350,"amenity":"restaurant","level":"8","level:ref":"9","name":"The Little Daisy"},"geometry":{"type":"Point","coordinates":[-96.8003346,32.7817411]}},{"type":"Feature","properties":{"osm_id":13109470349,"addr:city":"Dallas","addr:housenumber":"418","addr:state":"TX","addr:street":"South Ervay Street","amenity":"fast_food","name":"Wing Stop"},"geometry":{"type":"Point","coordinates":[-96.7962711,32.7784402]}},{"type":"Feature","properties":{"osm_id":13109470351,"amenity":"restaurant","indoor_seating":"yes","name":"Cowboy Chow","outdoor_seating":"yes"},"geometry":{"type":"Point","coordinates":[-96.7994253,32.7786482]}},{"type":"Feature","properties":{"osm_id":13112374966,"amenity":"restaurant","name":"Kendall's Soul Food"},"geometry":{"type":"Point","coordinates":[-96.8040824,32.7805499]}},{"type":"Feature","properties":{"osm_id":13112374968,"amenity":"bar","name":"Carp\u00e9"},"geometry":{"type":"Point","coordinates":[-96.799782,32.7819127]}},{"type":"Feature","properties":{"osm_id":13157185642,"access":"private","amenity":"parking_entrance","parking":"multi-storey"},"geometry":{"type":"Point","coordinates":[-96.7995958,32.7820493]}},{"type":"Feature","properties":{"osm_id":13157185645,"access":"private","amenity":"parking_entrance","maxheight":"7'6\"","parking":"multi-storey"},"geometry":{"type":"Point","coordinates":[-96.7988112,32.7821945]}},{"type":"Feature","properties":{"osm_id":13157185648,"amenity":"parking_entrance","level":"-1","parking":"underground"},"geometry":{"type":"Point","coordinates":[-96.7978053,32.7822657]}},{"type":"Feature","properties":{"osm_id":13157185654,"amenity":"parking_entrance","level":"0","parking":"multi-storey"},"geometry":{"type":"Point","coordinates":[-96.794736,32.7839009]}},{"type":"Feature","properties":{"osm_id":13293714376,"amenity":"bicycle_parking","bicycle_parking":"wave","capacity":"4","covered":"yes"},"geometry":{"type":"Point","coordinates":[-96.8019997,32.7791268]}},{"type":"Feature","properties":{"osm_id":13301934140,"addr:city":"Dallas","addr:full":"1700 Pacific Avenue #C106 Dallas TX 75201 US","addr:housenumber":"1700","addr:postcode":"75201","addr:state":"TX","addr:street":"Pacific Avenue","amenity":"fast_food","check_date":"2025-11-16","check_date:currency:XBT":"2025-11-16","contact:facebook":"https://www.facebook.com/profile.php?id=100089940775783","contact:instagram":"moudis.tx","cuisine":"bagel","currency:XBT":"yes","email":"moudistx@gmail.com","logo":"https://square-web-production-f.squarecdn.com/files/7c6188cad7ef7901a50cee0e84d0159caac3cff5/original.jpeg","name":"Moudi\u2019s","opening_hours":"Mo-Fr 07:00-14:00","payment:lightning":"yes","payment:lightning_contactless":"no","payment:lightning:operator":"square","payment:onchain":"no","phone":"+1 972 408 5495"},"geometry":{"type":"Point","coordinates":[-96.7967831,32.78221]}},{"type":"Feature","properties":{"osm_id":13323523324,"amenity":"cafe","cuisine":"coffee_shop","level":"1","name":"Deep Cuts Coffee","outdoor_seating":"no","website":"https://deepcutscoffee.com/"},"geometry":{"type":"Point","coordinates":[-96.7952969,32.7824196]}},{"type":"Feature","properties":{"osm_id":13323523325,"access":"permissive","amenity":"toilets","female":"yes","level":"1","toilets:disposal":"flush"},"geometry":{"type":"Point","coordinates":[-96.7953522,32.7824632]}},{"type":"Feature","properties":{"osm_id":13323523326,"access":"permissive","amenity":"toilets","level":"1","male":"yes","toilets:disposal":"flush"},"geometry":{"type":"Point","coordinates":[-96.7954316,32.7825616]}},{"type":"Feature","properties":{"osm_id":13334726143,"amenity":"parking_entrance","level":"0","parking":"multi-storey"},"geometry":{"type":"Point","coordinates":[-96.7947651,32.783881]}},{"type":"Feature","properties":{"osm_id":13472653331,"amenity":"bicycle_parking","bicycle_parking":"stands","capacity":"6","covered":"yes","lit":"yes"},"geometry":{"type":"Point","coordinates":[-96.7956985,32.7828205]}},{"type":"Feature","properties":{"osm_id":13484554474,"amenity":"bicycle_parking","bicycle_parking":"stands","capacity":"2","covered":"no"},"geometry":{"type":"Point","coordinates":[-96.801443,32.7778935]}},{"type":"Feature","properties":{"osm_id":13484582637,"amenity":"bicycle_parking","bicycle_parking":"wave","capacity":"3","covered":"no"},"geometry":{"type":"Point","coordinates":[-96.8008481,32.7772129]}},{"type":"Feature","properties":{"osm_id":13484582638,"amenity":"bicycle_parking","bicycle_parking":"stands","capacity":"2","covered":"no"},"geometry":{"type":"Point","coordinates":[-96.7990844,32.7774002]}},{"type":"Feature","properties":{"osm_id":13504115552,"amenity":"bicycle_parking","bicycle_parking":"stands","capacity":"2","covered":"no"},"geometry":{"type":"Point","coordinates":[-96.8045422,32.7778717]}},{"type":"Feature","properties":{"osm_id":13504480863,"amenity":"bicycle_parking","bicycle_parking":"stands","capacity":"2","covered":"no"},"geometry":{"type":"Point","coordinates":[-96.8036923,32.7782053]}},{"type":"Feature","properties":{"osm_id":13515581703,"amenity":"bicycle_parking","bicycle_parking":"stands","capacity":"2","covered":"no"},"geometry":{"type":"Point","coordinates":[-96.8045293,32.7780282]}},{"type":"Feature","properties":{"osm_id":13530613419,"access":"yes","amenity":"parking_entrance","maxheight":"6'9\""},"geometry":{"type":"Point","coordinates":[-96.8027935,32.7831334]}},{"type":"Feature","properties":{"osm_id":13530613424,"amenity":"parking_entrance"},"geometry":{"type":"Point","coordinates":[-96.8020034,32.7817651]}},{"type":"Feature","properties":{"osm_id":13530613427,"amenity":"parking_entrance","maxheight":"6'5\"","parking":"multi-storey"},"geometry":{"type":"Point","coordinates":[-96.8017475,32.7818239]}},{"type":"Feature","properties":{"osm_id":13646513574,"amenity":"bar","check_date":"2026-03-13","indoor_seating":"yes","name":"1519 Main","opening_hours":"Tu-Sa 17:00-24:00","outdoor_seating":"no","payment:cash":"yes","payment:credit_cards":"yes","payment:debit_cards":"yes","phone":"+1-972-497-2410","website":"https://www.1519main.com","wheelchair":"yes"},"geometry":{"type":"Point","coordinates":[-96.7987765,32.7808801]}},{"type":"Feature","properties":{"osm_id":13646800513,"amenity":"bicycle_parking","bicycle_parking":"wave","capacity":"22","covered":"no"},"geometry":{"type":"Point","coordinates":[-96.804832,32.7753245]}},{"type":"Feature","properties":{"osm_id":13685692271,"addr:city":"Dallas","addr:housenumber":"1408","addr:postcode":"75202","addr:state":"TX","addr:street":"Main Street","amenity":"restaurant","cuisine":"indian","name":"Gymkhana","phone":"+1-469-399-5335","website":"https://www.gymkhanadallas.com"},"geometry":{"type":"Point","coordinates":[-96.7998748,32.7803752]}},{"type":"Feature","properties":{"osm_id":13689570940,"addr:city":"Dallas","addr:housenumber":"1302","addr:postcode":"75202","addr:state":"TX","addr:street":"Main Street","amenity":"fast_food","cuisine":"pizza","drive_through":"no","name":"Right Slice Pizza","opening_hours":"Mo-Th 11:00-22:00; Fr-Sa 11:00-23:00; Su 11:00-21:00","phone":"+1-214-272-3702","website":"https://rightslicepizzas.com"},"geometry":{"type":"Point","coordinates":[-96.8006595,32.7801702]}},{"type":"Feature","properties":{"osm_id":13689570941,"addr:city":"Dallas","addr:housenumber":"1303","addr:postcode":"75202","addr:state":"TX","addr:street":"Main Street","amenity":"bar","name":"Frankie's Downtown","opening_hours":"Su-We 11:00-24:00; Th-Sa 11:00-26:00","phone":"+1-214-741-1919","website":"https://www.frankiesbar.com"},"geometry":{"type":"Point","coordinates":[-96.8007504,32.7804569]}},{"type":"Feature","properties":{"osm_id":13696997591,"addr:city":"Dallas","addr:housenumber":"1700","addr:street":"Pacific Avenue","addr:unit":"C101","amenity":"restaurant","cuisine":"indian","name":"Namak Indian Restaurant"},"geometry":{"type":"Point","coordinates":[-96.7970529,32.7822995]}},{"type":"Feature","properties":{"osm_id":13759906776,"addr:city":"Dallas","addr:housenumber":"1313","addr:postcode":"75202","addr:state":"TX","addr:street":"Main Street","amenity":"nightclub","level":"-1","min_age":"21","name":"Shy Boy Hifi Lounge","opening_hours":"Th-Sa 06:00-02:00; We, Su 06:00-00:00","smoking":"no","website":"https://shyboyhifi.com/"},"geometry":{"type":"Point","coordinates":[-96.8003685,32.7805328]}},{"type":"Feature","properties":{"osm_id":13760060275,"access":"customers","amenity":"toilets","level":"-1"},"geometry":{"type":"Point","coordinates":[-96.8035549,32.7802749]}},{"type":"Feature","properties":{"osm_id":13761415901,"addr:unit":"210","amenity":"fast_food","brand":"Potbelly","brand:wikidata":"Q7234777","check_date":"2026-07-11","cuisine":"sandwich","name":"Potbelly","official_name":"Potbelly Sandwich Works","opening_hours":"Mo-Fr 08:00-21:00; Sa-Su 10:00-21:00","takeaway":"yes"},"geometry":{"type":"Point","coordinates":[-96.8001685,32.7814108]}},{"type":"Feature","properties":{"osm_id":13987262692,"amenity":"bicycle_parking","bicycle_parking":"wave","capacity":"4","covered":"no"},"geometry":{"type":"Point","coordinates":[-96.8024529,32.7759623]}}]}
