{"type":"FeatureCollection","features":[{"type":"Feature","properties":{"osm_id":26470085,"building":"roof","layer":"1","render_height_m":7.5,"height_source":"heuristic (not surveyed)"},"geometry":{"type":"Polygon","coordinates":[[[-96.798176,32.7752115],[-96.7981188,32.7752909],[-96.7981551,32.7753237],[-96.7981358,32.7753401],[-96.7980791,32.7753885],[-96.7980741,32.7753942],[-96.7973443,32.7747667],[-96.797355,32.7747573],[-96.7974044,32.7747156],[-96.7974232,32.7746978],[-96.7979218,32.7751253],[-96.7980118,32.7750682],[-96.798039,32.7751015],[-96.7980608,32.7751245],[-96.7980843,32.7751464],[-96.7981093,32.775167],[-96.7981358,32.7751864],[-96.798176,32.7752115]]]}},{"type":"Feature","properties":{"osm_id":27129838,"addr:city":"Dallas","addr:housenumber":"1500","addr:state":"TX","addr:street":"Marilla Street","amenity":"townhall","building":"civic","building:levels":"7","name":"Dallas City Hall","name:el":"\u0394\u03b7\u03bc\u03b1\u03c1\u03c7\u03b5\u03af\u03bf \u039d\u03c4\u03ac\u03bb\u03b1\u03c2","operator":"City of Dallas","townhall:type":"city","wikidata":"Q1157989","wikipedia":"en:Dallas City Hall","render_height_m":22.4,"height_source":"osm:building:levels \u00d7 3.2m"},"geometry":{"type":"Polygon","coordinates":[[[-96.7960865,32.7761762],[-96.7962546,32.7761384],[-96.7962603,32.7761565],[-96.7962905,32.7761497],[-96.7962846,32.7761309],[-96.7970944,32.7759489],[-96.7970981,32.7759607],[-96.7971309,32.7759534],[-96.797136,32.7759706],[-96.7974085,32.775909],[-96.7973976,32.775881],[-96.7974154,32.7758774],[-96.7974189,32.7758886],[-96.797461,32.7758792],[-96.7974556,32.7758621],[-96.7975861,32.7758328],[-96.7975886,32.7758386],[-96.7976674,32.7758279],[-96.7976698,32.7758344],[-96.7977042,32.7758252],[-96.7977065,32.7758359],[-96.7977603,32.7758239],[-96.7979132,32.7763093],[-96.7974079,32.7764229],[-96.796121,32.7767121],[-96.7959703,32.7762336],[-96.7960679,32.7762001],[-96.7960655,32.7761937],[-96.796091,32.7761876],[-96.7960865,32.7761762]]]}},{"type":"Feature","properties":{"osm_id":27130135,"building":"commercial","roof:shape":"flat","render_height_m":7.5,"height_source":"heuristic (not surveyed)"},"geometry":{"type":"Polygon","coordinates":[[[-96.8030713,32.7781662],[-96.802904,32.7776255],[-96.8031745,32.7775658],[-96.8031603,32.7775198],[-96.8033164,32.7774854],[-96.8033328,32.7775385],[-96.8035469,32.7774913],[-96.8037159,32.7780378],[-96.8036345,32.7780558],[-96.8036304,32.7780428],[-96.8030713,32.7781662]]]}},{"type":"Feature","properties":{"osm_id":27130201,"building":"commercial","render_height_m":7.5,"height_source":"heuristic (not surveyed)"},"geometry":{"type":"Polygon","coordinates":[[[-96.8054175,32.7760447],[-96.8053359,32.775777],[-96.8053268,32.7757789],[-96.8051686,32.7752595],[-96.8051863,32.7752556],[-96.8051239,32.7750506],[-96.805199,32.7750343],[-96.805261,32.775238],[-96.8056501,32.7751534],[-96.8055447,32.7748075],[-96.8056377,32.7747873],[-96.8059117,32.7756866],[-96.8058952,32.7756902],[-96.8059124,32.7757468],[-96.8057534,32.7757814],[-96.8058086,32.7759625],[-96.8056574,32.7759954],[-96.8056598,32.7760035],[-96.8055772,32.7760215],[-96.805574,32.7760107],[-96.8054175,32.7760447]]]}},{"type":"Feature","properties":{"osm_id":27940308,"addr:city":"Dallas","addr:housenumber":"600","addr:postcode":"75201","addr:state":"TX","addr:street":"Commerce Street","amenity":"courthouse","building":"yes","height":"57.912","name":"George L. Allen Sr. Courthouse","operator":"Dallas County","render_height_m":57.91,"height_source":"osm:height"},"geometry":{"type":"Polygon","coordinates":[[[-96.8059943,32.7782395],[-96.8059486,32.7782496],[-96.8058106,32.7778094],[-96.8059749,32.7777728],[-96.8062104,32.7777209],[-96.8062204,32.7777529],[-96.8064322,32.7777063],[-96.8064219,32.7776732],[-96.8067404,32.7776033],[-96.8067521,32.7776409],[-96.8069698,32.7775932],[-96.8069922,32.7776657],[-96.807,32.7776609],[-96.8070871,32.7779271],[-96.8070779,32.7779292],[-96.8071042,32.7780111],[-96.8063413,32.7781838],[-96.8063492,32.7782084],[-96.8060086,32.7782847],[-96.8059943,32.7782395]]]}},{"type":"Feature","properties":{"osm_id":28015730,"addr:housenumber":"1301","building":"commercial","building:levels":"13","render_height_m":41.6,"height_source":"osm:building:levels \u00d7 3.2m"},"geometry":{"type":"Polygon","coordinates":[[[-96.7999801,32.7772197],[-96.8001084,32.7775928],[-96.7989752,32.7778684],[-96.7988469,32.7774953],[-96.7999801,32.7772197]]]}},{"type":"Feature","properties":{"osm_id":28015755,"access":"private","amenity":"parking","building":"commercial","building:levels":"6","parking":"multi-storey","render_height_m":19.2,"height_source":"osm:building:levels \u00d7 3.2m"},"geometry":{"type":"Polygon","coordinates":[[[-96.8016015,32.7771013],[-96.8015693,32.7770966],[-96.8015799,32.7770445],[-96.8016148,32.7770496],[-96.801619,32.7770289],[-96.8017151,32.7770428],[-96.8020234,32.7770873],[-96.802005,32.7771775],[-96.8020567,32.777185],[-96.8020482,32.7772268],[-96.8019974,32.7772194],[-96.8019085,32.7776536],[-96.8015005,32.7775946],[-96.8016015,32.7771013]]]}},{"type":"Feature","properties":{"osm_id":28015759,"addr:city":"Dallas","addr:housenumber":"1033","addr:postcode":"75202","addr:state":"TX","addr:street":"Young Street","brand":"Aloft","brand:wikidata":"Q4734166","building":"hotel","building:levels":"9","check_date":"2026-05-23","name":"Aloft Dallas Downtown","phone":"+1-214-761-0000","tourism":"hotel","website":"https://www.marriott.com/en-us/hotels/daldl-aloft-dallas-downtown","wheelchair":"yes","render_height_m":28.8,"height_source":"osm:building:levels \u00d7 3.2m"},"geometry":{"type":"Polygon","coordinates":[[[-96.8012165,32.7769926],[-96.8013323,32.776976],[-96.8013363,32.7774464],[-96.8008568,32.7772754],[-96.8008586,32.7770441],[-96.8012165,32.7769926]]]}},{"type":"Feature","properties":{"osm_id":28015768,"addr:housenumber":"1500","addr:street":"Jackson Street","amenity":"parking","building":"parking","building:levels":"6","height":"15","parking":"multi-storey","render_height_m":15.0,"height_source":"osm:height"},"geometry":{"type":"Polygon","coordinates":[[[-96.7980806,32.7787581],[-96.7981641,32.7790401],[-96.797987,32.7790772],[-96.7976306,32.7791515],[-96.7974652,32.7791862],[-96.7975324,32.7794128],[-96.7974369,32.7794332],[-96.7973327,32.7794549],[-96.7971824,32.7789454],[-96.7980806,32.7787581]]]}},{"type":"Feature","properties":{"osm_id":28015788,"addr:housenumber":"308","addr:street":"South Akard Street","building":"commercial","name":"Three AT&T Plaza","render_height_m":7.5,"height_source":"heuristic (not surveyed)"},"geometry":{"type":"Polygon","coordinates":[[[-96.7984533,32.779202],[-96.7983831,32.7789644],[-96.7985605,32.7789282],[-96.7984805,32.7786575],[-96.7986671,32.7786177],[-96.7986883,32.7786895],[-96.7987779,32.7786708],[-96.7987748,32.7786602],[-96.7988101,32.7786528],[-96.7987911,32.7785885],[-96.7990502,32.7785345],[-96.799056,32.7785543],[-96.7992039,32.7790554],[-96.7988686,32.7791253],[-96.7988656,32.7791155],[-96.798664,32.7791575],[-96.7986666,32.7791662],[-96.7985942,32.7791814],[-96.7985917,32.7791731],[-96.7984533,32.779202]]]}},{"type":"Feature","properties":{"osm_id":28015805,"addr:city":"Dallas","addr:housenumber":"1515","addr:state":"TX","addr:street":"Young Street","amenity":"library","building":"civic","building:levels":"8","ele":"136","gnis:feature_id":"2015012","name":"J. Erik Jonsson Central Library","opening_hours":"Mo off; Tu 09:00-20:00; We 09:00-17:00; Th 09:00-20:00; Fr 09:00-17:00; Sa 09:00-16:00; Su 09:00-16:00","phone":"+1 214-670-1400","source":"USGS Geonames","wikidata":"Q6105609","wikipedia":"en:J. Erik Jonsson Central Library","render_height_m":25.6,"height_source":"osm:building:levels \u00d7 3.2m"},"geometry":{"type":"Polygon","coordinates":[[[-96.7967331,32.778782],[-96.7967156,32.778727],[-96.7966982,32.7787309],[-96.7967033,32.778747],[-96.7966684,32.7787549],[-96.796534,32.7783327],[-96.7964905,32.7781962],[-96.7965258,32.7781883],[-96.7965308,32.7782039],[-96.796548,32.7782001],[-96.7965346,32.7781578],[-96.7967237,32.7781152],[-96.79674,32.7781665],[-96.7967804,32.7781575],[-96.7973473,32.7780313],[-96.7974086,32.7779429],[-96.7974263,32.7779985],[-96.797442,32.777995],[-96.797437,32.7779791],[-96.797473,32.777971],[-96.7976517,32.7785327],[-96.7976187,32.7785402],[-96.7976128,32.7785215],[-96.7975977,32.7785249],[-96.7976162,32.7785829],[-96.7975919,32.7785874],[-96.7975494,32.7785987],[-96.7969855,32.778725],[-96.7967331,32.778782]]]}},{"type":"Feature","properties":{"osm_id":28015819,"addr:housenumber":"500","addr:street":"South Ervay Street","building":"apartments","render_height_m":7.5,"height_source":"heuristic (not surveyed)"},"geometry":{"type":"Polygon","coordinates":[[[-96.7948511,32.7776578],[-96.7947327,32.7773342],[-96.7958097,32.77706],[-96.7961082,32.7779],[-96.7955821,32.7780365],[-96.7954661,32.7777114],[-96.7955291,32.7776941],[-96.7955103,32.7776452],[-96.7955639,32.7776308],[-96.7955144,32.777484],[-96.7948511,32.7776578]]]}},{"type":"Feature","properties":{"osm_id":28015827,"addr:housenumber":"1601","addr:street":"Commerce Street","amenity":"parking","building":"parking","building:levels":"12","height":"38.4","name":"Neiman Marcus Parking","parking":"garage","render_height_m":38.4,"height_source":"osm:height"},"geometry":{"type":"Polygon","coordinates":[[[-96.7968164,32.7796889],[-96.7974133,32.7795579],[-96.7975407,32.7799719],[-96.7975761,32.7800869],[-96.7969791,32.780218],[-96.7968164,32.7796889]]]}},{"type":"Feature","properties":{"osm_id":28015830,"addr:housenumber":"1810","addr:street":"Commerce Street","building":"apartments","building:levels":"10","name":"Continental Building","wikidata":"Q6818017","render_height_m":32.0,"height_source":"osm:building:levels \u00d7 3.2m"},"geometry":{"type":"Polygon","coordinates":[[[-96.795529,32.7803134],[-96.7954813,32.7801554],[-96.7954148,32.7801697],[-96.7953658,32.7800078],[-96.7958493,32.7799044],[-96.7958984,32.7800669],[-96.7957956,32.7800888],[-96.7958428,32.7802443],[-96.7959234,32.7802271],[-96.7959849,32.7804303],[-96.7955231,32.7805291],[-96.7954622,32.7803277],[-96.795529,32.7803134]]]}},{"type":"Feature","properties":{"osm_id":28015874,"addr:city":"Dallas","addr:housenumber":"1717","addr:postcode":"75201","addr:state":"TX","addr:street":"Main Street","amenity":"bank","brand":"Comerica Bank","brand:wikidata":"Q1114148","building":"commercial","height":"239.88","name":"Comerica Bank","website":"https://www.comerica.com","wikidata":"Q2743574","render_height_m":239.88,"height_source":"osm:height"},"geometry":{"type":"Polygon","coordinates":[[[-96.7959919,32.7814348],[-96.7963426,32.7813609],[-96.7969026,32.781243],[-96.7969069,32.7812576],[-96.7969545,32.7814173],[-96.7969809,32.7815058],[-96.7970168,32.7816265],[-96.7970645,32.7817864],[-96.7965012,32.781905],[-96.7962447,32.7819591],[-96.7961539,32.7819782],[-96.7960756,32.7817155],[-96.7959919,32.7814348]]]}},{"type":"Feature","properties":{"osm_id":28015902,"access":"yes","amenity":"parking","building":"yes","fee":"yes","parking":"multi-storey","render_height_m":7.5,"height_source":"heuristic (not surveyed)"},"geometry":{"type":"Polygon","coordinates":[[[-96.8004599,32.781069],[-96.8003866,32.7808091],[-96.8004859,32.7807889],[-96.8007454,32.7807336],[-96.8008529,32.7807107],[-96.8009928,32.7806809],[-96.8010072,32.780726],[-96.8010713,32.7809411],[-96.8006749,32.7810245],[-96.8004599,32.781069]]]}},{"type":"Feature","properties":{"osm_id":28015918,"addr:city":"Dallas","addr:housenumber":"1201","addr:street":"Main Street","brand":"Westin","brand:wikidata":"Q1969162","building":"yes","building:levels":"33","height":"136","name":"The Westin Dallas Downtown","tourism":"hotel","wikidata":"Q7092849","wikipedia":"en:One Main Place (Dallas)","render_height_m":136.0,"height_source":"osm:height"},"geometry":{"type":"Polygon","coordinates":[[[-96.8014792,32.7807158],[-96.8014698,32.7807109],[-96.8013757,32.7803616],[-96.8013847,32.7803597],[-96.801382,32.7803508],[-96.8022075,32.7801776],[-96.8022185,32.7801815],[-96.8023213,32.7805313],[-96.8023138,32.7805329],[-96.802316,32.7805402],[-96.8014792,32.7807158]]]}},{"type":"Feature","properties":{"osm_id":28015930,"addr:city":"Dallas","addr:housenumber":"873","addr:postcode":"75202","addr:state":"TX","addr:street":"Commerce Street","amenity":"parking","building":"yes","building:levels":"13","height":"53.34","name":"Bank of America Plaza Parking","parking":"multi-storey","render_height_m":53.34,"height_source":"osm:height"},"geometry":{"type":"Polygon","coordinates":[[[-96.8043963,32.7793986],[-96.8043676,32.7793025],[-96.8043589,32.7793043],[-96.8043042,32.7791232],[-96.8042876,32.7790659],[-96.8042611,32.7789772],[-96.8043234,32.778964],[-96.8043081,32.7789126],[-96.8044051,32.7788919],[-96.8048029,32.7788079],[-96.8048053,32.7788157],[-96.8048584,32.7788045],[-96.8048716,32.7788486],[-96.8048823,32.7788464],[-96.8049193,32.7789765],[-96.804982,32.7791802],[-96.8049957,32.7792276],[-96.8049342,32.7792406],[-96.804937,32.7792497],[-96.8049494,32.7792915],[-96.8045567,32.7793741],[-96.8045194,32.7793819],[-96.8045168,32.7793732],[-96.8043963,32.7793986]]]}},{"type":"Feature","properties":{"osm_id":28016036,"addr:city":"Dallas","addr:housenumber":"205","addr:state":"TX","addr:street":"South Lamar Street","building":"commercial","bus":"yes","check_date":"2026-01-27","disused:amenity":"bus_station","name":"Dallas Bus Station","network":"Greyhound","operator":"Greyhound","public_transport":"station","render_height_m":7.5,"height_source":"heuristic (not surveyed)"},"geometry":{"type":"Polygon","coordinates":[[[-96.8041738,32.7787144],[-96.8041491,32.7786248],[-96.8041407,32.7786265],[-96.8040155,32.7781729],[-96.8046654,32.7780462],[-96.8048158,32.7785912],[-96.8046497,32.7786236],[-96.8046475,32.778616],[-96.8043501,32.7786739],[-96.8043517,32.7786798],[-96.8041738,32.7787144]]]}},{"type":"Feature","properties":{"osm_id":28016040,"addr:housenumber":"800","addr:street":"Jackson Street","building":"commercial","render_height_m":7.5,"height_source":"heuristic (not surveyed)"},"geometry":{"type":"Polygon","coordinates":[[[-96.8042652,32.7776241],[-96.8045056,32.7775732],[-96.8045847,32.7778396],[-96.8043443,32.7778906],[-96.8042652,32.7776241]]]}},{"type":"Feature","properties":{"osm_id":28016113,"addr:city":"Dallas","addr:housenumber":"1100","addr:postcode":"75242","addr:state":"TX","addr:street":"Commerce Street","amenity":"courthouse","building":"yes","building:levels":"16","ele":"130","gnis:feature_id":"2032630","government":"yes","name":"Earle Cabell Federal Building and Courthouse","source":"USGS Geonames","website":"https://www.txnd.uscourts.gov/","wheelchair":"yes","wikipedia":"en:Earle Cabell Federal Building and Courthouse","render_height_m":51.2,"height_source":"osm:building:levels \u00d7 3.2m"},"geometry":{"type":"Polygon","coordinates":[[[-96.8015555,32.7787125],[-96.8016251,32.7786978],[-96.8017001,32.778682],[-96.8024062,32.778533],[-96.802441,32.7785257],[-96.8025894,32.779023],[-96.8017039,32.7792099],[-96.8015555,32.7787125]]]}},{"type":"Feature","properties":{"osm_id":28016132,"addr:city":"Dallas","addr:housenumber":"1122","addr:postcode":"75202","addr:state":"TX","addr:street":"Jackson Street","building":"yes","name":"SoCo Lofts","render_height_m":7.5,"height_source":"heuristic (not surveyed)"},"geometry":{"type":"Polygon","coordinates":[[[-96.8005694,32.778715],[-96.8005626,32.7786918],[-96.8005466,32.7786951],[-96.8005379,32.7786651],[-96.8005494,32.7786627],[-96.8005392,32.7786277],[-96.800525,32.7786306],[-96.8005166,32.7786017],[-96.80053,32.7785989],[-96.8005201,32.7785649],[-96.8005043,32.7785682],[-96.8004961,32.7785401],[-96.8005105,32.7785371],[-96.8005062,32.7785223],[-96.8005225,32.7785189],[-96.8005198,32.778275],[-96.8005359,32.7782716],[-96.8005179,32.7782115],[-96.8013879,32.7780277],[-96.8015444,32.7785512],[-96.8005663,32.7787579],[-96.8005567,32.7787256],[-96.8005694,32.778715]]]}},{"type":"Feature","properties":{"osm_id":28182729,"addr:housenumber":"1201","addr:street":"Elm Street","building":"commercial","building:colour":"#565656","building:levels":"56","building:material":"glass","height":"270","name":"Renaissance Tower","wikidata":"Q1515605","render_height_m":270.0,"height_source":"osm:height"},"geometry":{"type":"Polygon","coordinates":[[[-96.8014666,32.7811106],[-96.8020528,32.7809842],[-96.8021212,32.7812105],[-96.8021585,32.7813344],[-96.8021664,32.7813605],[-96.8022034,32.7814829],[-96.8016172,32.7816092],[-96.8014666,32.7811106]]]}},{"type":"Feature","properties":{"osm_id":28182794,"addr:city":"Dallas","addr:country":"US","addr:housenumber":"1801","addr:postcode":"75202","addr:state":"TX","addr:street":"North Griffin Street","building":"commercial","name":"Dallas World Aquarium","opening_hours":"Mo-Su 08:30-17:00","phone":"+1 214 720 2224","tourism":"aquarium","website":"https://www.dwazoo.com/","wikidata":"Q5211449","render_height_m":7.5,"height_source":"heuristic (not surveyed)"},"geometry":{"type":"Polygon","coordinates":[[[-96.8048999,32.7833741],[-96.8047918,32.7832781],[-96.8050274,32.7830904],[-96.8050754,32.783133],[-96.8050432,32.7831587],[-96.8051001,32.7832092],[-96.8053653,32.7830189],[-96.8056313,32.7832651],[-96.805655,32.783287],[-96.8055825,32.7833395],[-96.8056108,32.7833671],[-96.8055756,32.7833925],[-96.8054339,32.7834953],[-96.8054507,32.7835124],[-96.8053406,32.7835922],[-96.8051994,32.7836945],[-96.8048851,32.783385],[-96.8048999,32.7833741]]]}},{"type":"Feature","properties":{"osm_id":28545243,"addr:city":"Dallas","addr:housenumber":"1555","addr:postcode":"75201","addr:state":"TX","addr:street":"Elm Street","building":"office","building:levels":"33","name":"1600 Pacific Tower","wikidata":"Q4551090","wikipedia":"en:1600 Pacific Tower","render_height_m":105.6,"height_source":"osm:building:levels \u00d7 3.2m"},"geometry":{"type":"Polygon","coordinates":[[[-96.7992108,32.7821087],[-96.7988112,32.7821945],[-96.7987499,32.7822076],[-96.7985923,32.7816888],[-96.7990532,32.7815899],[-96.7992108,32.7821087]]]}},{"type":"Feature","properties":{"osm_id":28545250,"amenity":"parking","building":"commercial","height":"30","operator":"Renaissance Tower","operator:type":"private","parking":"multi-storey","render_height_m":30.0,"height_source":"osm:height"},"geometry":{"type":"Polygon","coordinates":[[[-96.8016598,32.781844],[-96.8017475,32.7818239],[-96.8020034,32.7817651],[-96.8020481,32.7817548],[-96.8022311,32.7823201],[-96.8018918,32.7825599],[-96.8016598,32.781844]]]}},{"type":"Feature","properties":{"osm_id":28545252,"building":"commercial","office":"yes","render_height_m":7.5,"height_source":"heuristic (not surveyed)"},"geometry":{"type":"Polygon","coordinates":[[[-96.8005931,32.7828157],[-96.8005391,32.7826303],[-96.8002736,32.7826855],[-96.8002702,32.782674],[-96.8002557,32.782677],[-96.8001042,32.7821571],[-96.8013916,32.7818895],[-96.8014788,32.7821707],[-96.8013223,32.7822033],[-96.8013452,32.7822818],[-96.8006261,32.7828106],[-96.8005931,32.7828157]]]}},{"type":"Feature","properties":{"osm_id":28545259,"building":"commercial","render_height_m":7.5,"height_source":"heuristic (not surveyed)"},"geometry":{"type":"Polygon","coordinates":[[[-96.8028326,32.7807897],[-96.8030074,32.780752],[-96.8031562,32.7812404],[-96.8029814,32.7812781],[-96.8028326,32.7807897]]]}},{"type":"Feature","properties":{"osm_id":28545262,"addr:city":"Dallas","addr:housenumber":"1015","addr:postcode":"75202","addr:state":"TX","addr:street":"Elm Street","brand":"Crowne Plaza","brand:wikidata":"Q2746220","building":"yes","height":"81.7","name":"Crowne Plaza","tourism":"hotel","render_height_m":81.7,"height_source":"osm:height"},"geometry":{"type":"Polygon","coordinates":[[[-96.8035394,32.7806393],[-96.8035577,32.7807038],[-96.8037122,32.7806728],[-96.8037586,32.7808365],[-96.8036188,32.7808645],[-96.8036914,32.7811206],[-96.8036957,32.7811365],[-96.8034725,32.7811807],[-96.8033329,32.780682],[-96.8035394,32.7806393]]]}},{"type":"Feature","properties":{"osm_id":28545295,"addr:city":"Dallas","addr:housenumber":"525","addr:state":"TX","addr:street":"Griffin Street","building":"public","check_date:opening_hours":"2026-05-23","height":"30","name":"A. Maceo Smith Federal Building","office":"government","opening_hours:signed":"no","render_height_m":30.0,"height_source":"osm:height"},"geometry":{"type":"Polygon","coordinates":[[[-96.8028463,32.7761869],[-96.8027428,32.7758516],[-96.8029164,32.7758137],[-96.8030962,32.7763962],[-96.802465,32.776534],[-96.8024132,32.7763662],[-96.8025788,32.7763301],[-96.8027621,32.7762925],[-96.80274,32.7762163],[-96.802737,32.7762066],[-96.8026485,32.7761621],[-96.8026357,32.7761194],[-96.802682,32.7761095],[-96.8028463,32.7761869]]]}},{"type":"Feature","properties":{"osm_id":28780916,"building":"hotel","height":"13","name":"Statler Hotel","tourism":"hotel","website":"https://thestatlerdallas.com/","wikidata":"Q5211418","wikipedia":"en:The Statler Hotel & Residences","render_height_m":13.0,"height_source":"osm:height"},"geometry":{"type":"Polygon","coordinates":[[[-96.7939269,32.7803031],[-96.794041,32.7802807],[-96.7940377,32.7802676],[-96.7944279,32.7801769],[-96.7946488,32.7801323],[-96.79481,32.7800998],[-96.7949215,32.7800773],[-96.7949752,32.7800657],[-96.7952034,32.7800166],[-96.7952871,32.780272],[-96.7951359,32.7803023],[-96.7951403,32.7803813],[-96.7953214,32.780375],[-96.7953564,32.7804819],[-96.795363,32.7805417],[-96.7953592,32.7805718],[-96.7953326,32.7805725],[-96.7953321,32.7805977],[-96.7950146,32.7806076],[-96.7950117,32.7806207],[-96.7949689,32.7806224],[-96.7949779,32.7806559],[-96.7947942,32.7806956],[-96.7947776,32.780646],[-96.7947273,32.7806629],[-96.7947378,32.7806921],[-96.794457,32.78075],[-96.7940853,32.7808267],[-96.7939269,32.7803031]]]}},{"type":"Feature","properties":{"osm_id":30817939,"amenity":"parking","building":"parking","fee":"yes","parking":"multi-storey","render_height_m":7.5,"height_source":"heuristic (not surveyed)"},"geometry":{"type":"Polygon","coordinates":[[[-96.803271,32.7827387],[-96.8036825,32.783093],[-96.8036223,32.7831429],[-96.8030739,32.7835974],[-96.8026624,32.7832431],[-96.8027935,32.7831334],[-96.803211,32.7827885],[-96.803271,32.7827387]]]}},{"type":"Feature","properties":{"osm_id":30817949,"building":"commercial","render_height_m":7.5,"height_source":"heuristic (not surveyed)"},"geometry":{"type":"Polygon","coordinates":[[[-96.8006019,32.7829367],[-96.8010977,32.7825932],[-96.8011044,32.7826001],[-96.8011141,32.7825934],[-96.8014039,32.7828918],[-96.8013902,32.7829013],[-96.8013994,32.7829108],[-96.8006677,32.7834178],[-96.8006741,32.7834243],[-96.8006153,32.7834651],[-96.80048,32.7833258],[-96.8005574,32.7832738],[-96.8003903,32.7831017],[-96.8004037,32.7830924],[-96.8003941,32.7830824],[-96.8006019,32.7829367]]]}},{"type":"Feature","properties":{"osm_id":30817963,"amenity":"studio","building":"commercial","name":"KDFW-TV / FOX","studio":"television","website":"https://www.fox4news.com/","render_height_m":7.5,"height_source":"heuristic (not surveyed)"},"geometry":{"type":"Polygon","coordinates":[[[-96.8027316,32.7821268],[-96.8030721,32.7819065],[-96.8035232,32.7822863],[-96.8031985,32.7825592],[-96.8027316,32.7821268]]]}},{"type":"Feature","properties":{"osm_id":30827429,"addr:city":"Dallas","addr:housenumber":"400","addr:postcode":"75202","addr:state":"TX","addr:street":"South Akard Street","building":"commercial","name":"DataBank","smoking":"no","telecom":"data_center","render_height_m":7.5,"height_source":"heuristic (not surveyed)"},"geometry":{"type":"Polygon","coordinates":[[[-96.7981534,32.7785446],[-96.7980568,32.7785655],[-96.798002,32.7783866],[-96.7980754,32.7783707],[-96.7980379,32.7782484],[-96.7979363,32.7782704],[-96.7979022,32.7781595],[-96.7984923,32.7780311],[-96.79852,32.778121],[-96.7985833,32.7781072],[-96.7985882,32.7781229],[-96.7988592,32.7780626],[-96.7989692,32.7784118],[-96.7981675,32.7785903],[-96.7981534,32.7785446]]]}},{"type":"Feature","properties":{"osm_id":30827447,"addr:housenumber":"208","addr:street":"South Akard Street","building":"commercial","render_height_m":7.5,"height_source":"heuristic (not surveyed)"},"geometry":{"type":"Polygon","coordinates":[[[-96.7997272,32.7789261],[-96.7996767,32.7787651],[-96.7996882,32.7787625],[-96.7996394,32.7786065],[-96.7996314,32.7786083],[-96.799629,32.7786004],[-96.7996382,32.7785984],[-96.7996145,32.7785224],[-96.7996044,32.7785246],[-96.7995766,32.7784349],[-96.7996263,32.7784239],[-96.7996506,32.7784186],[-96.7996545,32.778431],[-96.7996878,32.7784237],[-96.7997009,32.7784208],[-96.7996968,32.7784075],[-96.8001032,32.7783181],[-96.8001069,32.7783299],[-96.8001315,32.7783244],[-96.8001531,32.7783196],[-96.8001491,32.7783066],[-96.8002221,32.7782904],[-96.8003442,32.7786798],[-96.8003356,32.7786817],[-96.8003684,32.7787859],[-96.8003069,32.7787996],[-96.8003033,32.7787881],[-96.8002431,32.7788015],[-96.800246,32.7788109],[-96.7997272,32.7789261]]]}},{"type":"Feature","properties":{"osm_id":30827705,"building":"yes","building:levels":"10","render_height_m":32.0,"height_source":"osm:building:levels \u00d7 3.2m"},"geometry":{"type":"Polygon","coordinates":[[[-96.7998457,32.778221],[-96.7997442,32.7778972],[-96.7997506,32.7778958],[-96.7997021,32.7777414],[-96.8001211,32.7776486],[-96.8001681,32.7777985],[-96.8001473,32.7778031],[-96.8002209,32.7780378],[-96.800272,32.7780265],[-96.8002825,32.77806],[-96.8002382,32.7780698],[-96.8002571,32.7781299],[-96.7998457,32.778221]]]}},{"type":"Feature","properties":{"osm_id":30827827,"building":"commercial","render_height_m":7.5,"height_source":"heuristic (not surveyed)"},"geometry":{"type":"Polygon","coordinates":[[[-96.8010985,32.7838696],[-96.8010809,32.7838066],[-96.8007512,32.7838703],[-96.800693,32.7838097],[-96.8006453,32.7838451],[-96.8005781,32.7837792],[-96.8006244,32.7837438],[-96.8005412,32.7836594],[-96.8008663,32.783422],[-96.8012138,32.7837689],[-96.8010985,32.7838696]]]}},{"type":"Feature","properties":{"osm_id":30897736,"addr:housenumber":"1712","addr:street":"Commerce Street","building":"hotel","name":"Mercantile Commerce Building","render_height_m":7.5,"height_source":"heuristic (not surveyed)"},"geometry":{"type":"Polygon","coordinates":[[[-96.7964521,32.7803104],[-96.7961341,32.7803834],[-96.796046,32.7801048],[-96.7962337,32.7800625],[-96.7962618,32.7801512],[-96.7963921,32.780117],[-96.7964521,32.7803104]]]}},{"type":"Feature","properties":{"osm_id":30897787,"addr:city":"Dallas","addr:housenumber":"1800","addr:postcode":"75201","addr:state":"TX","addr:street":"Main Street","building":"apartments","building:levels":"2","name":"The Merc","wikidata":"Q6818031","render_height_m":6.4,"height_source":"osm:building:levels \u00d7 3.2m"},"geometry":{"type":"Polygon","coordinates":[[[-96.7962825,32.7807313],[-96.7963619,32.780714],[-96.7963212,32.7805821],[-96.796479,32.7805477],[-96.7964735,32.7805298],[-96.7965696,32.7805087],[-96.7967625,32.7804663],[-96.7968361,32.7804501],[-96.7970064,32.7809997],[-96.7969255,32.7810173],[-96.7967282,32.7810603],[-96.7964056,32.7811306],[-96.7963264,32.7808739],[-96.7962825,32.7807313]]]}},{"type":"Feature","properties":{"osm_id":30897859,"addr:housenumber":"1810","addr:street":"Jackson Street","amenity":"parking","building":"parking","building:levels":"9","height":"24","parking":"multi-storey","render_height_m":24.0,"height_source":"osm:height"},"geometry":{"type":"Polygon","coordinates":[[[-96.7951719,32.7793772],[-96.7953829,32.7793325],[-96.7958285,32.7792382],[-96.7959694,32.7797087],[-96.7958647,32.7797309],[-96.7953128,32.7798477],[-96.7951719,32.7793772]]]}},{"type":"Feature","properties":{"osm_id":30897903,"addr:housenumber":"400","addr:state":"TX","addr:street":"South Ervay Street","building":"retail","building:levels":"2","render_height_m":6.4,"height_source":"osm:building:levels \u00d7 3.2m"},"geometry":{"type":"Polygon","coordinates":[[[-96.7961648,32.7788932],[-96.7961599,32.7788781],[-96.796175,32.7788746],[-96.7961804,32.7788911],[-96.7964515,32.7788279],[-96.7964964,32.7789651],[-96.7961789,32.7790391],[-96.7961336,32.7789005],[-96.7961648,32.7788932]]]}},{"type":"Feature","properties":{"osm_id":30897954,"addr:housenumber":"1775","addr:street":"Young Street","building":"apartments","render_height_m":7.5,"height_source":"heuristic (not surveyed)"},"geometry":{"type":"Polygon","coordinates":[[[-96.7948902,32.7784133],[-96.7950346,32.7788066],[-96.7949645,32.7788263],[-96.7948151,32.7784343],[-96.7948902,32.7784133]]]}},{"type":"Feature","properties":{"osm_id":30898383,"addr:city":"Dallas","addr:housenumber":"208","addr:postcode":"75202","addr:state":"TX","addr:street":"South Akard Street","building":"commercial","building:levels":"14","name":"Whitacre Tower","wikidata":"Q7994115","wikipedia":"en:Whitacre Tower","render_height_m":44.8,"height_source":"osm:building:levels \u00d7 3.2m"},"geometry":{"type":"Polygon","coordinates":[[[-96.7985643,32.7797596],[-96.7985436,32.7797636],[-96.7985171,32.779668],[-96.7985379,32.7796639],[-96.7984728,32.7794311],[-96.7984715,32.7794232],[-96.7984491,32.7793397],[-96.7985655,32.7793149],[-96.7985676,32.7793236],[-96.7989076,32.7792558],[-96.7989236,32.7793126],[-96.7989644,32.7793044],[-96.7989483,32.7792473],[-96.7991231,32.7792126],[-96.7991411,32.7792787],[-96.7991712,32.7793846],[-96.7991559,32.7793877],[-96.799183,32.7794857],[-96.7989823,32.7795262],[-96.7989884,32.7795445],[-96.7990297,32.7796942],[-96.7990639,32.7796874],[-96.7990902,32.7797809],[-96.7989807,32.7798027],[-96.7989688,32.7797606],[-96.7989069,32.779773],[-96.798918,32.7798148],[-96.7985971,32.7798778],[-96.7985643,32.7797596]]]}},{"type":"Feature","properties":{"osm_id":30898408,"building":"commercial","name":"Dallas Power & Lights","render_height_m":7.5,"height_source":"heuristic (not surveyed)"},"geometry":{"type":"Polygon","coordinates":[[[-96.7982701,32.7793839],[-96.7983511,32.7796512],[-96.7981755,32.7796888],[-96.7982356,32.779887],[-96.7982532,32.7799449],[-96.7980503,32.7799884],[-96.7980529,32.779997],[-96.7977475,32.7800624],[-96.7976827,32.7798485],[-96.7975863,32.7795303],[-96.7979332,32.7794543],[-96.7979821,32.7794436],[-96.7981067,32.7794162],[-96.7982701,32.7793839]]]}},{"type":"Feature","properties":{"osm_id":30898509,"addr:housenumber":"1401","addr:street":"Commerce Street","building":"hotel","check_date":"2026-06-13","height":"121.6","name":"Magnolia Hotel Dallas Downtown","tourism":"hotel","wheelchair":"yes","wikidata":"Q12061439","wikipedia":"en:Magnolia Hotel (Dallas, Texas)","render_height_m":121.6,"height_source":"osm:height"},"geometry":{"type":"Polygon","coordinates":[[[-96.7992511,32.7799753],[-96.7993309,32.7802389],[-96.798948,32.7803208],[-96.798839,32.7803441],[-96.7988148,32.7802642],[-96.7988717,32.780252],[-96.7988595,32.7802116],[-96.7988161,32.7800684],[-96.7992511,32.7799753]]]}},{"type":"Feature","properties":{"osm_id":30918462,"addr:housenumber":"1800","addr:street":"North Lamar Street","building":"commercial","render_height_m":7.5,"height_source":"heuristic (not surveyed)"},"geometry":{"type":"Polygon","coordinates":[[[-96.8057142,32.7829857],[-96.8057051,32.7829926],[-96.805693,32.7829812],[-96.8057021,32.7829743],[-96.8056475,32.7829233],[-96.8056395,32.7829294],[-96.805627,32.7829177],[-96.8056349,32.7829117],[-96.8054464,32.7827356],[-96.805741,32.7825127],[-96.8061484,32.7828933],[-96.8058538,32.7831161],[-96.8057142,32.7829857]]]}},{"type":"Feature","properties":{"osm_id":30918483,"building":"commercial","render_height_m":7.5,"height_source":"heuristic (not surveyed)"},"geometry":{"type":"Polygon","coordinates":[[[-96.8042561,32.7833313],[-96.8044674,32.7831591],[-96.8045229,32.7832078],[-96.8043096,32.7833815],[-96.8042561,32.7833313]]]}},{"type":"Feature","properties":{"osm_id":30918505,"addr:housenumber":"1801","addr:street":"North Lamar Street","building":"commercial","render_height_m":7.5,"height_source":"heuristic (not surveyed)"},"geometry":{"type":"Polygon","coordinates":[[[-96.8063027,32.7827218],[-96.8058822,32.7823521],[-96.8063139,32.7820052],[-96.8067513,32.7823898],[-96.8067137,32.78242],[-96.8066967,32.7824051],[-96.8063027,32.7827218]]]}},{"type":"Feature","properties":{"osm_id":30918510,"brand":"7-Eleven","brand:wikidata":"Q259340","building":"commercial","contact:website":"https://www.7-eleven.com/locations/tx/dallas/1010-ross-ave-34997","name":"7-Eleven","shop":"convenience","render_height_m":7.5,"height_source":"heuristic (not surveyed)"},"geometry":{"type":"Polygon","coordinates":[[[-96.8039555,32.7823299],[-96.8038791,32.782199],[-96.8040563,32.7821258],[-96.8041327,32.7822568],[-96.8039555,32.7823299]]]}},{"type":"Feature","properties":{"osm_id":30918520,"addr:housenumber":"460","addr:street":"North Lamar Street","building":"retail","render_height_m":7.5,"height_source":"heuristic (not surveyed)"},"geometry":{"type":"Polygon","coordinates":[[[-96.8050378,32.781838],[-96.8051135,32.7818975],[-96.8049324,32.7820509],[-96.8048592,32.7819893],[-96.8050378,32.781838]]]}},{"type":"Feature","properties":{"osm_id":30918521,"addr:housenumber":"460","addr:street":"North Lamar Street","building":"retail","render_height_m":7.5,"height_source":"heuristic (not surveyed)"},"geometry":{"type":"Polygon","coordinates":[[[-96.8045206,32.7816581],[-96.8046976,32.7815247],[-96.804919,32.7817325],[-96.8047739,32.7818418],[-96.8047275,32.7817983],[-96.8046646,32.7817393],[-96.8046327,32.7817633],[-96.8045206,32.7816581]]]}},{"type":"Feature","properties":{"osm_id":30918528,"building":"retail","render_height_m":7.5,"height_source":"heuristic (not surveyed)"},"geometry":{"type":"Polygon","coordinates":[[[-96.8034948,32.782511],[-96.8037192,32.7827097],[-96.8035996,32.7828053],[-96.8033752,32.7826065],[-96.8034948,32.782511]]]}},{"type":"Feature","properties":{"osm_id":30918551,"addr:city":"Dallas","addr:housenumber":"1401","addr:postcode":"75202","addr:state":"TX","addr:street":"Elm Street","building":"apartments","building:levels":"4","name":"The National Residences","render_height_m":12.8,"height_source":"osm:building:levels \u00d7 3.2m"},"geometry":{"type":"Polygon","coordinates":[[[-96.799907,32.7814037],[-96.8010927,32.7811539],[-96.8012513,32.7816909],[-96.8000656,32.7819408],[-96.799907,32.7814037]]]}},{"type":"Feature","properties":{"osm_id":30918953,"building":"commercial","height":"32.004","office":"yes","render_height_m":32.0,"height_source":"osm:height"},"geometry":{"type":"Polygon","coordinates":[[[-96.8055266,32.7786498],[-96.8055272,32.7786497],[-96.8057642,32.7786005],[-96.8058353,32.7788426],[-96.8055977,32.7788919],[-96.8055266,32.7786498]]]}},{"type":"Feature","properties":{"osm_id":30918969,"addr:housenumber":"706","building":"commercial","height":"15.24","office":"yes","render_height_m":15.24,"height_source":"osm:height"},"geometry":{"type":"Polygon","coordinates":[[[-96.8055977,32.7788919],[-96.8056774,32.7791634],[-96.8055863,32.7791823],[-96.8055066,32.7789108],[-96.8055977,32.7788919]]]}},{"type":"Feature","properties":{"osm_id":113763603,"addr:city":"Dallas","addr:housenumber":"211","addr:state":"TX","addr:street":"South Akard Street","building":"commercial","building:levels":"14","name":"Two AT&T Plaza","render_height_m":44.8,"height_source":"osm:building:levels \u00d7 3.2m"},"geometry":{"type":"Polygon","coordinates":[[[-96.7997251,32.7796451],[-96.7997188,32.779628],[-96.7996645,32.7796406],[-96.7995852,32.7793712],[-96.7995415,32.7792228],[-96.7996016,32.7792112],[-96.7995946,32.7791863],[-96.7996943,32.779167],[-96.7996994,32.7791824],[-96.7997188,32.7791783],[-96.7997401,32.7791739],[-96.7997352,32.7791587],[-96.7998157,32.7791418],[-96.7997894,32.7790574],[-96.8002518,32.7789579],[-96.8002727,32.7790314],[-96.8003141,32.7790221],[-96.8003334,32.7790836],[-96.8003462,32.7790764],[-96.8003353,32.7790395],[-96.8004292,32.7790197],[-96.8004425,32.7790647],[-96.8004676,32.7790595],[-96.8005667,32.779399],[-96.8005429,32.779404],[-96.8005471,32.7794181],[-96.8005337,32.7794209],[-96.800549,32.7794736],[-96.8004556,32.7794929],[-96.8004541,32.7794879],[-96.7998672,32.779614],[-96.7998609,32.7795908],[-96.7998362,32.7795958],[-96.7998172,32.7795997],[-96.7998232,32.7796234],[-96.7997251,32.7796451]]]}},{"type":"Feature","properties":{"osm_id":138670474,"addr:city":"Dallas","addr:housenumber":"901","addr:postcode":"75202","addr:state":"TX","addr:street":"Main Street","building":"commercial","building:levels":"74","check_date":"2021-04-21","height":"280.72","layer":"1","material":"glass","name":"Bank of America Plaza","website":"https://baplaza.com/","wikidata":"Q806675","wikipedia":"en:Bank of America Plaza (Dallas)","render_height_m":280.72,"height_source":"osm:height"},"geometry":{"type":"Polygon","coordinates":[[[-96.8037273,32.7803015],[-96.8037174,32.7802667],[-96.8036758,32.780275],[-96.8036003,32.780007],[-96.8036418,32.7799987],[-96.803632,32.7799639],[-96.8036736,32.7799555],[-96.8036639,32.7799207],[-96.8037055,32.7799124],[-96.8036956,32.7798775],[-96.8037374,32.7798692],[-96.8037275,32.7798342],[-96.8037693,32.7798259],[-96.8037595,32.7797911],[-96.8040748,32.7797283],[-96.8040846,32.7797631],[-96.8041264,32.7797548],[-96.804202,32.780023],[-96.8041603,32.7800312],[-96.8041701,32.7800659],[-96.8041287,32.7800743],[-96.8041383,32.7801092],[-96.8040966,32.7801174],[-96.8041065,32.7801523],[-96.8040646,32.7801606],[-96.8040746,32.7801956],[-96.8040328,32.7802039],[-96.8040426,32.7802386],[-96.8037273,32.7803015]]]}},{"type":"Feature","properties":{"osm_id":179223421,"addr:city":"Dallas","addr:housenumber":"1700","addr:postcode":"75201","addr:state":"TX","addr:street":"Commerce Street","branch":"Dallas Downtown","brand":"Hampton Inn & Suites","brand:wikidata":"Q5646230","building":"hotel","name":"Hampton Inn & Suites Dallas Downtown","official_name":"Hampton Inn & Suites by Hilton","phone":"+1 214-290-9090","ref":"DALDXHX","tourism":"hotel","website":"https://www.hilton.com/en/hotels/daldxhx-hampton-suites-dallas-downtown/","render_height_m":7.5,"height_source":"heuristic (not surveyed)"},"geometry":{"type":"Polygon","coordinates":[[[-96.7963921,32.780117],[-96.7965673,32.7800785],[-96.7965489,32.780019],[-96.7967028,32.7799852],[-96.7967894,32.7802646],[-96.7964822,32.780332],[-96.796474,32.7803056],[-96.7964521,32.7803104],[-96.7963921,32.780117]]]}},{"type":"Feature","properties":{"osm_id":179224684,"building":"yes","render_height_m":7.5,"height_source":"heuristic (not surveyed)"},"geometry":{"type":"Polygon","coordinates":[[[-96.8007693,32.7804261],[-96.8009091,32.7803971],[-96.8009928,32.7806809],[-96.8008529,32.7807107],[-96.8007693,32.7804261]]]}},{"type":"Feature","properties":{"osm_id":179224685,"building":"yes","height":"98.5","name":"Davis Building","wikidata":"Q5241846","wikipedia":"en:Davis Building","render_height_m":98.5,"height_source":"osm:height"},"geometry":{"type":"Polygon","coordinates":[[[-96.8003866,32.7808091],[-96.8003027,32.7805229],[-96.8007693,32.7804261],[-96.8008529,32.7807107],[-96.8007454,32.7807336],[-96.8007263,32.7806724],[-96.8004684,32.7807259],[-96.8004859,32.7807889],[-96.8003866,32.7808091]]]}},{"type":"Feature","properties":{"osm_id":179232108,"building":"apartments","render_height_m":7.5,"height_source":"heuristic (not surveyed)"},"geometry":{"type":"Polygon","coordinates":[[[-96.7973759,32.7841538],[-96.7975843,32.7839828],[-96.7979322,32.7842854],[-96.7977207,32.7844588],[-96.7974922,32.7842567],[-96.7973759,32.7841538]]]}},{"type":"Feature","properties":{"osm_id":179232110,"addr:city":"Dallas","addr:housenumber":"350","addr:street":"North Saint Paul Street","building":"office","building:levels":"30","height":"137","name":"One Dallas Center","wikidata":"Q14711218","wikipedia":"en:One Dallas Center","render_height_m":137.0,"height_source":"osm:height"},"geometry":{"type":"Polygon","coordinates":[[[-96.796504,32.7842367],[-96.7966454,32.7838448],[-96.7968805,32.7837946],[-96.7969787,32.7837736],[-96.7970123,32.7838086],[-96.7970263,32.7837621],[-96.7971668,32.7837324],[-96.7969866,32.7841318],[-96.7969649,32.7841385],[-96.7966887,32.7842238],[-96.796651,32.7841885],[-96.7966397,32.7842346],[-96.7964884,32.7842797],[-96.796504,32.7842367]]]}},{"type":"Feature","properties":{"osm_id":179234383,"addr:city":"Dallas","addr:housenumber":"1925","addr:postcode":"75201","addr:state":"TX","addr:street":"Elm Street","amenity":"theatre","building":"yes","check_date":"2026-06-24","ele":"140","gnis:feature_id":"2030774","name":"Majestic Theatre","phone":"+1 214-670-1869","source":"USGS Geonames","website":"https://majestic.dallasculture.org","wikidata":"Q6737714","render_height_m":7.5,"height_source":"heuristic (not surveyed)"},"geometry":{"type":"Polygon","coordinates":[[[-96.7947467,32.7824944],[-96.7950674,32.7824266],[-96.7951122,32.7825766],[-96.7952299,32.78297],[-96.7949093,32.7830378],[-96.7947467,32.7824944]]]}},{"type":"Feature","properties":{"osm_id":179234385,"addr:housenumber":"1900","addr:street":"Pacific Avenue","building":"apartments","building:levels":"19","render_height_m":60.8,"height_source":"osm:building:levels \u00d7 3.2m"},"geometry":{"type":"Polygon","coordinates":[[[-96.7955278,32.7824991],[-96.7958895,32.7824197],[-96.7959053,32.7824705],[-96.7960078,32.7828006],[-96.7956462,32.78288],[-96.7955278,32.7824991]]]}},{"type":"Feature","properties":{"osm_id":179235576,"amenity":"university","building":"medium","building:levels":"9","name":"University Center at Dallas","render_height_m":28.8,"height_source":"osm:building:levels \u00d7 3.2m"},"geometry":{"type":"Polygon","coordinates":[[[-96.795165,32.7818801],[-96.7948677,32.7819404],[-96.7946248,32.7819996],[-96.7945814,32.7818399],[-96.7945546,32.7817469],[-96.7950888,32.7816256],[-96.7952496,32.7815923],[-96.7953279,32.7818463],[-96.795165,32.7818801]]]}},{"type":"Feature","properties":{"osm_id":179235583,"addr:city":"Dallas","addr:housenumber":"1900","addr:postcode":"75201","addr:state":"TX","addr:street":"Elm Street","building":"apartments","building:levels":"10","ele":"139","gnis:feature_id":"2032521","name":"Titche-Goettinger Department Store","source":"USGS Geonames","render_height_m":32.0,"height_source":"osm:building:levels \u00d7 3.2m"},"geometry":{"type":"Polygon","coordinates":[[[-96.7952496,32.7815923],[-96.7952473,32.7815844],[-96.7956078,32.7815098],[-96.7956642,32.7815343],[-96.7958045,32.7820183],[-96.7957756,32.7820589],[-96.7954163,32.7821332],[-96.7953279,32.7818463],[-96.7952496,32.7815923]]]}},{"type":"Feature","properties":{"osm_id":179235584,"building":"apartments","building:levels":"4","render_height_m":12.8,"height_source":"osm:building:levels \u00d7 3.2m"},"geometry":{"type":"Polygon","coordinates":[[[-96.7953279,32.7818463],[-96.7954163,32.7821332],[-96.7953911,32.7821384],[-96.795251,32.7821675],[-96.7952475,32.7821554],[-96.795165,32.7818801],[-96.7953279,32.7818463]]]}},{"type":"Feature","properties":{"osm_id":179236499,"addr:city":"Dallas","addr:housenumber":"1910","addr:postcode":"75201","addr:state":"TX","addr:street":"Pacific Avenue","building":"commercial","building:levels":"20","name":"Pacific Place","wikidata":"Q7122624","wikipedia":"en:Pacific Place (Dallas)","render_height_m":64.0,"height_source":"osm:building:levels \u00d7 3.2m"},"geometry":{"type":"Polygon","coordinates":[[[-96.7954716,32.7823362],[-96.7954781,32.7823595],[-96.795519,32.7824955],[-96.7955349,32.7825491],[-96.7955564,32.7826219],[-96.7955184,32.7826298],[-96.7955247,32.7826511],[-96.7955032,32.7826557],[-96.7955085,32.7826736],[-96.7954853,32.7826785],[-96.7954909,32.7826973],[-96.7954685,32.782702],[-96.7954744,32.7827221],[-96.7954522,32.7827268],[-96.795458,32.7827464],[-96.795435,32.7827512],[-96.7954407,32.7827707],[-96.7954182,32.7827754],[-96.7954238,32.7827944],[-96.7954024,32.7827989],[-96.7954084,32.7828191],[-96.7953858,32.7828238],[-96.7953915,32.782843],[-96.795368,32.7828479],[-96.7953737,32.7828672],[-96.7953505,32.7828721],[-96.7953553,32.7828882],[-96.795332,32.7828931],[-96.7953381,32.7829136],[-96.7953172,32.782918],[-96.795323,32.7829374],[-96.7952959,32.7829432],[-96.7952995,32.7829553],[-96.7952299,32.78297],[-96.7951122,32.7825766],[-96.7951656,32.7825653],[-96.7951606,32.7825486],[-96.7951872,32.782543],[-96.795182,32.7825258],[-96.795204,32.7825212],[-96.7951978,32.7825004],[-96.7952171,32.7824963],[-96.7952108,32.7824752],[-96.7952323,32.7824707],[-96.7952259,32.7824492],[-96.7952454,32.7824451],[-96.7952391,32.782424],[-96.7952608,32.7824195],[-96.7952543,32.7823975],[-96.7952728,32.7823936],[-96.7952683,32.78238],[-96.795284,32.7823762],[-96.7954716,32.7823362]]]}},{"type":"Feature","properties":{"osm_id":179236502,"building":"yes","building:levels":"3","render_height_m":9.6,"height_source":"osm:building:levels \u00d7 3.2m"},"geometry":{"type":"Polygon","coordinates":[[[-96.7948677,32.7819404],[-96.795165,32.7818801],[-96.7952475,32.7821554],[-96.7952396,32.782157],[-96.7952202,32.7821614],[-96.7952023,32.7821657],[-96.7951896,32.7821683],[-96.7951391,32.7821427],[-96.7951667,32.7821018],[-96.7951474,32.7820352],[-96.7949572,32.7819873],[-96.7948882,32.7820016],[-96.7948677,32.7819404]]]}},{"type":"Feature","properties":{"osm_id":179241469,"access":"yes","amenity":"parking","building":"parking","building:levels":"6","fee":"yes","height":"20","name":"Sheraton Guest Parking","parking":"multi-storey","render_height_m":20.0,"height_source":"osm:height"},"geometry":{"type":"Polygon","coordinates":[[[-96.7946737,32.7843206],[-96.7953199,32.7837836],[-96.7956002,32.784022],[-96.794954,32.784559],[-96.7946737,32.7843206]]]}},{"type":"Feature","properties":{"osm_id":179384842,"addr:city":"Dallas","addr:housenumber":"400","addr:postcode":"75201","addr:state":"TX","addr:street":"North Ervay Street","alt_name":"Downtown Dallas Post Office","amenity":"post_office","building":"commercial","building:levels":"2","ele":"139","gnis:feature_id":"2428270","name":"Dallas Post Office - Downtown Station","opening_hours":"Mo-Fr 08:30-17:00","operator":"United States Postal Service","operator:short":"USPS","operator:type":"public","operator:website":"https://www.usps.com","operator:wikidata":"Q668687","operator:wikipedia":"en:United States Postal Service","source:ele":"National Elevation Dataset","wheelchair":"yes","wikidata":"Q7891089","render_height_m":6.4,"height_source":"osm:building:levels \u00d7 3.2m"},"geometry":{"type":"Polygon","coordinates":[[[-96.7977544,32.783844],[-96.7978834,32.7837357],[-96.7979564,32.7836744],[-96.798089,32.7835632],[-96.7981578,32.7835055],[-96.7982878,32.7833964],[-96.7987248,32.7837645],[-96.798596,32.7838725],[-96.7986169,32.7838901],[-96.7983417,32.7841209],[-96.7983206,32.7841031],[-96.7981911,32.7842118],[-96.7977544,32.783844]]]}},{"type":"Feature","properties":{"osm_id":179914923,"building":"yes","building:levels":"50","height":"197","material":"glass","name":"Santander Tower","office":"yes","wikidata":"Q2677763","wikipedia":"en:Santander Tower","render_height_m":197.0,"height_source":"osm:height"},"geometry":{"type":"Polygon","coordinates":[[[-96.7979015,32.7823102],[-96.7978924,32.7822802],[-96.7978432,32.7822907],[-96.7978338,32.7822597],[-96.7978053,32.7822657],[-96.7977787,32.7822714],[-96.7977687,32.7822384],[-96.7977214,32.7822482],[-96.7976495,32.7820093],[-96.7977002,32.7819988],[-96.7976909,32.7819679],[-96.7977475,32.7819559],[-96.7977387,32.7819268],[-96.7977901,32.7819158],[-96.7977818,32.781888],[-96.7983381,32.7817695],[-96.7983481,32.7818028],[-96.798406,32.7817904],[-96.798415,32.7818202],[-96.7984686,32.7818088],[-96.7984764,32.7818345],[-96.798523,32.7818246],[-96.798597,32.7820702],[-96.7985493,32.7820804],[-96.7985574,32.7821073],[-96.7985025,32.782119],[-96.798511,32.7821473],[-96.798454,32.7821594],[-96.7984634,32.7821905],[-96.7981974,32.7822472],[-96.7979015,32.7823102]]]}},{"type":"Feature","properties":{"osm_id":179919358,"addr:city":"Dallas","addr:housenumber":"1000","addr:postcode":"75202","addr:state":"TX","addr:street":"Commerce Street","amenity":"fast_food","brand":"McDonald's","brand:wikidata":"Q38076","building":"retail","building:levels":"1","cuisine":"burger","drive_through":"yes","internet_access":"wlan","layer":"1","name":"McDonald's","opening_hours":"24/7","phone":"+1 469-227-8533","takeaway":"yes","website":"https://www.mcdonalds.com/us/en-us/location/4777.html","wheelchair":"yes","render_height_m":3.2,"height_source":"osm:building:levels \u00d7 3.2m"},"geometry":{"type":"Polygon","coordinates":[[[-96.8030357,32.7784965],[-96.8030411,32.7784953],[-96.8031624,32.7788115],[-96.8029762,32.7788503],[-96.8029516,32.7788554],[-96.8029133,32.7787242],[-96.8029379,32.7787191],[-96.8029507,32.7787164],[-96.802895,32.7785254],[-96.8030357,32.7784965]]]}},{"type":"Feature","properties":{"osm_id":204950657,"addr:housenumber":"318","addr:street":"North Akard Street","building":"apartments","building:levels":"31","name":"Mosaic Dallas","website":"https://www.olympusproperty.com/the-mosaic-apartments-dallas-tx/","wikidata":"Q6915310","wikipedia":"en:Mosaic Dallas","render_height_m":99.2,"height_source":"osm:building:levels \u00d7 3.2m"},"geometry":{"type":"Polygon","coordinates":[[[-96.7996187,32.7829233],[-96.7995627,32.7828808],[-96.7994896,32.7829447],[-96.7991496,32.7826312],[-96.7993421,32.7824721],[-96.7993675,32.7824888],[-96.7993876,32.7824734],[-96.7993682,32.7824596],[-96.7994194,32.7824103],[-96.7994401,32.7824259],[-96.799578,32.7823052],[-96.7995702,32.7822788],[-96.7999137,32.7822002],[-96.8000798,32.7827647],[-96.7997571,32.7830422],[-96.7997384,32.7830491],[-96.799693,32.7830499],[-96.7996518,32.7830321],[-96.7996254,32.7830081],[-96.7996104,32.7829635],[-96.7996187,32.7829233]]]}},{"type":"Feature","properties":{"osm_id":204950659,"addr:housenumber":"1601","addr:street":"Bryan Street","building":"commercial","building:levels":"49","height":"192","name":"Energy Plaza","wikidata":"Q3054119","wikipedia":"en:Energy Plaza","render_height_m":192.0,"height_source":"osm:height"},"geometry":{"type":"Polygon","coordinates":[[[-96.7990104,32.7836372],[-96.7988066,32.7829804],[-96.7991028,32.7827426],[-96.7995981,32.7831606],[-96.7993679,32.7833473],[-96.7993059,32.7833976],[-96.7990104,32.7836372]]]}},{"type":"Feature","properties":{"osm_id":210814721,"addr:city":"Dallas","addr:housenumber":"555","addr:postcode":"75202","addr:state":"TX","addr:street":"South Lamar Street","building":"hotel","height":"20","name":"Omni Dallas Hotel","operator":"Omni Hotels & Resorts","phone":"+1-214-744-6664","tourism":"hotel","website":"https://www.omnihotels.com/hotels/dallas","wheelchair":"yes","wikidata":"Q7090323","render_height_m":20.0,"height_source":"osm:height"},"geometry":{"type":"Polygon","coordinates":[[[-96.8050355,32.7759829],[-96.8044937,32.774436],[-96.8041323,32.7745175],[-96.8039334,32.7745624],[-96.8036815,32.7746192],[-96.8036139,32.7746345],[-96.8036861,32.7748537],[-96.8036217,32.7748943],[-96.803661,32.7750054],[-96.8037049,32.7751293],[-96.8038101,32.7754265],[-96.8038899,32.775652],[-96.8039704,32.7757107],[-96.804067,32.7757558],[-96.804225,32.7757927],[-96.8045714,32.775874],[-96.8050355,32.7759829]]]}},{"type":"Feature","properties":{"osm_id":308343660,"addr:city":"Dallas","addr:housenumber":"1222","addr:postcode":"75202","addr:state":"TX","addr:street":"Commerce Street","building":"apartments","building:levels":"25","name":"Manor House","website":"https://www.manorhousedallas.com/","render_height_m":80.0,"height_source":"osm:building:levels \u00d7 3.2m"},"geometry":{"type":"Polygon","coordinates":[[[-96.8010243,32.7793627],[-96.8009638,32.7793766],[-96.8007843,32.7794141],[-96.8006246,32.7789006],[-96.8008699,32.7788493],[-96.8010243,32.7793627]]]}},{"type":"Feature","properties":{"osm_id":346578135,"addr:city":"Dallas","addr:housenumber":"1416","addr:postcode":"75202","addr:state":"TX","addr:street":"Main Street","building":"commercial","height":"95.1","name":"Adolphus Tower","wikidata":"Q366005","render_height_m":95.1,"height_source":"osm:height"},"geometry":{"type":"Polygon","coordinates":[[[-96.7998789,32.7801041],[-96.7999591,32.7803798],[-96.7995619,32.7804603],[-96.7994831,32.7801851],[-96.7995692,32.7801677],[-96.7998789,32.7801041]]]}},{"type":"Feature","properties":{"osm_id":361437884,"addr:city":"Dallas","addr:housenumber":"1406","addr:postcode":"75202","addr:state":"TX","addr:street":"Elm Street","addr:unit":"B","building":"apartments","name":"Third Rail Lofts","render_height_m":7.5,"height_source":"heuristic (not surveyed)"},"geometry":{"type":"Polygon","coordinates":[[[-96.7997966,32.7806278],[-96.8000015,32.7805856],[-96.8002276,32.780539],[-96.8003881,32.7810891],[-96.8003358,32.7810999],[-96.8001561,32.781137],[-96.7999571,32.781178],[-96.7999366,32.7811076],[-96.7998792,32.7809109],[-96.7997966,32.7806278]]]}},{"type":"Feature","properties":{"osm_id":361437887,"building":"apartments","building:levels":"10","render_height_m":32.0,"height_source":"osm:building:levels \u00d7 3.2m"},"geometry":{"type":"Polygon","coordinates":[[[-96.7997735,32.7811412],[-96.7997166,32.7809462],[-96.7996336,32.7806614],[-96.7997966,32.7806278],[-96.7998792,32.7809109],[-96.7999366,32.7811076],[-96.7997735,32.7811412]]]}},{"type":"Feature","properties":{"osm_id":361437888,"addr:city":"Dallas","addr:housenumber":"1509","addr:postcode":"75202","addr:state":"TX","addr:street":"Main Street","building":"apartments","name":"The Kirby","wikidata":"Q6414903","render_height_m":7.5,"height_source":"heuristic (not surveyed)"},"geometry":{"type":"Polygon","coordinates":[[[-96.7990881,32.7810705],[-96.7990698,32.7810077],[-96.7991468,32.7809908],[-96.7991324,32.780933],[-96.799051,32.7809488],[-96.7990067,32.780807],[-96.7990909,32.7807901],[-96.7994877,32.7807102],[-96.7995678,32.7809726],[-96.7994096,32.7810049],[-96.7992859,32.7810301],[-96.7991648,32.7810548],[-96.7990881,32.7810705]]]}},{"type":"Feature","properties":{"osm_id":361437889,"building":"commercial","render_height_m":7.5,"height_source":"heuristic (not surveyed)"},"geometry":{"type":"Polygon","coordinates":[[[-96.798527,32.7811902],[-96.7984449,32.7809206],[-96.7990067,32.780807],[-96.799051,32.7809488],[-96.7990698,32.7810077],[-96.7990881,32.7810705],[-96.7990053,32.7810873],[-96.7989236,32.7811048],[-96.7987562,32.7811409],[-96.798527,32.7811902]]]}},{"type":"Feature","properties":{"osm_id":361437890,"building":"commercial","render_height_m":7.5,"height_source":"heuristic (not surveyed)"},"geometry":{"type":"Polygon","coordinates":[[[-96.7990053,32.7810873],[-96.7990881,32.7810705],[-96.799175,32.7813351],[-96.799088,32.7813526],[-96.7990053,32.7810873]]]}},{"type":"Feature","properties":{"osm_id":361437891,"building":"yes","height":"24.384","render_height_m":24.38,"height_source":"osm:height"},"geometry":{"type":"Polygon","coordinates":[[[-96.8063015,32.7803467],[-96.8063785,32.7806065],[-96.8060585,32.7806735],[-96.8059815,32.7804137],[-96.8061429,32.7803799],[-96.8063015,32.7803467]]]}},{"type":"Feature","properties":{"osm_id":361441704,"building":"commercial","render_height_m":7.5,"height_source":"heuristic (not surveyed)"},"geometry":{"type":"Polygon","coordinates":[[[-96.7967104,32.7820793],[-96.7967789,32.7820641],[-96.7968017,32.7820857],[-96.7968438,32.782054],[-96.796897,32.7821043],[-96.7969979,32.7820281],[-96.7971656,32.7821868],[-96.7970587,32.7822674],[-96.7970886,32.7822956],[-96.7971613,32.7823644],[-96.7968437,32.7826039],[-96.7967467,32.7825121],[-96.7965601,32.782654],[-96.7964909,32.7825886],[-96.7964049,32.7826564],[-96.7963185,32.7825747],[-96.7962501,32.7826234],[-96.7961573,32.7825452],[-96.7968083,32.7824084],[-96.7967104,32.7820793]]]}},{"type":"Feature","properties":{"osm_id":419480751,"addr:city":"Dallas","addr:housenumber":"1800","addr:postcode":"75201","addr:state":"TX","addr:street":"Main Street","building":"apartments","building:levels":"21","name":"The Element","render_height_m":67.2,"height_source":"osm:building:levels \u00d7 3.2m"},"geometry":{"type":"Polygon","coordinates":[[[-96.7964056,32.7811306],[-96.7959062,32.7812284],[-96.7958962,32.7811947],[-96.7957456,32.7812267],[-96.7956778,32.7809986],[-96.7957221,32.7809891],[-96.7957141,32.7809623],[-96.7956695,32.7809718],[-96.7955991,32.7807351],[-96.7961804,32.7806076],[-96.796184,32.7806197],[-96.7962141,32.7806133],[-96.79625,32.7807379],[-96.7962825,32.7807313],[-96.7963264,32.7808739],[-96.7964056,32.7811306]]]}},{"type":"Feature","properties":{"osm_id":425706515,"addr:city":"Dallas","addr:housenumber":"202","addr:state":"TX","addr:street":"North Lamar Street","building":"public","network":"DART","network:wikidata":"Q380660","operator":"Dallas Area Rapid Transit","operator:wikidata":"Q380660","public_transport":"station","toilets":"yes","render_height_m":7.5,"height_source":"heuristic (not surveyed)"},"geometry":{"type":"Polygon","coordinates":[[[-96.8038478,32.7815907],[-96.8039293,32.7815223],[-96.8040367,32.781432],[-96.8041498,32.7815272],[-96.8040726,32.781592],[-96.8039609,32.7816859],[-96.8038478,32.7815907]]]}},{"type":"Feature","properties":{"osm_id":449158637,"addr:city":"dallas","addr:housenumber":"711","addr:postcode":"75202","addr:state":"TX","addr:street":"elm street","building":"parking","building:levels":"5","height":"18.288","name":"711 elm","render_height_m":18.29,"height_source":"osm:height"},"geometry":{"type":"Polygon","coordinates":[[[-96.8055702,32.7802128],[-96.8058835,32.7801477],[-96.8059629,32.780417],[-96.8056512,32.7804831],[-96.8055702,32.7802128]]]}},{"type":"Feature","properties":{"osm_id":450893352,"addr:housenumber":"660","addr:street":"North Griffin Street","amenity":"fire_station","building":"yes","name":"Dallas Fire Station 18","operator":"DFD","render_height_m":7.5,"height_source":"heuristic (not surveyed)"},"geometry":{"type":"Polygon","coordinates":[[[-96.8037577,32.7839344],[-96.8037175,32.7838973],[-96.803688,32.7839201],[-96.8036073,32.7838533],[-96.8035995,32.7838597],[-96.8035835,32.7838454],[-96.8035913,32.783839],[-96.8034426,32.7837065],[-96.8034735,32.7836827],[-96.803451,32.7836619],[-96.8035912,32.7835538],[-96.8035741,32.783538],[-96.803662,32.7834701],[-96.8036399,32.7834497],[-96.8036831,32.7834164],[-96.8037102,32.7834414],[-96.8037574,32.783405],[-96.80381,32.7834537],[-96.8037665,32.7834873],[-96.8038186,32.7835355],[-96.8037793,32.7835658],[-96.8038192,32.7836028],[-96.8037738,32.7836379],[-96.8038143,32.7836753],[-96.8037739,32.7837065],[-96.8038168,32.7837461],[-96.8037768,32.783777],[-96.8038176,32.7838147],[-96.8037727,32.7838494],[-96.8037989,32.7838736],[-96.8037746,32.7838923],[-96.8037918,32.7839082],[-96.8037577,32.7839344]]]}},{"type":"Feature","properties":{"osm_id":450893364,"brand":"Homewood Suites","brand:wikidata":"Q5890701","building":"yes","height":"40","name":"Homewood Suites by Hilton Dallas Downtown","official_name":"Homewood Suites by Hilton","tourism":"hotel","render_height_m":40.0,"height_source":"osm:height"},"geometry":{"type":"Polygon","coordinates":[[[-96.8029814,32.7812781],[-96.8027511,32.781325],[-96.8026035,32.7808392],[-96.8028326,32.7807897],[-96.8029814,32.7812781]]]}},{"type":"Feature","properties":{"osm_id":450893366,"addr:housenumber":"211","addr:street":"North Ervay Street","building":"commercial","height":"70","wikidata":"Q4630872","wikipedia":"en:211 North Ervay","render_height_m":70.0,"height_source":"osm:height"},"geometry":{"type":"Polygon","coordinates":[[[-96.7974473,32.7819372],[-96.7975809,32.781908],[-96.7977404,32.7824364],[-96.797604,32.7824644],[-96.7974473,32.7819372]]]}},{"type":"Feature","properties":{"osm_id":450893370,"amenity":"parking","building":"parking","height":"36","parking":"multi-storey","render_height_m":36.0,"height_source":"osm:height"},"geometry":{"type":"Polygon","coordinates":[[[-96.7993385,32.7839719],[-96.7999345,32.7834719],[-96.8002151,32.7837013],[-96.8002396,32.7837248],[-96.7998883,32.7840175],[-96.7996365,32.7842273],[-96.7993385,32.7839719]]]}},{"type":"Feature","properties":{"osm_id":450893372,"addr:city":"Dallas","addr:housenumber":"1505","addr:postcode":"75201","addr:state":"TX","addr:street":"Elm Street","building":"apartments","building:levels":"16","name":"1505 Elm","render_height_m":51.2,"height_source":"osm:building:levels \u00d7 3.2m"},"geometry":{"type":"Polygon","coordinates":[[[-96.7997744,32.7817257],[-96.7996916,32.7814528],[-96.7993869,32.7815182],[-96.7994698,32.7817911],[-96.7997744,32.7817257]]]}},{"type":"Feature","properties":{"osm_id":450893375,"building":"yes","render_height_m":7.5,"height_source":"heuristic (not surveyed)"},"geometry":{"type":"Polygon","coordinates":[[[-96.8010636,32.7803848],[-96.8011399,32.7806234],[-96.8011519,32.7806207],[-96.8011629,32.780655],[-96.8013424,32.7806144],[-96.8012552,32.7803415],[-96.8010636,32.7803848]]]}},{"type":"Feature","properties":{"osm_id":450893379,"building":"commercial","render_height_m":7.5,"height_source":"heuristic (not surveyed)"},"geometry":{"type":"Polygon","coordinates":[[[-96.7997736,32.7831735],[-96.8000613,32.782937],[-96.8001313,32.782958],[-96.800224,32.7832687],[-96.799951,32.7833263],[-96.7998737,32.7832595],[-96.7997736,32.7831735]]]}},{"type":"Feature","properties":{"osm_id":450893385,"amenity":"parking","building":"parking","parking":"multi-storey","render_height_m":7.5,"height_source":"heuristic (not surveyed)"},"geometry":{"type":"Polygon","coordinates":[[[-96.7992108,32.7821087],[-96.7990532,32.7815899],[-96.7993869,32.7815182],[-96.7994698,32.7817911],[-96.7995511,32.7820589],[-96.7993203,32.7821085],[-96.7992852,32.7821161],[-96.7992174,32.7821305],[-96.7992108,32.7821087]]]}},{"type":"Feature","properties":{"osm_id":450893391,"addr:housenumber":"400","addr:street":"South Record Street","building":"commercial","building:levels":"18","height":"74","name":"400 Record","render_height_m":74.0,"height_source":"osm:height"},"geometry":{"type":"Polygon","coordinates":[[[-96.8055577,32.7762877],[-96.80566,32.7762661],[-96.8058838,32.7763864],[-96.8059245,32.7765237],[-96.8057929,32.7767222],[-96.8056926,32.7767434],[-96.8056074,32.7766969],[-96.8055073,32.7763584],[-96.8055577,32.7762877]]]}},{"type":"Feature","properties":{"osm_id":450893392,"building":"yes","render_height_m":7.5,"height_source":"heuristic (not surveyed)"},"geometry":{"type":"Polygon","coordinates":[[[-96.8036914,32.7811206],[-96.8036188,32.7808645],[-96.8037586,32.7808365],[-96.8037122,32.7806728],[-96.8035577,32.7807038],[-96.8035394,32.7806393],[-96.8038864,32.7805695],[-96.8040013,32.7809743],[-96.8039061,32.7809933],[-96.8037815,32.7811025],[-96.8036914,32.7811206]]]}},{"type":"Feature","properties":{"osm_id":451142629,"addr:city":"Dallas","addr:housenumber":"1114","addr:postcode":"75202","addr:state":"TX","addr:street":"Commerce Street","alt_name":"Santa Fe Terminal Buildings Number 1 and Number 2","building":"yes","government":"administrative","name":"Santa Fe Federal Building","office":"government","website":"https://www.gsa.gov/about-us/gsa-regions/region-7-greater-southwest/buildings-and-facilities/texas-federal-buildings/santa-fe-federal-building?gsaredirect=santafefedbldg","render_height_m":7.5,"height_source":"heuristic (not surveyed)"},"geometry":{"type":"Polygon","coordinates":[[[-96.8017039,32.7792099],[-96.8012657,32.7793094],[-96.8011199,32.7788021],[-96.8014654,32.7787315],[-96.8015555,32.7787125],[-96.8017039,32.7792099]]]}},{"type":"Feature","properties":{"osm_id":471658445,"amenity":"fuel","brand":"7-Eleven","brand:wikidata":"Q259340","building":"roof","name":"7-Eleven","render_height_m":7.5,"height_source":"heuristic (not surveyed)"},"geometry":{"type":"Polygon","coordinates":[[[-96.8042436,32.7824888],[-96.8041991,32.7824017],[-96.8040419,32.7824584],[-96.8040864,32.7825455],[-96.8042436,32.7824888]]]}},{"type":"Feature","properties":{"osm_id":471658450,"building":"commercial","height":"50","render_height_m":50.0,"height_source":"osm:height"},"geometry":{"type":"Polygon","coordinates":[[[-96.800954,32.7840286],[-96.8011332,32.7839931],[-96.8010985,32.7838696],[-96.8010809,32.7838066],[-96.8007512,32.7838703],[-96.8006117,32.7838996],[-96.800664,32.7840861],[-96.800954,32.7840286]]]}},{"type":"Feature","properties":{"osm_id":471658451,"building":"commercial","render_height_m":7.5,"height_source":"heuristic (not surveyed)"},"geometry":{"type":"Polygon","coordinates":[[[-96.800954,32.7840286],[-96.8011332,32.7839931],[-96.8010985,32.7838696],[-96.8013529,32.7840845],[-96.8011864,32.7842324],[-96.800968,32.7840401],[-96.800954,32.7840286]]]}},{"type":"Feature","properties":{"osm_id":471658482,"building":"church","height":"20","render_height_m":20.0,"height_source":"osm:height"},"geometry":{"type":"Polygon","coordinates":[[[-96.7993533,32.7844099],[-96.7993483,32.7844767],[-96.7993307,32.7845406],[-96.7993066,32.7845918],[-96.7992698,32.7846458],[-96.799236,32.7846763],[-96.7992703,32.7847052],[-96.7993915,32.7848075],[-96.7994989,32.7849032],[-96.7995862,32.7849837],[-96.7993026,32.7852077],[-96.7992588,32.7851712],[-96.7993014,32.7850889],[-96.7993035,32.7849829],[-96.7992672,32.7849046],[-96.799231,32.78486],[-96.7991845,32.7848355],[-96.7991486,32.7848166],[-96.7990587,32.7847986],[-96.7989695,32.7847873],[-96.7988756,32.7847896],[-96.798833,32.7847958],[-96.7987981,32.7847977],[-96.7987209,32.7847317],[-96.7985816,32.7846126],[-96.798334,32.7843895],[-96.798971,32.7838775],[-96.7993292,32.7842129],[-96.7992974,32.7842218],[-96.7993216,32.7842682],[-96.7993458,32.7843433],[-96.7993533,32.7844099]]]}},{"type":"Feature","properties":{"osm_id":471658485,"addr:city":"Dallas","addr:housenumber":"2020","addr:postcode":"75201","addr:state":"TX","addr:street":"Live Oak Street","alt_name":"Live Oak Data Center","building":"commercial","building:levels":"12","name":"Live Oak Data Center","smoking":"no","telecom":"data_center","render_height_m":38.4,"height_source":"osm:building:levels \u00d7 3.2m"},"geometry":{"type":"Polygon","coordinates":[[[-96.7941639,32.7838321],[-96.7941502,32.78378],[-96.794152,32.7837498],[-96.794232,32.7836794],[-96.7941912,32.7836452],[-96.7942166,32.7836096],[-96.794234,32.7836084],[-96.7942395,32.7835975],[-96.7942275,32.7835891],[-96.7942548,32.7835521],[-96.7942731,32.7835534],[-96.7943121,32.7834935],[-96.7942995,32.7834828],[-96.7943247,32.7834467],[-96.7943514,32.7834377],[-96.7943385,32.7834269],[-96.7943663,32.7833849],[-96.7944423,32.7833691],[-96.7944535,32.7833806],[-96.7945483,32.7833592],[-96.794549,32.7833451],[-96.7946234,32.7833272],[-96.7947798,32.783427],[-96.7947807,32.7834435],[-96.7948451,32.783477],[-96.7951225,32.7836594],[-96.7948862,32.7838637],[-96.7948405,32.7838261],[-96.7947651,32.783881],[-96.794736,32.7839009],[-96.7946904,32.783945],[-96.7946772,32.7839577],[-96.7947118,32.7839868],[-96.794499,32.7841705],[-96.7941923,32.7838782],[-96.7941766,32.783863],[-96.7941639,32.7838321]]]}},{"type":"Feature","properties":{"osm_id":471658488,"addr:housenumber":"1909","addr:street":"North Griffin Street","building":"commercial","render_height_m":7.5,"height_source":"heuristic (not surveyed)"},"geometry":{"type":"Polygon","coordinates":[[[-96.8055169,32.7839134],[-96.8054866,32.7838875],[-96.8054766,32.7838959],[-96.8052982,32.7837438],[-96.8054099,32.7836513],[-96.805648,32.783454],[-96.8057111,32.7834017],[-96.8058023,32.7834796],[-96.8058263,32.7834524],[-96.8058531,32.7834769],[-96.8058386,32.7834876],[-96.8058755,32.7835231],[-96.8055169,32.7839134]]]}},{"type":"Feature","properties":{"osm_id":471658490,"addr:city":"Dallas","addr:housenumber":"300","addr:state":"TX","addr:street":"North Ervay Street","building":"yes","building:levels":"8","name":"Republic Center","wikidata":"Q7314394","wikipedia":"en:Republic Center","render_height_m":25.6,"height_source":"osm:building:levels \u00d7 3.2m"},"geometry":{"type":"Polygon","coordinates":[[[-96.7970474,32.7833154],[-96.7970987,32.7832708],[-96.7970117,32.7832001],[-96.796999,32.7832112],[-96.7966526,32.7829297],[-96.7971337,32.7828165],[-96.7971393,32.7827806],[-96.7975023,32.7826995],[-96.7975288,32.7827212],[-96.7975592,32.7827102],[-96.7979669,32.7830402],[-96.7981813,32.7832133],[-96.7978132,32.7835296],[-96.797571,32.7837378],[-96.7973558,32.7835661],[-96.7970474,32.7833154]]]}},{"type":"Feature","properties":{"osm_id":471658494,"building":"yes","render_height_m":7.5,"height_source":"heuristic (not surveyed)"},"geometry":{"type":"Polygon","coordinates":[[[-96.8053838,32.7827956],[-96.8054515,32.7827472],[-96.8055991,32.7828985],[-96.8056927,32.7830282],[-96.8057017,32.7830572],[-96.8056269,32.7831144],[-96.8054202,32.7829229],[-96.8054355,32.782912],[-96.8054103,32.7828807],[-96.8053943,32.7828061],[-96.8053838,32.7827956]]]}},{"type":"Feature","properties":{"osm_id":471948142,"building":"roof","layer":"1","render_height_m":7.5,"height_source":"heuristic (not surveyed)"},"geometry":{"type":"Polygon","coordinates":[[[-96.8033706,32.7803361],[-96.8033595,32.7802983],[-96.8033126,32.7803082],[-96.8033013,32.7802697],[-96.8032551,32.7802793],[-96.8032291,32.7801905],[-96.8032745,32.780181],[-96.8032625,32.7801399],[-96.8033089,32.7801302],[-96.8032976,32.7800917],[-96.8033987,32.7800706],[-96.8034098,32.7801087],[-96.8034557,32.7800991],[-96.8034681,32.7801414],[-96.8035166,32.7801313],[-96.8035417,32.7802171],[-96.8034932,32.7802272],[-96.8035051,32.7802677],[-96.8034584,32.7802775],[-96.8034694,32.7803154],[-96.8033706,32.7803361]]]}},{"type":"Feature","properties":{"osm_id":471953143,"addr:city":"Dallas","addr:housenumber":"1406","addr:postcode":"75202","addr:state":"TX","addr:street":"Elm Street","addr:unit":"B","building":"yes","building:levels":"10","render_height_m":32.0,"height_source":"osm:building:levels \u00d7 3.2m"},"geometry":{"type":"Polygon","coordinates":[[[-96.7999366,32.7811076],[-96.7999571,32.781178],[-96.799794,32.7812116],[-96.7997735,32.7811412],[-96.7999366,32.7811076]]]}},{"type":"Feature","properties":{"osm_id":471953144,"building":"commercial","render_height_m":7.5,"height_source":"heuristic (not surveyed)"},"geometry":{"type":"Polygon","coordinates":[[[-96.8004368,32.7799842],[-96.8007214,32.779924],[-96.8008063,32.7802028],[-96.800523,32.780263],[-96.8004368,32.7799842]]]}},{"type":"Feature","properties":{"osm_id":471953145,"addr:city":"Dallas","addr:housenumber":"1404","addr:postcode":"75202","addr:state":"TX","addr:street":"Main Street","building":"commercial","building:levels":"2","render_height_m":6.4,"height_source":"osm:building:levels \u00d7 3.2m"},"geometry":{"type":"Polygon","coordinates":[[[-96.8000591,32.7803591],[-96.7999591,32.7803798],[-96.7998789,32.7801041],[-96.7999767,32.7800825],[-96.8000591,32.7803591]]]}},{"type":"Feature","properties":{"osm_id":471953146,"building":"commercial","render_height_m":7.5,"height_source":"heuristic (not surveyed)"},"geometry":{"type":"Polygon","coordinates":[[[-96.8003583,32.7797265],[-96.8006423,32.779664],[-96.8007214,32.779924],[-96.8004368,32.7799842],[-96.8003583,32.7797265]]]}},{"type":"Feature","properties":{"osm_id":471953147,"building":"commercial","render_height_m":7.5,"height_source":"heuristic (not surveyed)"},"geometry":{"type":"Polygon","coordinates":[[[-96.800523,32.780263],[-96.8002566,32.7803186],[-96.8001733,32.780041],[-96.8004368,32.7799842],[-96.800523,32.780263]]]}},{"type":"Feature","properties":{"osm_id":471953148,"building":"commercial","height":"70","render_height_m":70.0,"height_source":"osm:height"},"geometry":{"type":"Polygon","coordinates":[[[-96.799863,32.7799666],[-96.7998249,32.7798414],[-96.8003583,32.7797265],[-96.8004368,32.7799842],[-96.8001733,32.780041],[-96.800058,32.780065],[-96.7999767,32.7800825],[-96.7998789,32.7801041],[-96.7995692,32.7801677],[-96.7995603,32.7801375],[-96.7994808,32.7801541],[-96.7994208,32.7799509],[-96.7997107,32.7798905],[-96.7997407,32.7799923],[-96.799863,32.7799666]]]}},{"type":"Feature","properties":{"osm_id":471953149,"building":"commercial","render_height_m":7.5,"height_source":"heuristic (not surveyed)"},"geometry":{"type":"Polygon","coordinates":[[[-96.7990036,32.7813709],[-96.7988391,32.7814068],[-96.7987562,32.7811409],[-96.7989236,32.7811048],[-96.7990036,32.7813709]]]}},{"type":"Feature","properties":{"osm_id":471953150,"building":"commercial","render_height_m":7.5,"height_source":"heuristic (not surveyed)"},"geometry":{"type":"Polygon","coordinates":[[[-96.7989236,32.7811048],[-96.7990053,32.7810873],[-96.799088,32.7813526],[-96.7990036,32.7813709],[-96.7989236,32.7811048]]]}},{"type":"Feature","properties":{"osm_id":471953151,"building":"commercial","render_height_m":7.5,"height_source":"heuristic (not surveyed)"},"geometry":{"type":"Polygon","coordinates":[[[-96.7988391,32.7814068],[-96.79861,32.7814572],[-96.798527,32.7811902],[-96.7987562,32.7811409],[-96.7988391,32.7814068]]]}},{"type":"Feature","properties":{"osm_id":471953153,"addr:state":"TX","building":"yes","building:levels":"8","ele":"135","gnis:feature_id":"2032378","name":"Wilson Building","source":"USGS Geonames","wikidata":"Q8022994","render_height_m":25.6,"height_source":"osm:building:levels \u00d7 3.2m"},"geometry":{"type":"Polygon","coordinates":[[[-96.7974368,32.7816974],[-96.7974186,32.7816948],[-96.7974015,32.7816887],[-96.7973866,32.7816795],[-96.7973509,32.7815622],[-96.7975807,32.7815127],[-96.79757,32.7814775],[-96.7973493,32.7815249],[-96.7973007,32.7813653],[-96.7975255,32.7813169],[-96.7975122,32.7812733],[-96.7972857,32.7813221],[-96.7972442,32.7811858],[-96.7972487,32.7811738],[-96.7972573,32.7811635],[-96.7972693,32.7811559],[-96.7975451,32.7810966],[-96.7975494,32.7811105],[-96.7976954,32.781079],[-96.7976971,32.7810846],[-96.7977655,32.7813093],[-96.797779,32.7813537],[-96.7978586,32.7816149],[-96.7977034,32.7816453],[-96.7974368,32.7816974]]]}},{"type":"Feature","properties":{"osm_id":471953157,"addr:city":"Dallas","addr:housenumber":"311","addr:state":"TX","addr:street":"South Akard Street","building":"office","building:levels":"20","name":"Four AT&T Plaza","render_height_m":64.0,"height_source":"osm:building:levels \u00d7 3.2m"},"geometry":{"type":"Polygon","coordinates":[[[-96.799254,32.7785192],[-96.7995783,32.778444],[-96.7996597,32.7786962],[-96.7993353,32.7787714],[-96.799254,32.7785192]]]}},{"type":"Feature","properties":{"osm_id":471965558,"addr:city":"Dallas","addr:housenumber":"1618","addr:postcode":"75201","addr:state":"TX","addr:street":"Main Street","building":"yes","building:levels":"9","name":"Neiman Marcus Building","ownership":"private","wikidata":"Q6989626","wikipedia":"en:Neiman Marcus Building","render_height_m":28.8,"height_source":"osm:building:levels \u00d7 3.2m"},"geometry":{"type":"Polygon","coordinates":[[[-96.7977158,32.7808503],[-96.7971653,32.7809668],[-96.7970081,32.7804417],[-96.7976755,32.7803005],[-96.7977563,32.7805703],[-96.7976982,32.7805826],[-96.7976394,32.780595],[-96.7976469,32.7806199],[-96.7977158,32.7808503]]]}},{"type":"Feature","properties":{"osm_id":471965564,"building":"retail","render_height_m":7.5,"height_source":"heuristic (not surveyed)"},"geometry":{"type":"Polygon","coordinates":[[[-96.7960814,32.7786016],[-96.7960565,32.7785287],[-96.7960106,32.7785398],[-96.7959886,32.7784754],[-96.7959731,32.7784792],[-96.7959504,32.7784127],[-96.7962582,32.7783384],[-96.7963278,32.7785422],[-96.7960814,32.7786016]]]}},{"type":"Feature","properties":{"osm_id":471965565,"addr:housenumber":"500","addr:street":"South Ervay Street","amenity":"parking","building":"apartments","parking":"multi-storey","render_height_m":7.5,"height_source":"heuristic (not surveyed)"},"geometry":{"type":"Polygon","coordinates":[[[-96.7953692,32.7776975],[-96.7954947,32.7780484],[-96.7950434,32.7781625],[-96.794918,32.7778115],[-96.7953692,32.7776975]]]}},{"type":"Feature","properties":{"osm_id":471965572,"building":"commercial","height":"199.7","render_height_m":199.7,"height_source":"osm:height"},"geometry":{"type":"Polygon","coordinates":[[[-96.7968083,32.7824084],[-96.7967104,32.7820793],[-96.7960594,32.7822162],[-96.7961149,32.7824028],[-96.7961573,32.7825452],[-96.7968083,32.7824084]]]}},{"type":"Feature","properties":{"osm_id":613944069,"building":"commercial","building:levels":"1","roof:shape":"flat","render_height_m":3.2,"height_source":"osm:building:levels \u00d7 3.2m"},"geometry":{"type":"Polygon","coordinates":[[[-96.8036293,32.7756242],[-96.8033066,32.7756903],[-96.8031216,32.7750518],[-96.8032661,32.7750222],[-96.803357,32.7749492],[-96.8034554,32.775113],[-96.8035264,32.7752619],[-96.8035841,32.7754141],[-96.8036293,32.7756242]]]}},{"type":"Feature","properties":{"osm_id":615637436,"building":"roof","building:material":"glass","layer":"0","render_height_m":7.5,"height_source":"heuristic (not surveyed)"},"geometry":{"type":"Polygon","coordinates":[[[-96.8024319,32.7809062],[-96.8021114,32.7809726],[-96.8022814,32.7810557],[-96.8023521,32.7810902],[-96.80252,32.7811722],[-96.8024319,32.7809062]]]}},{"type":"Feature","properties":{"osm_id":617223134,"amenity":"parking","building":"yes","height":"36","parking":"multi-storey","render_height_m":36.0,"height_source":"osm:height"},"geometry":{"type":"Polygon","coordinates":[[[-96.7993385,32.7839719],[-96.79909,32.7837553],[-96.7994455,32.7834628],[-96.7995707,32.7833598],[-96.7996624,32.7832843],[-96.7996955,32.7832571],[-96.7999345,32.7834719],[-96.7993385,32.7839719]]]}},{"type":"Feature","properties":{"osm_id":617241670,"access":"private","amenity":"parking","building":"commercial","parking":"multi-storey","render_height_m":7.5,"height_source":"heuristic (not surveyed)"},"geometry":{"type":"Polygon","coordinates":[[[-96.7997744,32.7817257],[-96.7994698,32.7817911],[-96.7995511,32.7820589],[-96.7995958,32.7820493],[-96.7998558,32.7819935],[-96.7997744,32.7817257]]]}},{"type":"Feature","properties":{"osm_id":617241692,"addr:city":"Dallas","addr:housenumber":"1615","addr:postcode":"75201","addr:state":"TX","addr:street":"Main Street","building":"yes","building:levels":"4","check_date":"2026-06-13","clothes":"women","name":"Forty Five Ten","opening_hours":"Mo-Tu \"by appointment\"; We-Sa 11:00-17:00","shop":"clothes","website":"https://fortyfiveten.com/","render_height_m":12.8,"height_source":"osm:building:levels \u00d7 3.2m"},"geometry":{"type":"Polygon","coordinates":[[[-96.7976971,32.7810846],[-96.7980197,32.7810152],[-96.7980847,32.7812258],[-96.7980514,32.7812331],[-96.7980554,32.7812461],[-96.7979892,32.7812606],[-96.7980054,32.7813131],[-96.7978846,32.7813395],[-96.7978684,32.7812869],[-96.7977655,32.7813093],[-96.7976971,32.7810846]]]}},{"type":"Feature","properties":{"osm_id":617252476,"building":"roof","layer":"1","render_height_m":7.5,"height_source":"heuristic (not surveyed)"},"geometry":{"type":"Polygon","coordinates":[[[-96.8053406,32.7835922],[-96.8054099,32.7836513],[-96.805648,32.783454],[-96.8055756,32.7833925],[-96.8054339,32.7834953],[-96.8054507,32.7835124],[-96.8053406,32.7835922]]]}},{"type":"Feature","properties":{"osm_id":654112871,"building":"chapel","name":"Thanksgiving Chapel","wikidata":"Q124117919","render_height_m":7.5,"height_source":"heuristic (not surveyed)"},"geometry":{"type":"Polygon","coordinates":[[[-96.7982189,32.7829162],[-96.7982092,32.7829397],[-96.7982183,32.7829707],[-96.7982407,32.7829898],[-96.7982745,32.7829971],[-96.7983084,32.7829891],[-96.7983313,32.7829664],[-96.7983372,32.7829399],[-96.7983288,32.7829145],[-96.7983023,32.7828936],[-96.7982681,32.7828883],[-96.7982386,32.7828983],[-96.7982189,32.7829162]]]}},{"type":"Feature","properties":{"osm_id":670138707,"access":"private","amenity":"parking","building":"parking","building:levels":"5","parking":"multi-storey","render_height_m":16.0,"height_source":"osm:building:levels \u00d7 3.2m"},"geometry":{"type":"Polygon","coordinates":[[[-96.7995678,32.7809726],[-96.7994096,32.7810049],[-96.7992859,32.7810301],[-96.7991648,32.7810548],[-96.7990881,32.7810705],[-96.799175,32.7813351],[-96.7996478,32.7812369],[-96.7995678,32.7809726]]]}},{"type":"Feature","properties":{"osm_id":724750337,"building":"apartments","building:levels":"9","height":"31","name":"Interurban Building Apartments","render_height_m":31.0,"height_source":"osm:height"},"geometry":{"type":"Polygon","coordinates":[[[-96.7981641,32.7790401],[-96.7982312,32.7792663],[-96.7975324,32.7794128],[-96.7974652,32.7791862],[-96.7976306,32.7791515],[-96.7976571,32.7792408],[-96.7980134,32.7791662],[-96.797987,32.7790772],[-96.7981641,32.7790401]]]}},{"type":"Feature","properties":{"osm_id":727599939,"building":"yes","height":"40.5384","render_height_m":40.54,"height_source":"osm:height"},"geometry":{"type":"Polygon","coordinates":[[[-96.8049661,32.7800859],[-96.8046367,32.7801596],[-96.8044833,32.7796743],[-96.8048126,32.7796007],[-96.8049661,32.7800859]]]}},{"type":"Feature","properties":{"osm_id":842547093,"building":"yes","layer":"-1","render_height_m":7.5,"height_source":"heuristic (not surveyed)"},"geometry":{"type":"Polygon","coordinates":[[[-96.8027401,32.7803582],[-96.8026848,32.7801702],[-96.8024608,32.7802168],[-96.8025162,32.7804048],[-96.8027401,32.7803582]]]}},{"type":"Feature","properties":{"osm_id":923366586,"addr:city":"Dallas","addr:housenumber":"1530","addr:postcode":"75201","addr:state":"TX","addr:street":"Main Street","building":"yes","name":"The Joule Dallas","phone":"+1 214-748-1300","rooms":"160","tourism":"hotel","website":"https://www.thejouledallas.com","render_height_m":7.5,"height_source":"heuristic (not surveyed)"},"geometry":{"type":"Polygon","coordinates":[[[-96.7984692,32.7807161],[-96.7984614,32.7806953],[-96.7983651,32.7807152],[-96.7982819,32.7807343],[-96.7981146,32.780767],[-96.7978747,32.7808166],[-96.7978009,32.7805844],[-96.7977928,32.7805574],[-96.7980342,32.7805089],[-96.7982356,32.7804697],[-96.7981525,32.7801967],[-96.7982403,32.7801787],[-96.7985113,32.7801219],[-96.7985179,32.7801447],[-96.7985896,32.7803933],[-96.7985286,32.7804063],[-96.7986079,32.7806657],[-96.7985587,32.7806768],[-96.7985646,32.7806963],[-96.7984692,32.7807161]]]}},{"type":"Feature","properties":{"osm_id":933296175,"addr:city":"Dallas","addr:housenumber":"1907","addr:postcode":"75201","addr:state":"TX","addr:street":"Elm Street","brand":"Renaissance","brand:wikidata":"Q2143252","building":"yes","building:levels":"18","check_date":"2026-06-24","fax":"+1 214-220-2901","internet_access":"wlan","internet_access:fee":"no","name":"Renaissance Saint Elm Dallas Downtown Hotel","phone":"+1 214-220-2900","tourism":"hotel","website":"https://www.marriott.com/en-us/hotels/dalbw-renaissance-saint-elm-dallas-downtown-hotel/overview/","render_height_m":57.6,"height_source":"osm:building:levels \u00d7 3.2m"},"geometry":{"type":"Polygon","coordinates":[[[-96.7956125,32.7824757],[-96.795519,32.7824955],[-96.7954781,32.7823595],[-96.7957964,32.7822917],[-96.7958284,32.7823978],[-96.7956035,32.7824457],[-96.7956125,32.7824757]]]}},{"type":"Feature","properties":{"osm_id":1191501744,"access":"yes","amenity":"toilets","building":"yes","check_date":"2024-03-17","wheelchair":"yes","render_height_m":7.5,"height_source":"heuristic (not surveyed)"},"geometry":{"type":"Polygon","coordinates":[[[-96.7961542,32.7839229],[-96.7960887,32.7838686],[-96.7960625,32.7838923],[-96.7960367,32.7839156],[-96.7961008,32.7839686],[-96.7961542,32.7839229]]]}},{"type":"Feature","properties":{"osm_id":1237680199,"addr:city":"Dallas","addr:housenumber":"1900","addr:postcode":"75201","addr:state":"TX","addr:street":"Main Street","building":"roof","building:levels":"1","source":"microsoft/BuildingFootprints","render_height_m":3.2,"height_source":"osm:building:levels \u00d7 3.2m"},"geometry":{"type":"Polygon","coordinates":[[[-96.7954239,32.781311],[-96.795395,32.7812179],[-96.7951941,32.781262],[-96.795223,32.7813551],[-96.7954239,32.781311]]]}},{"type":"Feature","properties":{"osm_id":1333658118,"amenity":"parking","building":"yes","parking":"multi-storey","render_height_m":7.5,"height_source":"heuristic (not surveyed)"},"geometry":{"type":"Polygon","coordinates":[[[-96.8031985,32.7825592],[-96.8030368,32.7826826],[-96.80257,32.7822501],[-96.8027316,32.7821268],[-96.8031985,32.7825592]]]}},{"type":"Feature","properties":{"osm_id":1346984424,"access":"yes","addr:city":"Dallas","addr:housenumber":"700","addr:postcode":"75202","addr:state":"TX","addr:street":"Jackson Street","amenity":"parking","building":"yes","building:levels":"12","capacity":"1228","fee":"yes","parking":"multi-storey","surface":"concrete","render_height_m":38.4,"height_source":"osm:building:levels \u00d7 3.2m"},"geometry":{"type":"Polygon","coordinates":[[[-96.80538,32.7776538],[-96.8054065,32.7776465],[-96.8054182,32.7776302],[-96.8054158,32.7776076],[-96.8052784,32.7771514],[-96.8052688,32.777132],[-96.8052458,32.7771244],[-96.8052208,32.7771252],[-96.8048247,32.7772054],[-96.8046847,32.7772361],[-96.8046613,32.7772455],[-96.804647,32.7772655],[-96.8046501,32.7772848],[-96.8047305,32.7775553],[-96.8047857,32.7777411],[-96.8047979,32.7777618],[-96.8048206,32.7777707],[-96.8048442,32.7777671],[-96.805043,32.7777275],[-96.80538,32.7776538]]]}},{"type":"Feature","properties":{"osm_id":1352376103,"addr:city":"Dallas","addr:housenumber":"1520","addr:postcode":"75201","addr:state":"TX","addr:street":"Main Street","building":"retail","building:levels":"3","building:levels:underground":"1","render_height_m":9.6,"height_source":"osm:building:levels \u00d7 3.2m"},"geometry":{"type":"Polygon","coordinates":[[[-96.7986079,32.7806657],[-96.7987161,32.7806434],[-96.7987098,32.7806252],[-96.7987398,32.7806182],[-96.7987554,32.7806267],[-96.7987756,32.7806309],[-96.7987916,32.7806298],[-96.7988063,32.7806232],[-96.798817,32.780614],[-96.7988218,32.7805979],[-96.7988187,32.7805842],[-96.7988093,32.7805698],[-96.7987976,32.7805604],[-96.7987824,32.7805564],[-96.7987694,32.7805184],[-96.7987701,32.7804802],[-96.7987636,32.7804384],[-96.7987398,32.7803614],[-96.7985896,32.7803933],[-96.7985286,32.7804063],[-96.7986079,32.7806657]]]}},{"type":"Feature","properties":{"osm_id":1352376105,"building":"yes","render_height_m":7.5,"height_source":"heuristic (not surveyed)"},"geometry":{"type":"Polygon","coordinates":[[[-96.7977158,32.7808503],[-96.7978747,32.7808166],[-96.7978009,32.7805844],[-96.7977622,32.7805917],[-96.7977563,32.7805703],[-96.7976982,32.7805826],[-96.7977047,32.7806085],[-96.7976469,32.7806199],[-96.7977158,32.7808503]]]}},{"type":"Feature","properties":{"osm_id":1352461431,"amenity":"parking","building":"yes","fee":"yes","parking":"multi-storey","render_height_m":7.5,"height_source":"heuristic (not surveyed)"},"geometry":{"type":"Polygon","coordinates":[[[-96.8010637,32.7793509],[-96.8011547,32.7793321],[-96.8012188,32.7793189],[-96.8010692,32.77881],[-96.8009084,32.7788422],[-96.8010637,32.7793509]]]}},{"type":"Feature","properties":{"osm_id":1358989898,"building":"yes","render_height_m":7.5,"height_source":"heuristic (not surveyed)"},"geometry":{"type":"Polygon","coordinates":[[[-96.8040013,32.7809743],[-96.8040849,32.7809575],[-96.8040682,32.7808987],[-96.8041565,32.780881],[-96.8041461,32.7808446],[-96.8041954,32.7808347],[-96.8041075,32.7805252],[-96.8038864,32.7805695],[-96.8040013,32.7809743]]]}},{"type":"Feature","properties":{"osm_id":1375058572,"addr:city":"dallas","addr:housenumber":"805","addr:postcode":"75202","addr:state":"TX","addr:street":"elm street","building":"commercial","name":"line design","office":"architect","opening_hours":"Mo-Fr 09:00-17:00","phone":"+12147785339","website":"https://www.linedesignarchitects.com/","render_height_m":7.5,"height_source":"heuristic (not surveyed)"},"geometry":{"type":"Polygon","coordinates":[[[-96.8054777,32.7808093],[-96.8053976,32.7805419],[-96.805044,32.7806167],[-96.8051219,32.7808826],[-96.8054777,32.7808093]]]}},{"type":"Feature","properties":{"osm_id":1387877453,"addr:city":"Dallas","addr:housenumber":"1402","addr:postcode":"75202","addr:state":"TX","addr:street":"Main Street","building":"commercial","building:levels":"2","render_height_m":6.4,"height_source":"osm:building:levels \u00d7 3.2m"},"geometry":{"type":"Polygon","coordinates":[[[-96.8000591,32.7803591],[-96.8001404,32.7803428],[-96.800058,32.780065],[-96.7999767,32.7800825],[-96.8000591,32.7803591]]]}},{"type":"Feature","properties":{"osm_id":1387877454,"addr:city":"Dallas","addr:housenumber":"1400","addr:postcode":"75202","addr:state":"TX","addr:street":"Main Street","building":"commercial","building:levels":"2","render_height_m":6.4,"height_source":"osm:building:levels \u00d7 3.2m"},"geometry":{"type":"Polygon","coordinates":[[[-96.8001404,32.7803428],[-96.8002566,32.7803186],[-96.8001733,32.780041],[-96.800058,32.780065],[-96.8001404,32.7803428]]]}},{"type":"Feature","properties":{"osm_id":1417969457,"addr:city":"Dallas","addr:housenumber":"306","addr:postcode":"75202","addr:state":"TX","addr:street":"South Record Street","building":"yes","building:levels":"2","render_height_m":6.4,"height_source":"osm:building:levels \u00d7 3.2m"},"geometry":{"type":"Polygon","coordinates":[[[-96.8063011,32.7772499],[-96.8062811,32.7771814],[-96.8059919,32.7772411],[-96.8060118,32.7773095],[-96.8063011,32.7772499]]]}},{"type":"Feature","properties":{"osm_id":1454006160,"amenity":"parking","building":"yes","parking":"multi-storey","render_height_m":7.5,"height_source":"heuristic (not surveyed)"},"geometry":{"type":"Polygon","coordinates":[[[-96.7946904,32.783945],[-96.7944816,32.7837622],[-96.7942663,32.7839364],[-96.7941845,32.7838576],[-96.7941603,32.7837514],[-96.794414,32.7835295],[-96.7945341,32.783641],[-96.794631,32.7835664],[-96.7946692,32.7836006],[-96.7948451,32.783477],[-96.7951225,32.7836594],[-96.7948862,32.7838637],[-96.7948405,32.7838261],[-96.7947651,32.783881],[-96.794736,32.7839009],[-96.7946904,32.783945]]]}}]}
