{"type":"FeatureCollection","features":[{"type":"Feature","properties":{"overture_id":"88086328-4f5c-4d78-9385-17c3afa8a4e0","primary_source":"OpenStreetMap","render_height_m":74.0,"height_source":"overture:height"},"geometry":{"type":"Polygon","coordinates":[[[-96.80566,32.7762661],[-96.8055577,32.7762877],[-96.8055073,32.7763584],[-96.8056074,32.7766969],[-96.8056926,32.7767434],[-96.8057929,32.7767222],[-96.8059245,32.7765237],[-96.8058838,32.7763864],[-96.80566,32.7762661]]]}},{"type":"Feature","properties":{"overture_id":"e3211e11-69c6-4a2a-8508-ccb568ded612","primary_source":"OpenStreetMap","render_height_m":14.97,"height_source":"overture:height"},"geometry":{"type":"Polygon","coordinates":[[[-96.8047918,32.7832781],[-96.8048999,32.7833741],[-96.8048851,32.783385],[-96.8051994,32.7836945],[-96.8053406,32.7835922],[-96.8054507,32.7835124],[-96.8054339,32.7834953],[-96.8055756,32.7833925],[-96.8056108,32.7833671],[-96.8055825,32.7833395],[-96.805655,32.783287],[-96.8056313,32.7832651],[-96.8053653,32.7830189],[-96.8051001,32.7832092],[-96.8050432,32.7831587],[-96.8050754,32.783133],[-96.8050274,32.7830904],[-96.8047918,32.7832781]]]}},{"type":"Feature","properties":{"overture_id":"caba4685-dc68-496f-979a-db1ce6b382fd","primary_source":"OpenStreetMap","render_height_m":16.5,"height_source":"overture:height"},"geometry":{"type":"Polygon","coordinates":[[[-96.8054507,32.7835124],[-96.8053406,32.7835922],[-96.8054099,32.7836513],[-96.805648,32.783454],[-96.8055756,32.7833925],[-96.8054339,32.7834953],[-96.8054507,32.7835124]]]}},{"type":"Feature","properties":{"overture_id":"3b6f88ef-485c-4e0b-9db2-fa15decbf2ab","primary_source":"OpenStreetMap","render_height_m":17.3,"height_source":"overture:height"},"geometry":{"type":"Polygon","coordinates":[[[-96.8054866,32.7838875],[-96.8055169,32.7839134],[-96.8058755,32.7835231],[-96.8058386,32.7834876],[-96.8058531,32.7834769],[-96.8058263,32.7834524],[-96.8058023,32.7834796],[-96.8057111,32.7834017],[-96.805648,32.783454],[-96.8054099,32.7836513],[-96.8052982,32.7837438],[-96.8054766,32.7838959],[-96.8054866,32.7838875]]]}},{"type":"Feature","properties":{"overture_id":"ff9aebcb-1113-47b7-b656-fabbf9e95d64","primary_source":"OpenStreetMap","render_height_m":7.77,"height_source":"overture:height"},"geometry":{"type":"Polygon","coordinates":[[[-96.8044674,32.7831591],[-96.8042561,32.7833313],[-96.8043096,32.7833815],[-96.8045229,32.7832078],[-96.8044674,32.7831591]]]}},{"type":"Feature","properties":{"overture_id":"613641b6-f9b3-407a-86a3-909ab520f838","primary_source":"OpenStreetMap","render_height_m":4.14,"height_source":"overture:height"},"geometry":{"type":"Polygon","coordinates":[[[-96.8040864,32.7825455],[-96.8042436,32.7824888],[-96.8041991,32.7824017],[-96.8040419,32.7824584],[-96.8040864,32.7825455]]]}},{"type":"Feature","properties":{"overture_id":"19837a9b-034d-463e-b149-a8569ef73ec2","primary_source":"OpenStreetMap","render_height_m":12.66,"height_source":"overture:height"},"geometry":{"type":"Polygon","coordinates":[[[-96.8056692,32.7824213],[-96.8053121,32.7821062],[-96.8053182,32.7821007],[-96.8052799,32.782067],[-96.8052632,32.7820565],[-96.8052481,32.7820586],[-96.8049795,32.7822851],[-96.8043158,32.7828334],[-96.8047294,32.7831992],[-96.8056692,32.7824213]],[[-96.8051317,32.7825914],[-96.8051441,32.7826047],[-96.8051287,32.7826199],[-96.805095,32.7826191],[-96.8050794,32.7826031],[-96.8050905,32.7825953],[-96.8050349,32.7825475],[-96.8050237,32.7825573],[-96.8050065,32.782543],[-96.8050075,32.7825134],[-96.8050264,32.7825006],[-96.8050416,32.7825135],[-96.8052144,32.7823722],[-96.8051972,32.7823585],[-96.8052369,32.7823261],[-96.8052658,32.7823268],[-96.805285,32.7823432],[-96.8052644,32.7823578],[-96.8053172,32.7824049],[-96.80533,32.7823953],[-96.8053474,32.7824117],[-96.8053463,32.7824379],[-96.8053297,32.7824515],[-96.8053141,32.7824372],[-96.8051317,32.7825914]],[[-96.8049306,32.7827833],[-96.8049179,32.7827724],[-96.8047591,32.782905],[-96.8047712,32.7829154],[-96.8047539,32.7829298],[-96.8047211,32.7829313],[-96.8047049,32.7829175],[-96.804717,32.7829074],[-96.8046435,32.7828447],[-96.8048134,32.7827028],[-96.8047985,32.7826901],[-96.8048289,32.7826648],[-96.8048621,32.7826665],[-96.8048771,32.7826793],[-96.8048655,32.7826889],[-96.804918,32.7827338],[-96.8049267,32.7827265],[-96.8049474,32.7827442],[-96.8049456,32.7827707],[-96.8049306,32.7827833]]]}},{"type":"Feature","properties":{"overture_id":"32db2119-c945-4028-a451-39d36d1a6566","primary_source":"OpenStreetMap","render_height_m":11.7,"height_source":"overture:height"},"geometry":{"type":"Polygon","coordinates":[[[-96.8054515,32.7827472],[-96.8053838,32.7827956],[-96.8053943,32.7828061],[-96.8054103,32.7828807],[-96.8054355,32.782912],[-96.8054202,32.7829229],[-96.8056269,32.7831144],[-96.8057017,32.7830572],[-96.8056927,32.7830282],[-96.8055991,32.7828985],[-96.8054515,32.7827472]]]}},{"type":"Feature","properties":{"overture_id":"c5f6d7d1-ef3e-4bca-bc2e-a5f334434134","primary_source":"OpenStreetMap","render_height_m":19.91,"height_source":"overture:height"},"geometry":{"type":"Polygon","coordinates":[[[-96.8049155,32.7813476],[-96.8051396,32.7816303],[-96.8051582,32.7816207],[-96.8051966,32.7816759],[-96.8052365,32.7816546],[-96.805292,32.7817439],[-96.805714,32.7815437],[-96.8058617,32.7815101],[-96.805712,32.7809719],[-96.805165,32.7810841],[-96.8051714,32.781106],[-96.8051494,32.7811172],[-96.8051361,32.7810992],[-96.8049667,32.7811976],[-96.8049907,32.7812273],[-96.8048909,32.7812811],[-96.8049376,32.7813341],[-96.8049155,32.7813476]],[[-96.8052006,32.7812882],[-96.8054222,32.7812418],[-96.8054599,32.781263],[-96.8055024,32.7813924],[-96.8054676,32.7814288],[-96.8053316,32.7814891],[-96.8052,32.7813204],[-96.8052006,32.7812882]]]}},{"type":"Feature","properties":{"overture_id":"6aba2869-87c9-4057-87b3-4d23bfcb6df1","primary_source":"OpenStreetMap","render_height_m":5.5,"height_source":"overture:height"},"geometry":{"type":"Polygon","coordinates":[[[-96.8051135,32.7818975],[-96.8050378,32.781838],[-96.8048592,32.7819893],[-96.8049324,32.7820509],[-96.8051135,32.7818975]]]}},{"type":"Feature","properties":{"overture_id":"0a53c051-aacb-4b12-b5ca-3d71eac22016","primary_source":"OpenStreetMap","render_height_m":5.53,"height_source":"overture:height"},"geometry":{"type":"Polygon","coordinates":[[[-96.8046976,32.7815247],[-96.8045206,32.7816581],[-96.8046327,32.7817633],[-96.8046646,32.7817393],[-96.8047275,32.7817983],[-96.8047739,32.7818418],[-96.804919,32.7817325],[-96.8046976,32.7815247]]]}},{"type":"Feature","properties":{"overture_id":"c8b7f510-b168-4a33-b39a-5964c1ef6b54","primary_source":"OpenStreetMap","render_height_m":40.54,"height_source":"overture:height"},"geometry":{"type":"Polygon","coordinates":[[[-96.8046367,32.7801596],[-96.8049661,32.7800859],[-96.8048126,32.7796007],[-96.8044833,32.7796743],[-96.8046367,32.7801596]]]}},{"type":"Feature","properties":{"overture_id":"9a8e9c0e-b966-4a2b-a205-936a2b3b9fee","primary_source":"OpenStreetMap","render_height_m":53.34,"height_source":"overture:height"},"geometry":{"type":"Polygon","coordinates":[[[-96.8043676,32.7793025],[-96.8043963,32.7793986],[-96.8045168,32.7793732],[-96.8045194,32.7793819],[-96.8045567,32.7793741],[-96.8049494,32.7792915],[-96.804937,32.7792497],[-96.8049342,32.7792406],[-96.8049957,32.7792276],[-96.804982,32.7791802],[-96.8049193,32.7789765],[-96.8048823,32.7788464],[-96.8048716,32.7788486],[-96.8048584,32.7788045],[-96.8048053,32.7788157],[-96.8048029,32.7788079],[-96.8044051,32.7788919],[-96.8043081,32.7789126],[-96.8043234,32.778964],[-96.8042611,32.7789772],[-96.8042876,32.7790659],[-96.8043042,32.7791232],[-96.8043589,32.7793043],[-96.8043676,32.7793025]]]}},{"type":"Feature","properties":{"overture_id":"481991c8-aeda-429b-b72b-ff64c273aa34","primary_source":"OpenStreetMap","render_height_m":32.0,"height_source":"overture:height"},"geometry":{"type":"Polygon","coordinates":[[[-96.8055272,32.7786497],[-96.8055266,32.7786498],[-96.8055977,32.7788919],[-96.8058353,32.7788426],[-96.8057642,32.7786005],[-96.8055272,32.7786497]]]}},{"type":"Feature","properties":{"overture_id":"042113ae-5ebd-4c35-8a69-f74d67ac550c","primary_source":"OpenStreetMap","render_height_m":15.24,"height_source":"overture:height"},"geometry":{"type":"Polygon","coordinates":[[[-96.8056774,32.7791634],[-96.8055977,32.7788919],[-96.8055066,32.7789108],[-96.8055863,32.7791823],[-96.8056774,32.7791634]]]}},{"type":"Feature","properties":{"overture_id":"83b1a7e1-4229-4e77-ba93-ad68e729130a","primary_source":"OpenStreetMap","render_height_m":18.29,"height_source":"overture:height"},"geometry":{"type":"Polygon","coordinates":[[[-96.8058835,32.7801477],[-96.8055702,32.7802128],[-96.8056512,32.7804831],[-96.8059629,32.780417],[-96.8058835,32.7801477]]]}},{"type":"Feature","properties":{"overture_id":"de2b8afb-8a16-4704-b7a3-2e57f90db160","primary_source":"OpenStreetMap","render_height_m":22.2,"height_source":"overture:height"},"geometry":{"type":"Polygon","coordinates":[[[-96.8051219,32.7808826],[-96.8054777,32.7808093],[-96.8053976,32.7805419],[-96.805044,32.7806167],[-96.8051219,32.7808826]]]}},{"type":"Feature","properties":{"overture_id":"3824e543-84bf-4581-b987-c2bdab159478","primary_source":"OpenStreetMap","render_height_m":5.81,"height_source":"overture:height"},"geometry":{"type":"Polygon","coordinates":[[[-96.8041491,32.7786248],[-96.8041738,32.7787144],[-96.8043517,32.7786798],[-96.8043501,32.7786739],[-96.8046475,32.778616],[-96.8046497,32.7786236],[-96.8048158,32.7785912],[-96.8046654,32.7780462],[-96.8040155,32.7781729],[-96.8041407,32.7786265],[-96.8041491,32.7786248]]]}},{"type":"Feature","properties":{"overture_id":"8a221c54-ae91-4a21-a5c8-0258da2a149d","primary_source":"OpenStreetMap","render_height_m":11.77,"height_source":"overture:height"},"geometry":{"type":"Polygon","coordinates":[[[-96.8045056,32.7775732],[-96.8042652,32.7776241],[-96.8043443,32.7778906],[-96.8045847,32.7778396],[-96.8045056,32.7775732]]]}},{"type":"Feature","properties":{"overture_id":"dfd8afa2-6143-4e91-82d3-1ec24dac2485","primary_source":"OpenStreetMap","render_height_m":8.0,"height_source":"heuristic (Overture height absent)"},"geometry":{"type":"Polygon","coordinates":[[[-96.805043,32.7777275],[-96.80538,32.7776538],[-96.8054065,32.7776465],[-96.8054182,32.7776302],[-96.8054158,32.7776076],[-96.8052784,32.7771514],[-96.8052688,32.777132],[-96.8052458,32.7771244],[-96.8052208,32.7771252],[-96.8048247,32.7772054],[-96.8046847,32.7772361],[-96.8046613,32.7772455],[-96.804647,32.7772655],[-96.8046501,32.7772848],[-96.8047305,32.7775553],[-96.8047857,32.7777411],[-96.8047979,32.7777618],[-96.8048206,32.7777707],[-96.8048442,32.7777671],[-96.805043,32.7777275]]]}},{"type":"Feature","properties":{"overture_id":"905884f9-40b4-4a30-8af2-ffdcbfd59d0c","primary_source":"OpenStreetMap","render_height_m":5.21,"height_source":"overture:height"},"geometry":{"type":"Polygon","coordinates":[[[-96.8030411,32.7784953],[-96.8030357,32.7784965],[-96.802895,32.7785254],[-96.8029507,32.7787164],[-96.8029379,32.7787191],[-96.8029133,32.7787242],[-96.8029516,32.7788554],[-96.8029762,32.7788503],[-96.8031624,32.7788115],[-96.8030411,32.7784953]]]}},{"type":"Feature","properties":{"overture_id":"d566d538-51cc-4990-91dd-81c03e676c9c","primary_source":"OpenStreetMap","render_height_m":12.65,"height_source":"overture:height"},"geometry":{"type":"Polygon","coordinates":[[[-96.802904,32.7776255],[-96.8030713,32.7781662],[-96.8036304,32.7780428],[-96.8036345,32.7780558],[-96.8037159,32.7780378],[-96.8035469,32.7774913],[-96.8033328,32.7775385],[-96.8033164,32.7774854],[-96.8031603,32.7775198],[-96.8031745,32.7775658],[-96.802904,32.7776255]]]}},{"type":"Feature","properties":{"overture_id":"acb06ccf-ff78-4fe8-adda-f6ae9316a559","primary_source":"OpenStreetMap","render_height_m":7.99,"height_source":"overture:height"},"geometry":{"type":"Polygon","coordinates":[[[-96.8015693,32.7770966],[-96.8016015,32.7771013],[-96.8015005,32.7775946],[-96.8019085,32.7776536],[-96.8019974,32.7772194],[-96.8020482,32.7772268],[-96.8020567,32.777185],[-96.802005,32.7771775],[-96.8020234,32.7770873],[-96.8017151,32.7770428],[-96.801619,32.7770289],[-96.8016148,32.7770496],[-96.8015799,32.7770445],[-96.8015693,32.7770966]]]}},{"type":"Feature","properties":{"overture_id":"b340de5b-9524-4f59-85e4-56bf5d962693","primary_source":"OpenStreetMap","render_height_m":16.86,"height_source":"overture:height"},"geometry":{"type":"Polygon","coordinates":[[[-96.8013323,32.776976],[-96.8012165,32.7769926],[-96.8008586,32.7770441],[-96.8008568,32.7772754],[-96.8013363,32.7774464],[-96.8013323,32.776976]]]}},{"type":"Feature","properties":{"overture_id":"c3eb71c9-8541-4377-9b08-eb67bc5a7895","primary_source":"OpenStreetMap","render_height_m":26.06,"height_source":"overture:height"},"geometry":{"type":"Polygon","coordinates":[[[-96.8001084,32.7775928],[-96.7999801,32.7772197],[-96.7988469,32.7774953],[-96.7989752,32.7778684],[-96.8001084,32.7775928]]]}},{"type":"Feature","properties":{"overture_id":"aab7325b-8889-4c06-8629-151b74dcfd33","primary_source":"OpenStreetMap","render_height_m":47.4,"height_source":"overture:height"},"geometry":{"type":"Polygon","coordinates":[[[-96.7997442,32.7778972],[-96.7998457,32.778221],[-96.8002571,32.7781299],[-96.8002382,32.7780698],[-96.8002825,32.77806],[-96.800272,32.7780265],[-96.8002209,32.7780378],[-96.8001473,32.7778031],[-96.8001681,32.7777985],[-96.8001211,32.7776486],[-96.7997021,32.7777414],[-96.7997506,32.7778958],[-96.7997442,32.7778972]]]}},{"type":"Feature","properties":{"overture_id":"8c64d822-717e-4d58-a765-68e03a91673b","primary_source":"OpenStreetMap","render_height_m":76.1,"height_source":"overture:height"},"geometry":{"type":"Polygon","coordinates":[[[-96.7995783,32.778444],[-96.799254,32.7785192],[-96.7993353,32.7787714],[-96.7996597,32.7786962],[-96.7995783,32.778444]]]}},{"type":"Feature","properties":{"overture_id":"2b3dea00-b873-4aba-94b3-f96f67df6380","primary_source":"OpenStreetMap","render_height_m":43.1,"height_source":"overture:height"},"geometry":{"type":"Polygon","coordinates":[[[-96.7996767,32.7787651],[-96.7997272,32.7789261],[-96.800246,32.7788109],[-96.8002431,32.7788015],[-96.8003033,32.7787881],[-96.8003069,32.7787996],[-96.8003684,32.7787859],[-96.8003356,32.7786817],[-96.8003442,32.7786798],[-96.8002221,32.7782904],[-96.8001491,32.7783066],[-96.8001531,32.7783196],[-96.8001315,32.7783244],[-96.8001069,32.7783299],[-96.8001032,32.7783181],[-96.7996968,32.7784075],[-96.7997009,32.7784208],[-96.7996878,32.7784237],[-96.7996545,32.778431],[-96.7996506,32.7784186],[-96.7996263,32.7784239],[-96.7995766,32.7784349],[-96.7996044,32.7785246],[-96.7996145,32.7785224],[-96.7996382,32.7785984],[-96.799629,32.7786004],[-96.7996314,32.7786083],[-96.7996394,32.7786065],[-96.7996882,32.7787625],[-96.7996767,32.7787651]]]}},{"type":"Feature","properties":{"overture_id":"449e982c-254e-4b4e-98ab-a8d17582f957","primary_source":"OpenStreetMap","render_height_m":28.72,"height_source":"overture:height"},"geometry":{"type":"Polygon","coordinates":[[[-96.8005626,32.7786918],[-96.8005694,32.778715],[-96.8005567,32.7787256],[-96.8005663,32.7787579],[-96.8015444,32.7785512],[-96.8013879,32.7780277],[-96.8005179,32.7782115],[-96.8005359,32.7782716],[-96.8005198,32.778275],[-96.8005225,32.7785189],[-96.8005062,32.7785223],[-96.8005105,32.7785371],[-96.8004961,32.7785401],[-96.8005043,32.7785682],[-96.8005201,32.7785649],[-96.80053,32.7785989],[-96.8005166,32.7786017],[-96.800525,32.7786306],[-96.8005392,32.7786277],[-96.8005494,32.7786627],[-96.8005379,32.7786651],[-96.8005466,32.7786951],[-96.8005626,32.7786918]]]}},{"type":"Feature","properties":{"overture_id":"7eb4027c-d0c3-422f-ab91-0908b0edf480","primary_source":"OpenStreetMap","render_height_m":80.4,"height_source":"overture:height"},"geometry":{"type":"Polygon","coordinates":[[[-96.8012657,32.7793094],[-96.8017039,32.7792099],[-96.8015555,32.7787125],[-96.8014654,32.7787315],[-96.8011199,32.7788021],[-96.8012657,32.7793094]]]}},{"type":"Feature","properties":{"overture_id":"c235428e-bcd6-47c3-90c7-7d48a000715f","primary_source":"OpenStreetMap","render_height_m":87.2,"height_source":"overture:height"},"geometry":{"type":"Polygon","coordinates":[[[-96.8009638,32.7793766],[-96.8010243,32.7793627],[-96.8008699,32.7788493],[-96.8006246,32.7789006],[-96.8007843,32.7794141],[-96.8009638,32.7793766]]]}},{"type":"Feature","properties":{"overture_id":"33616152-0be0-4166-8bef-087d87fec2b7","primary_source":"OpenStreetMap","render_height_m":8.0,"height_source":"heuristic (Overture height absent)"},"geometry":{"type":"Polygon","coordinates":[[[-96.8009084,32.7788422],[-96.8010637,32.7793509],[-96.8011547,32.7793321],[-96.8012188,32.7793189],[-96.8010692,32.77881],[-96.8009084,32.7788422]]]}},{"type":"Feature","properties":{"overture_id":"035b9e70-80a2-42db-87f8-8d2d419e5b33","primary_source":"OpenStreetMap","render_height_m":19.91,"height_source":"overture:height"},"geometry":{"type":"Polygon","coordinates":[[[-96.7997188,32.779628],[-96.7997251,32.7796451],[-96.7998232,32.7796234],[-96.7998172,32.7795997],[-96.7998362,32.7795958],[-96.7998609,32.7795908],[-96.7998672,32.779614],[-96.8004541,32.7794879],[-96.8004556,32.7794929],[-96.800549,32.7794736],[-96.8005337,32.7794209],[-96.8005471,32.7794181],[-96.8005429,32.779404],[-96.8005667,32.779399],[-96.8004676,32.7790595],[-96.8004425,32.7790647],[-96.8004292,32.7790197],[-96.8003353,32.7790395],[-96.8003462,32.7790764],[-96.8003334,32.7790836],[-96.8003141,32.7790221],[-96.8002727,32.7790314],[-96.8002518,32.7789579],[-96.7997894,32.7790574],[-96.7998157,32.7791418],[-96.7997352,32.7791587],[-96.7997401,32.7791739],[-96.7997188,32.7791783],[-96.7996994,32.7791824],[-96.7996943,32.779167],[-96.7995946,32.7791863],[-96.7996016,32.7792112],[-96.7995415,32.7792228],[-96.7995852,32.7793712],[-96.7996645,32.7796406],[-96.7997188,32.779628]]]}},{"type":"Feature","properties":{"overture_id":"7f6c7a1b-5f4b-457f-aa28-6ff181843bc3","primary_source":"OpenStreetMap","render_height_m":28.0,"height_source":"overture:height"},"geometry":{"type":"Polygon","coordinates":[[[-96.8006423,32.779664],[-96.8003583,32.7797265],[-96.8004368,32.7799842],[-96.8007214,32.779924],[-96.8006423,32.779664]]]}},{"type":"Feature","properties":{"overture_id":"1c3c82c2-e080-4f40-be27-203a39b64c85","primary_source":"OpenStreetMap","render_height_m":52.4,"height_source":"overture:height"},"geometry":{"type":"Polygon","coordinates":[[[-96.8002566,32.7803186],[-96.800523,32.780263],[-96.8004368,32.7799842],[-96.8001733,32.780041],[-96.8002566,32.7803186]]]}},{"type":"Feature","properties":{"overture_id":"4b1ed6cf-2fee-4268-b007-bb870ab9ddda","primary_source":"OpenStreetMap","render_height_m":8.0,"height_source":"heuristic (Overture height absent)"},"geometry":{"type":"Polygon","coordinates":[[[-96.800058,32.780065],[-96.8001404,32.7803428],[-96.8002566,32.7803186],[-96.8001733,32.780041],[-96.800058,32.780065]]]}},{"type":"Feature","properties":{"overture_id":"6f01582f-f788-4207-a034-41fd8de077b3","primary_source":"OpenStreetMap","render_height_m":8.0,"height_source":"heuristic (Overture height absent)"},"geometry":{"type":"Polygon","coordinates":[[[-96.7999767,32.7800825],[-96.8000591,32.7803591],[-96.8001404,32.7803428],[-96.800058,32.780065],[-96.7999767,32.7800825]]]}},{"type":"Feature","properties":{"overture_id":"8f0c24b1-9245-41a3-b386-0a2ac5dee23e","primary_source":"OpenStreetMap","render_height_m":70.0,"height_source":"overture:height"},"geometry":{"type":"Polygon","coordinates":[[[-96.7998249,32.7798414],[-96.799863,32.7799666],[-96.7997407,32.7799923],[-96.7997107,32.7798905],[-96.7994208,32.7799509],[-96.7994808,32.7801541],[-96.7995603,32.7801375],[-96.7995692,32.7801677],[-96.7998789,32.7801041],[-96.7999767,32.7800825],[-96.800058,32.780065],[-96.8001733,32.780041],[-96.8004368,32.7799842],[-96.8003583,32.7797265],[-96.7998249,32.7798414]]]}},{"type":"Feature","properties":{"overture_id":"880a0771-faae-4aa7-897a-3f637aa1134e","primary_source":"OpenStreetMap","render_height_m":95.1,"height_source":"overture:height"},"geometry":{"type":"Polygon","coordinates":[[[-96.7999591,32.7803798],[-96.7998789,32.7801041],[-96.7995692,32.7801677],[-96.7994831,32.7801851],[-96.7995619,32.7804603],[-96.7999591,32.7803798]]]}},{"type":"Feature","properties":{"overture_id":"5e7bdeda-4733-48ff-a578-61490c43790b","primary_source":"OpenStreetMap","render_height_m":8.0,"height_source":"heuristic (Overture height absent)"},"geometry":{"type":"Polygon","coordinates":[[[-96.7999591,32.7803798],[-96.8000591,32.7803591],[-96.7999767,32.7800825],[-96.7998789,32.7801041],[-96.7999591,32.7803798]]]}},{"type":"Feature","properties":{"overture_id":"c0a29765-4e48-474e-b530-a4074e48e234","primary_source":"OpenStreetMap","render_height_m":67.0,"height_source":"overture:height"},"geometry":{"type":"Polygon","coordinates":[[[-96.7996336,32.7806614],[-96.7997735,32.7811412],[-96.7999366,32.7811076],[-96.7997966,32.7806278],[-96.7996336,32.7806614]]]}},{"type":"Feature","properties":{"overture_id":"b206ba4a-304e-4117-aa98-e6b7edf3a504","primary_source":"OpenStreetMap","render_height_m":24.83,"height_source":"overture:height"},"geometry":{"type":"Polygon","coordinates":[[[-96.8002276,32.780539],[-96.7997966,32.7806278],[-96.7999366,32.7811076],[-96.7999571,32.781178],[-96.8003358,32.7810999],[-96.8003881,32.7810891],[-96.8002276,32.780539]]]}},{"type":"Feature","properties":{"overture_id":"374f4917-a3e3-4da3-a50c-a0df9e15041b","primary_source":"OpenStreetMap","render_height_m":98.5,"height_source":"overture:height"},"geometry":{"type":"Polygon","coordinates":[[[-96.8003027,32.7805229],[-96.8003866,32.7808091],[-96.8004859,32.7807889],[-96.8004684,32.7807259],[-96.8007263,32.7806724],[-96.8007454,32.7807336],[-96.8008529,32.7807107],[-96.8007693,32.7804261],[-96.8003027,32.7805229]]]}},{"type":"Feature","properties":{"overture_id":"db0937f4-2cce-459d-be37-9ac876461aa4","primary_source":"OpenStreetMap","render_height_m":38.1,"height_source":"overture:height"},"geometry":{"type":"Polygon","coordinates":[[[-96.8003866,32.7808091],[-96.8004599,32.781069],[-96.8006749,32.7810245],[-96.8010713,32.7809411],[-96.8010072,32.780726],[-96.8009928,32.7806809],[-96.8008529,32.7807107],[-96.8007454,32.7807336],[-96.8004859,32.7807889],[-96.8003866,32.7808091]]]}},{"type":"Feature","properties":{"overture_id":"e36072f7-cd14-4fd7-a194-ecbd68ffa1ce","primary_source":"OpenStreetMap","render_height_m":19.3,"height_source":"overture:height"},"geometry":{"type":"Polygon","coordinates":[[[-96.8009091,32.7803971],[-96.8007693,32.7804261],[-96.8008529,32.7807107],[-96.8009928,32.7806809],[-96.8009091,32.7803971]]]}},{"type":"Feature","properties":{"overture_id":"6e3075de-dc58-4e45-93da-59f0b0b25ed7","primary_source":"OpenStreetMap","render_height_m":28.2,"height_source":"overture:height"},"geometry":{"type":"Polygon","coordinates":[[[-96.8007214,32.779924],[-96.8004368,32.7799842],[-96.800523,32.780263],[-96.8008063,32.7802028],[-96.8007214,32.779924]]]}},{"type":"Feature","properties":{"overture_id":"3f42cad7-bd9e-4f8b-a716-5532cf413937","primary_source":"OpenStreetMap","render_height_m":26.32,"height_source":"overture:height"},"geometry":{"type":"Polygon","coordinates":[[[-96.8008627,32.7796289],[-96.8010216,32.7801582],[-96.8012894,32.7801014],[-96.8013807,32.780082],[-96.8016375,32.7800267],[-96.8015566,32.7797528],[-96.8014814,32.7794981],[-96.8012219,32.7795527],[-96.8008627,32.7796289]]]}},{"type":"Feature","properties":{"overture_id":"881dc6d4-38e9-4ea9-96ac-fecffb27bdb9","primary_source":"OpenStreetMap","render_height_m":16.61,"height_source":"overture:height"},"geometry":{"type":"Polygon","coordinates":[[[-96.8012552,32.7803415],[-96.8010636,32.7803848],[-96.8011399,32.7806234],[-96.8011519,32.7806207],[-96.8011629,32.780655],[-96.8013424,32.7806144],[-96.8012552,32.7803415]]]}},{"type":"Feature","properties":{"overture_id":"92e06321-101b-4f5c-99f6-898b58382926","primary_source":"OpenStreetMap","render_height_m":136.0,"height_source":"overture:height"},"geometry":{"type":"Polygon","coordinates":[[[-96.8014698,32.7807109],[-96.8014792,32.7807158],[-96.802316,32.7805402],[-96.8023138,32.7805329],[-96.8023213,32.7805313],[-96.8022185,32.7801815],[-96.8022075,32.7801776],[-96.801382,32.7803508],[-96.8013847,32.7803597],[-96.8013757,32.7803616],[-96.8014698,32.7807109]]]}},{"type":"Feature","properties":{"overture_id":"c77b14ff-0917-4b87-8f39-d0d1ed684ed9","primary_source":"OpenStreetMap","render_height_m":8.0,"height_source":"heuristic (Overture height absent)"},"geometry":{"type":"Polygon","coordinates":[[[-96.8025162,32.7804048],[-96.8027401,32.7803582],[-96.8026848,32.7801702],[-96.8024608,32.7802168],[-96.8025162,32.7804048]]]}},{"type":"Feature","properties":{"overture_id":"ba39becd-18e6-49e5-9e60-3430b70fb4d6","primary_source":"OpenStreetMap","render_height_m":29.11,"height_source":"overture:height"},"geometry":{"type":"Polygon","coordinates":[[[-96.8016251,32.7786978],[-96.8015555,32.7787125],[-96.8017039,32.7792099],[-96.8025894,32.779023],[-96.802441,32.7785257],[-96.8024062,32.778533],[-96.8017001,32.778682],[-96.8016251,32.7786978]]]}},{"type":"Feature","properties":{"overture_id":"2eacdc0b-bd32-4854-a950-50c1fb6e2cd6","primary_source":"OpenStreetMap","render_height_m":280.72,"height_source":"overture:height"},"geometry":{"type":"Polygon","coordinates":[[[-96.8037174,32.7802667],[-96.8037273,32.7803015],[-96.8040426,32.7802386],[-96.8040328,32.7802039],[-96.8040746,32.7801956],[-96.8040646,32.7801606],[-96.8041065,32.7801523],[-96.8040966,32.7801174],[-96.8041383,32.7801092],[-96.8041287,32.7800743],[-96.8041701,32.7800659],[-96.8041603,32.7800312],[-96.804202,32.780023],[-96.8041264,32.7797548],[-96.8040846,32.7797631],[-96.8040748,32.7797283],[-96.8037595,32.7797911],[-96.8037693,32.7798259],[-96.8037275,32.7798342],[-96.8037374,32.7798692],[-96.8036956,32.7798775],[-96.8037055,32.7799124],[-96.8036639,32.7799207],[-96.8036736,32.7799555],[-96.803632,32.7799639],[-96.8036418,32.7799987],[-96.8036003,32.780007],[-96.8036758,32.780275],[-96.8037174,32.7802667]]]}},{"type":"Feature","properties":{"overture_id":"f005ec38-8216-49da-bdf8-6261e6b17702","primary_source":"OpenStreetMap","render_height_m":7.4,"height_source":"overture:height"},"geometry":{"type":"Polygon","coordinates":[[[-96.8033595,32.7802983],[-96.8033706,32.7803361],[-96.8034694,32.7803154],[-96.8034584,32.7802775],[-96.8035051,32.7802677],[-96.8034932,32.7802272],[-96.8035417,32.7802171],[-96.8035166,32.7801313],[-96.8034681,32.7801414],[-96.8034557,32.7800991],[-96.8034098,32.7801087],[-96.8033987,32.7800706],[-96.8032976,32.7800917],[-96.8033089,32.7801302],[-96.8032625,32.7801399],[-96.8032745,32.780181],[-96.8032291,32.7801905],[-96.8032551,32.7802793],[-96.8033013,32.7802697],[-96.8033126,32.7803082],[-96.8033595,32.7802983]]]}},{"type":"Feature","properties":{"overture_id":"e590007c-1db2-47e9-8611-90bed498cdc4","primary_source":"OpenStreetMap","render_height_m":81.7,"height_source":"overture:height"},"geometry":{"type":"Polygon","coordinates":[[[-96.8035577,32.7807038],[-96.8035394,32.7806393],[-96.8033329,32.780682],[-96.8034725,32.7811807],[-96.8036957,32.7811365],[-96.8036914,32.7811206],[-96.8036188,32.7808645],[-96.8037586,32.7808365],[-96.8037122,32.7806728],[-96.8035577,32.7807038]]]}},{"type":"Feature","properties":{"overture_id":"7b63adc4-472a-4794-9f45-a120a79dc836","primary_source":"OpenStreetMap","render_height_m":8.0,"height_source":"heuristic (Overture height absent)"},"geometry":{"type":"Polygon","coordinates":[[[-96.8038864,32.7805695],[-96.8040013,32.7809743],[-96.8040849,32.7809575],[-96.8040682,32.7808987],[-96.8041565,32.780881],[-96.8041461,32.7808446],[-96.8041954,32.7808347],[-96.8041075,32.7805252],[-96.8038864,32.7805695]]]}},{"type":"Feature","properties":{"overture_id":"542be604-eb03-4e62-b465-3b4ab78d771d","primary_source":"OpenStreetMap","render_height_m":30.4,"height_source":"overture:height"},"geometry":{"type":"Polygon","coordinates":[[[-96.8036188,32.7808645],[-96.8036914,32.7811206],[-96.8037815,32.7811025],[-96.8039061,32.7809933],[-96.8040013,32.7809743],[-96.8038864,32.7805695],[-96.8035394,32.7806393],[-96.8035577,32.7807038],[-96.8037122,32.7806728],[-96.8037586,32.7808365],[-96.8036188,32.7808645]]]}},{"type":"Feature","properties":{"overture_id":"ec6ef881-3bb8-4f7f-847f-846aa77fcdc1","primary_source":"OpenStreetMap","render_height_m":5.74,"height_source":"overture:height"},"geometry":{"type":"Polygon","coordinates":[[[-96.8039293,32.7815223],[-96.8038478,32.7815907],[-96.8039609,32.7816859],[-96.8040726,32.781592],[-96.8041498,32.7815272],[-96.8040367,32.781432],[-96.8039293,32.7815223]]]}},{"type":"Feature","properties":{"overture_id":"192b82d2-ddab-4a0c-83ba-56a12de8a12d","primary_source":"OpenStreetMap","render_height_m":24.7,"height_source":"overture:height"},"geometry":{"type":"Polygon","coordinates":[[[-96.8030074,32.780752],[-96.8028326,32.7807897],[-96.8029814,32.7812781],[-96.8031562,32.7812404],[-96.8030074,32.780752]]]}},{"type":"Feature","properties":{"overture_id":"5c4297ec-89e0-4611-ae2a-e2b71de07e8f","primary_source":"OpenStreetMap","render_height_m":40.0,"height_source":"overture:height"},"geometry":{"type":"Polygon","coordinates":[[[-96.8027511,32.781325],[-96.8029814,32.7812781],[-96.8028326,32.7807897],[-96.8026035,32.7808392],[-96.8027511,32.781325]]]}},{"type":"Feature","properties":{"overture_id":"71d1e10f-7267-483a-a9b9-23ab7d482a0b","primary_source":"OpenStreetMap","render_height_m":8.0,"height_source":"heuristic (Overture height absent)"},"geometry":{"type":"Polygon","coordinates":[[[-96.80252,32.7811722],[-96.8024319,32.7809062],[-96.8021114,32.7809726],[-96.8022814,32.7810557],[-96.8023521,32.7810902],[-96.80252,32.7811722]]]}},{"type":"Feature","properties":{"overture_id":"628f04a0-8fb1-4098-81dd-2b41821c5e59","primary_source":"OpenStreetMap","render_height_m":270.0,"height_source":"overture:height"},"geometry":{"type":"Polygon","coordinates":[[[-96.8020528,32.7809842],[-96.8014666,32.7811106],[-96.8016172,32.7816092],[-96.8022034,32.7814829],[-96.8021664,32.7813605],[-96.8021585,32.7813344],[-96.8021212,32.7812105],[-96.8020528,32.7809842]]]}},{"type":"Feature","properties":{"overture_id":"217400b0-9e3b-4ae7-bb0d-09bd77eed46d","primary_source":"OpenStreetMap","render_height_m":8.0,"height_source":"heuristic (Overture height absent)"},"geometry":{"type":"Polygon","coordinates":[[[-96.8030368,32.7826826],[-96.8031985,32.7825592],[-96.8027316,32.7821268],[-96.80257,32.7822501],[-96.8030368,32.7826826]]]}},{"type":"Feature","properties":{"overture_id":"614844ff-31ae-4a53-b0d3-c81ff3e0e2ef","primary_source":"OpenStreetMap","render_height_m":30.0,"height_source":"overture:height"},"geometry":{"type":"Polygon","coordinates":[[[-96.8017475,32.7818239],[-96.8016598,32.781844],[-96.8018918,32.7825599],[-96.8022311,32.7823201],[-96.8020481,32.7817548],[-96.8020034,32.7817651],[-96.8017475,32.7818239]]]}},{"type":"Feature","properties":{"overture_id":"14c8213d-d6ed-4400-af8b-583eb06adfd1","primary_source":"OpenStreetMap","render_height_m":8.92,"height_source":"overture:height"},"geometry":{"type":"Polygon","coordinates":[[[-96.8030721,32.7819065],[-96.8027316,32.7821268],[-96.8031985,32.7825592],[-96.8035232,32.7822863],[-96.8030721,32.7819065]]]}},{"type":"Feature","properties":{"overture_id":"b73e8064-4a85-4cb3-83ed-42776f2a0bf4","primary_source":"OpenStreetMap","render_height_m":4.82,"height_source":"overture:height"},"geometry":{"type":"Polygon","coordinates":[[[-96.8038791,32.782199],[-96.8039555,32.7823299],[-96.8041327,32.7822568],[-96.8040563,32.7821258],[-96.8038791,32.782199]]]}},{"type":"Feature","properties":{"overture_id":"186d4479-17b9-4928-8073-bcdb1b3d0c31","primary_source":"OpenStreetMap","render_height_m":3.2,"height_source":"overture:height"},"geometry":{"type":"Polygon","coordinates":[[[-96.8037192,32.7827097],[-96.8034948,32.782511],[-96.8033752,32.7826065],[-96.8035996,32.7828053],[-96.8037192,32.7827097]]]}},{"type":"Feature","properties":{"overture_id":"20e4a784-9a1b-4cdd-8366-497931aa1f99","primary_source":"OpenStreetMap","render_height_m":27.27,"height_source":"overture:height"},"geometry":{"type":"Polygon","coordinates":[[[-96.8036825,32.783093],[-96.803271,32.7827387],[-96.803211,32.7827885],[-96.8027935,32.7831334],[-96.8026624,32.7832431],[-96.8030739,32.7835974],[-96.8036223,32.7831429],[-96.8036825,32.783093]]]}},{"type":"Feature","properties":{"overture_id":"579dda77-65bb-4e6a-832f-d9d48353406a","primary_source":"OpenStreetMap","render_height_m":8.0,"height_source":"overture:height"},"geometry":{"type":"Polygon","coordinates":[[[-96.8037175,32.7838973],[-96.8037577,32.7839344],[-96.8037918,32.7839082],[-96.8037746,32.7838923],[-96.8037989,32.7838736],[-96.8037727,32.7838494],[-96.8038176,32.7838147],[-96.8037768,32.783777],[-96.8038168,32.7837461],[-96.8037739,32.7837065],[-96.8038143,32.7836753],[-96.8037738,32.7836379],[-96.8038192,32.7836028],[-96.8037793,32.7835658],[-96.8038186,32.7835355],[-96.8037665,32.7834873],[-96.80381,32.7834537],[-96.8037574,32.783405],[-96.8037102,32.7834414],[-96.8036831,32.7834164],[-96.8036399,32.7834497],[-96.803662,32.7834701],[-96.8035741,32.783538],[-96.8035912,32.7835538],[-96.803451,32.7836619],[-96.8034735,32.7836827],[-96.8034426,32.7837065],[-96.8035913,32.783839],[-96.8035835,32.7838454],[-96.8035995,32.7838597],[-96.8036073,32.7838533],[-96.803688,32.7839201],[-96.8037175,32.7838973]]]}},{"type":"Feature","properties":{"overture_id":"29756572-ba66-475e-9c38-1f50edb19f17","primary_source":"OpenStreetMap","render_height_m":26.7,"height_source":"overture:height"},"geometry":{"type":"Polygon","coordinates":[[[-96.8010809,32.7838066],[-96.8010985,32.7838696],[-96.8012138,32.7837689],[-96.8008663,32.783422],[-96.8005412,32.7836594],[-96.8006244,32.7837438],[-96.8005781,32.7837792],[-96.8006453,32.7838451],[-96.800693,32.7838097],[-96.8007512,32.7838703],[-96.8010809,32.7838066]]]}},{"type":"Feature","properties":{"overture_id":"0b817013-45ba-4709-aa31-5b9df33ce576","primary_source":"OpenStreetMap","render_height_m":19.1,"height_source":"overture:height"},"geometry":{"type":"Polygon","coordinates":[[[-96.8000613,32.782937],[-96.7997736,32.7831735],[-96.7998737,32.7832595],[-96.799951,32.7833263],[-96.800224,32.7832687],[-96.8001313,32.782958],[-96.8000613,32.782937]]]}},{"type":"Feature","properties":{"overture_id":"f9058dcb-c685-4799-9cfa-fd812ab39d95","primary_source":"OpenStreetMap","render_height_m":8.0,"height_source":"heuristic (Overture height absent)"},"geometry":{"type":"Polygon","coordinates":[[[-96.79909,32.7837553],[-96.7993385,32.7839719],[-96.7999345,32.7834719],[-96.7996955,32.7832571],[-96.7996624,32.7832843],[-96.7995707,32.7833598],[-96.7994455,32.7834628],[-96.79909,32.7837553]]]}},{"type":"Feature","properties":{"overture_id":"425512b1-b441-477f-802a-7e2767f469d7","primary_source":"OpenStreetMap","render_height_m":16.37,"height_source":"overture:height"},"geometry":{"type":"Polygon","coordinates":[[[-96.7995627,32.7828808],[-96.7996187,32.7829233],[-96.7996104,32.7829635],[-96.7996254,32.7830081],[-96.7996518,32.7830321],[-96.799693,32.7830499],[-96.7997384,32.7830491],[-96.7997571,32.7830422],[-96.8000798,32.7827647],[-96.7999137,32.7822002],[-96.7995702,32.7822788],[-96.799578,32.7823052],[-96.7994401,32.7824259],[-96.7994194,32.7824103],[-96.7993682,32.7824596],[-96.7993876,32.7824734],[-96.7993675,32.7824888],[-96.7993421,32.7824721],[-96.7991496,32.7826312],[-96.7994896,32.7829447],[-96.7995627,32.7828808]]]}},{"type":"Feature","properties":{"overture_id":"0bddb699-970e-417b-9ce7-7ed68f1bdc27","primary_source":"OpenStreetMap","render_height_m":22.16,"height_source":"overture:height"},"geometry":{"type":"Polygon","coordinates":[[[-96.8010977,32.7825932],[-96.8006019,32.7829367],[-96.8003941,32.7830824],[-96.8004037,32.7830924],[-96.8003903,32.7831017],[-96.8005574,32.7832738],[-96.80048,32.7833258],[-96.8006153,32.7834651],[-96.8006741,32.7834243],[-96.8006677,32.7834178],[-96.8013994,32.7829108],[-96.8013902,32.7829013],[-96.8014039,32.7828918],[-96.8011141,32.7825934],[-96.8011044,32.7826001],[-96.8010977,32.7825932]]]}},{"type":"Feature","properties":{"overture_id":"027473bd-ec00-42f2-8267-8877f2092930","primary_source":"OpenStreetMap","render_height_m":30.9,"height_source":"overture:height"},"geometry":{"type":"Polygon","coordinates":[[[-96.8005391,32.7826303],[-96.8005931,32.7828157],[-96.8006261,32.7828106],[-96.8013452,32.7822818],[-96.8013223,32.7822033],[-96.8014788,32.7821707],[-96.8013916,32.7818895],[-96.8001042,32.7821571],[-96.8002557,32.782677],[-96.8002702,32.782674],[-96.8002736,32.7826855],[-96.8005391,32.7826303]]]}},{"type":"Feature","properties":{"overture_id":"0f6f6022-3d20-453d-acaa-29732ce8060e","primary_source":"OpenStreetMap","render_height_m":189.6,"height_source":"overture:height"},"geometry":{"type":"Polygon","coordinates":[[[-96.8010927,32.7811539],[-96.799907,32.7814037],[-96.8000656,32.7819408],[-96.8012513,32.7816909],[-96.8010927,32.7811539]]]}},{"type":"Feature","properties":{"overture_id":"0239c20d-ebcf-49cb-85c6-f7be5f9f91e3","primary_source":"OpenStreetMap","render_height_m":21.0,"height_source":"overture:height"},"geometry":{"type":"Polygon","coordinates":[[[-96.7998558,32.7819935],[-96.7997744,32.7817257],[-96.7994698,32.7817911],[-96.7995511,32.7820589],[-96.7995958,32.7820493],[-96.7998558,32.7819935]]]}},{"type":"Feature","properties":{"overture_id":"928373bd-5242-4fdf-ac2c-35c06d986686","primary_source":"OpenStreetMap","render_height_m":72.7,"height_source":"overture:height"},"geometry":{"type":"Polygon","coordinates":[[[-96.7994698,32.7817911],[-96.7997744,32.7817257],[-96.7996916,32.7814528],[-96.7993869,32.7815182],[-96.7994698,32.7817911]]]}},{"type":"Feature","properties":{"overture_id":"20170bf6-720e-40df-b7e6-6b75df1d6b36","primary_source":"OpenStreetMap","render_height_m":8.0,"height_source":"heuristic (Overture height absent)"},"geometry":{"type":"Polygon","coordinates":[[[-96.7999571,32.781178],[-96.7999366,32.7811076],[-96.7997735,32.7811412],[-96.799794,32.7812116],[-96.7999571,32.781178]]]}},{"type":"Feature","properties":{"overture_id":"ac2ce03f-55f7-4cf3-adc4-60bbda156657","primary_source":"OpenStreetMap","render_height_m":23.7,"height_source":"overture:height"},"geometry":{"type":"Polygon","coordinates":[[[-96.7996478,32.7812369],[-96.7995678,32.7809726],[-96.7990881,32.7810705],[-96.799175,32.7813351],[-96.7996478,32.7812369]]]}},{"type":"Feature","properties":{"overture_id":"fa27620a-8e5c-4b13-9f3a-55e2a67e9993","primary_source":"OpenStreetMap","render_height_m":18.8,"height_source":"overture:height"},"geometry":{"type":"Polygon","coordinates":[[[-96.7990881,32.7810705],[-96.7990053,32.7810873],[-96.799088,32.7813526],[-96.799175,32.7813351],[-96.7990881,32.7810705]]]}},{"type":"Feature","properties":{"overture_id":"d0d1b79b-dbd2-4d8a-8b9a-1f0f58ed9553","primary_source":"OpenStreetMap","render_height_m":27.4,"height_source":"overture:height"},"geometry":{"type":"Polygon","coordinates":[[[-96.7990053,32.7810873],[-96.7989236,32.7811048],[-96.7990036,32.7813709],[-96.799088,32.7813526],[-96.7990053,32.7810873]]]}},{"type":"Feature","properties":{"overture_id":"bbbf23d8-2bdc-41f5-9809-1291dc6a43a0","primary_source":"OpenStreetMap","render_height_m":29.2,"height_source":"overture:height"},"geometry":{"type":"Polygon","coordinates":[[[-96.7988391,32.7814068],[-96.7990036,32.7813709],[-96.7989236,32.7811048],[-96.7987562,32.7811409],[-96.7988391,32.7814068]]]}},{"type":"Feature","properties":{"overture_id":"3f4ccf5f-c9e2-46be-b04e-0790eac63b0b","primary_source":"OpenStreetMap","render_height_m":33.2,"height_source":"overture:height"},"geometry":{"type":"Polygon","coordinates":[[[-96.7990532,32.7815899],[-96.7992108,32.7821087],[-96.7992174,32.7821305],[-96.7992852,32.7821161],[-96.7993203,32.7821085],[-96.7995511,32.7820589],[-96.7994698,32.7817911],[-96.7993869,32.7815182],[-96.7990532,32.7815899]]]}},{"type":"Feature","properties":{"overture_id":"5a5a3a2e-2388-4bf2-b8ef-fe454289c317","primary_source":"OpenStreetMap","render_height_m":135.1,"height_source":"overture:height"},"geometry":{"type":"Polygon","coordinates":[[[-96.7988112,32.7821945],[-96.7992108,32.7821087],[-96.7990532,32.7815899],[-96.7985923,32.7816888],[-96.7987499,32.7822076],[-96.7988112,32.7821945]]]}},{"type":"Feature","properties":{"overture_id":"b8f9a89d-c284-4452-9064-2715eb09952a","primary_source":"Microsoft ML Buildings","render_height_m":10.33,"height_source":"overture:height"},"geometry":{"type":"Polygon","coordinates":[[[-96.7982746,32.7814334],[-96.7983414,32.7814055],[-96.7983168,32.7813639],[-96.7982501,32.7813917],[-96.7982746,32.7814334]]]}},{"type":"Feature","properties":{"overture_id":"172e5c52-f9dd-4a24-abd1-54f7b49259b2","primary_source":"OpenStreetMap","render_height_m":11.4,"height_source":"overture:height"},"geometry":{"type":"Polygon","coordinates":[[[-96.79861,32.7814572],[-96.7988391,32.7814068],[-96.7987562,32.7811409],[-96.798527,32.7811902],[-96.79861,32.7814572]]]}},{"type":"Feature","properties":{"overture_id":"2697bfbe-367c-47b4-a3d7-d86cc476eb5d","primary_source":"OpenStreetMap","render_height_m":20.9,"height_source":"overture:height"},"geometry":{"type":"Polygon","coordinates":[[[-96.7984449,32.7809206],[-96.798527,32.7811902],[-96.7987562,32.7811409],[-96.7989236,32.7811048],[-96.7990053,32.7810873],[-96.7990881,32.7810705],[-96.7990698,32.7810077],[-96.799051,32.7809488],[-96.7990067,32.780807],[-96.7984449,32.7809206]]]}},{"type":"Feature","properties":{"overture_id":"b102b730-9447-4e0e-8688-2233a439e021","primary_source":"OpenStreetMap","render_height_m":25.2,"height_source":"overture:height"},"geometry":{"type":"Polygon","coordinates":[[[-96.7980197,32.7810152],[-96.7976971,32.7810846],[-96.7977655,32.7813093],[-96.7978684,32.7812869],[-96.7978846,32.7813395],[-96.7980054,32.7813131],[-96.7979892,32.7812606],[-96.7980554,32.7812461],[-96.7980514,32.7812331],[-96.7980847,32.7812258],[-96.7980197,32.7810152]]]}},{"type":"Feature","properties":{"overture_id":"de1bdfda-cc1b-4e7d-89a3-31496358aff2","primary_source":"OpenStreetMap","render_height_m":21.66,"height_source":"overture:height"},"geometry":{"type":"Polygon","coordinates":[[[-96.7974186,32.7816948],[-96.7974368,32.7816974],[-96.7977034,32.7816453],[-96.7978586,32.7816149],[-96.797779,32.7813537],[-96.7977655,32.7813093],[-96.7976971,32.7810846],[-96.7976954,32.781079],[-96.7975494,32.7811105],[-96.7975451,32.7810966],[-96.7972693,32.7811559],[-96.7972573,32.7811635],[-96.7972487,32.7811738],[-96.7972442,32.7811858],[-96.7972857,32.7813221],[-96.7975122,32.7812733],[-96.7975255,32.7813169],[-96.7973007,32.7813653],[-96.7973493,32.7815249],[-96.79757,32.7814775],[-96.7975807,32.7815127],[-96.7973509,32.7815622],[-96.7973866,32.7816795],[-96.7974015,32.7816887],[-96.7974186,32.7816948]]]}},{"type":"Feature","properties":{"overture_id":"3b474e9e-19f0-47d2-9b5f-9f133c2824ee","primary_source":"OpenStreetMap","render_height_m":197.0,"height_source":"overture:height"},"geometry":{"type":"Polygon","coordinates":[[[-96.7978924,32.7822802],[-96.7979015,32.7823102],[-96.7981974,32.7822472],[-96.7984634,32.7821905],[-96.798454,32.7821594],[-96.798511,32.7821473],[-96.7985025,32.782119],[-96.7985574,32.7821073],[-96.7985493,32.7820804],[-96.798597,32.7820702],[-96.798523,32.7818246],[-96.7984764,32.7818345],[-96.7984686,32.7818088],[-96.798415,32.7818202],[-96.798406,32.7817904],[-96.7983481,32.7818028],[-96.7983381,32.7817695],[-96.7977818,32.781888],[-96.7977901,32.7819158],[-96.7977387,32.7819268],[-96.7977475,32.7819559],[-96.7976909,32.7819679],[-96.7977002,32.7819988],[-96.7976495,32.7820093],[-96.7977214,32.7822482],[-96.7977687,32.7822384],[-96.7977787,32.7822714],[-96.7978053,32.7822657],[-96.7978338,32.7822597],[-96.7978432,32.7822907],[-96.7978924,32.7822802]]]}},{"type":"Feature","properties":{"overture_id":"66f4b911-e66b-4b74-82de-2e1a6656ea03","primary_source":"OpenStreetMap","render_height_m":70.0,"height_source":"overture:height"},"geometry":{"type":"Polygon","coordinates":[[[-96.7975809,32.781908],[-96.7974473,32.7819372],[-96.797604,32.7824644],[-96.7977404,32.7824364],[-96.7975809,32.781908]]]}},{"type":"Feature","properties":{"overture_id":"a2f4f28f-28d1-4b76-bbd9-9d590684e355","primary_source":"OpenStreetMap","render_height_m":11.57,"height_source":"overture:height"},"geometry":{"type":"Polygon","coordinates":[[[-96.7982386,32.7828983],[-96.7982189,32.7829162],[-96.7982092,32.7829397],[-96.7982183,32.7829707],[-96.7982407,32.7829898],[-96.7982745,32.7829971],[-96.7983084,32.7829891],[-96.7983313,32.7829664],[-96.7983372,32.7829399],[-96.7983288,32.7829145],[-96.7983023,32.7828936],[-96.7982681,32.7828883],[-96.7982386,32.7828983]]]}},{"type":"Feature","properties":{"overture_id":"1b70744d-b077-4c82-a59f-cc3cf783c558","primary_source":"OpenStreetMap","render_height_m":192.0,"height_source":"overture:height"},"geometry":{"type":"Polygon","coordinates":[[[-96.7988066,32.7829804],[-96.7990104,32.7836372],[-96.7993059,32.7833976],[-96.7993679,32.7833473],[-96.7995981,32.7831606],[-96.7991028,32.7827426],[-96.7988066,32.7829804]]]}},{"type":"Feature","properties":{"overture_id":"c5397a98-646a-4039-a6f8-4c1715d507d8","primary_source":"OpenStreetMap","render_height_m":21.97,"height_source":"overture:height"},"geometry":{"type":"Polygon","coordinates":[[[-96.7970987,32.7832708],[-96.7970474,32.7833154],[-96.7973558,32.7835661],[-96.797571,32.7837378],[-96.7978132,32.7835296],[-96.7981813,32.7832133],[-96.7979669,32.7830402],[-96.7975592,32.7827102],[-96.7975288,32.7827212],[-96.7975023,32.7826995],[-96.7971393,32.7827806],[-96.7971337,32.7828165],[-96.7966526,32.7829297],[-96.796999,32.7832112],[-96.7970117,32.7832001],[-96.7970987,32.7832708]]]}},{"type":"Feature","properties":{"overture_id":"85fee188-1252-4685-b4c7-2a24a89c15ef","primary_source":"OpenStreetMap","render_height_m":8.0,"height_source":"heuristic (Overture height absent)"},"geometry":{"type":"Polygon","coordinates":[[[-96.7961008,32.7839686],[-96.7961542,32.7839229],[-96.7960887,32.7838686],[-96.7960625,32.7838923],[-96.7960367,32.7839156],[-96.7961008,32.7839686]]]}},{"type":"Feature","properties":{"overture_id":"a7f082d4-9ffa-4fcf-b496-0da4878c618f","primary_source":"OpenStreetMap","render_height_m":8.0,"height_source":"heuristic (Overture height absent)"},"geometry":{"type":"Polygon","coordinates":[[[-96.7954781,32.7823595],[-96.7954716,32.7823362],[-96.795284,32.7823762],[-96.7952683,32.78238],[-96.7952728,32.7823936],[-96.7952543,32.7823975],[-96.7952608,32.7824195],[-96.7952391,32.782424],[-96.7952454,32.7824451],[-96.7952259,32.7824492],[-96.7952323,32.7824707],[-96.7952108,32.7824752],[-96.7952171,32.7824963],[-96.7951978,32.7825004],[-96.795204,32.7825212],[-96.795182,32.7825258],[-96.7951872,32.782543],[-96.7951606,32.7825486],[-96.7951656,32.7825653],[-96.7951122,32.7825766],[-96.7952299,32.78297],[-96.7952995,32.7829553],[-96.7952959,32.7829432],[-96.795323,32.7829374],[-96.7953172,32.782918],[-96.7953381,32.7829136],[-96.795332,32.7828931],[-96.7953553,32.7828882],[-96.7953505,32.7828721],[-96.7953737,32.7828672],[-96.795368,32.7828479],[-96.7953915,32.782843],[-96.7953858,32.7828238],[-96.7954084,32.7828191],[-96.7954024,32.7827989],[-96.7954238,32.7827944],[-96.7954182,32.7827754],[-96.7954407,32.7827707],[-96.795435,32.7827512],[-96.795458,32.7827464],[-96.7954522,32.7827268],[-96.7954744,32.7827221],[-96.7954685,32.782702],[-96.7954909,32.7826973],[-96.7954853,32.7826785],[-96.7955085,32.7826736],[-96.7955032,32.7826557],[-96.7955247,32.7826511],[-96.7955184,32.7826298],[-96.7955564,32.7826219],[-96.7955349,32.7825491],[-96.795519,32.7824955],[-96.7954781,32.7823595]]]}},{"type":"Feature","properties":{"overture_id":"38c00204-b895-416e-8a2a-c12bebebae23","primary_source":"OpenStreetMap","render_height_m":87.0,"height_source":"overture:height"},"geometry":{"type":"Polygon","coordinates":[[[-96.795519,32.7824955],[-96.7956125,32.7824757],[-96.7956035,32.7824457],[-96.7958284,32.7823978],[-96.7957964,32.7822917],[-96.7954781,32.7823595],[-96.795519,32.7824955]]]}},{"type":"Feature","properties":{"overture_id":"4ee7a04b-b5a1-45eb-b715-1382acbac0c1","primary_source":"OpenStreetMap","render_height_m":28.37,"height_source":"overture:height"},"geometry":{"type":"Polygon","coordinates":[[[-96.7958895,32.7824197],[-96.7955278,32.7824991],[-96.7956462,32.78288],[-96.7960078,32.7828006],[-96.7959053,32.7824705],[-96.7958895,32.7824197]]]}},{"type":"Feature","properties":{"overture_id":"90a628df-894c-4651-b5b3-7bbe8bede141","primary_source":"OpenStreetMap","render_height_m":8.0,"height_source":"heuristic (Overture height absent)"},"geometry":{"type":"Polygon","coordinates":[[[-96.7967789,32.7820641],[-96.7967104,32.7820793],[-96.7968083,32.7824084],[-96.7961573,32.7825452],[-96.7962501,32.7826234],[-96.7963185,32.7825747],[-96.7964049,32.7826564],[-96.7964909,32.7825886],[-96.7965601,32.782654],[-96.7967467,32.7825121],[-96.7968437,32.7826039],[-96.7971613,32.7823644],[-96.7970886,32.7822956],[-96.7970587,32.7822674],[-96.7971656,32.7821868],[-96.7969979,32.7820281],[-96.796897,32.7821043],[-96.7968438,32.782054],[-96.7968017,32.7820857],[-96.7967789,32.7820641]]]}},{"type":"Feature","properties":{"overture_id":"3aea2e99-f708-4bd7-8987-c19c60d0df3e","primary_source":"OpenStreetMap","render_height_m":199.7,"height_source":"overture:height"},"geometry":{"type":"Polygon","coordinates":[[[-96.7961573,32.7825452],[-96.7968083,32.7824084],[-96.7967104,32.7820793],[-96.7960594,32.7822162],[-96.7961149,32.7824028],[-96.7961573,32.7825452]]]}},{"type":"Feature","properties":{"overture_id":"2dea05cb-9034-4588-be8f-f7f1ef5742e7","primary_source":"OpenStreetMap","render_height_m":239.88,"height_source":"overture:height"},"geometry":{"type":"Polygon","coordinates":[[[-96.7963426,32.7813609],[-96.7959919,32.7814348],[-96.7960756,32.7817155],[-96.7961539,32.7819782],[-96.7962447,32.7819591],[-96.7965012,32.781905],[-96.7970645,32.7817864],[-96.7970168,32.7816265],[-96.7969809,32.7815058],[-96.7969545,32.7814173],[-96.7969069,32.7812576],[-96.7969026,32.781243],[-96.7963426,32.7813609]]]}},{"type":"Feature","properties":{"overture_id":"d1b6e540-8501-4ab8-8ba0-e0bdf28eab08","primary_source":"OpenStreetMap","render_height_m":55.9,"height_source":"overture:height"},"geometry":{"type":"Polygon","coordinates":[[[-96.7959062,32.7812284],[-96.7964056,32.7811306],[-96.7963264,32.7808739],[-96.7962825,32.7807313],[-96.79625,32.7807379],[-96.7962141,32.7806133],[-96.796184,32.7806197],[-96.7961804,32.7806076],[-96.7955991,32.7807351],[-96.7956695,32.7809718],[-96.7957141,32.7809623],[-96.7957221,32.7809891],[-96.7956778,32.7809986],[-96.7957456,32.7812267],[-96.7958962,32.7811947],[-96.7959062,32.7812284]]]}},{"type":"Feature","properties":{"overture_id":"5462f471-3cec-4e9d-b5ec-354a32521c00","primary_source":"OpenStreetMap","render_height_m":47.0,"height_source":"overture:height"},"geometry":{"type":"Polygon","coordinates":[[[-96.7952473,32.7815844],[-96.7952496,32.7815923],[-96.7953279,32.7818463],[-96.7954163,32.7821332],[-96.7957756,32.7820589],[-96.7958045,32.7820183],[-96.7956642,32.7815343],[-96.7956078,32.7815098],[-96.7952473,32.7815844]]]}},{"type":"Feature","properties":{"overture_id":"21e2c546-28f4-4ce6-8d5c-c20fb9c25b4f","primary_source":"OpenStreetMap","render_height_m":32.9,"height_source":"overture:height"},"geometry":{"type":"Polygon","coordinates":[[[-96.7954163,32.7821332],[-96.7953279,32.7818463],[-96.795165,32.7818801],[-96.7952475,32.7821554],[-96.795251,32.7821675],[-96.7953911,32.7821384],[-96.7954163,32.7821332]]]}},{"type":"Feature","properties":{"overture_id":"d6390cc0-3153-4a0c-9894-5c7bef7245e3","primary_source":"OpenStreetMap","render_height_m":6.24,"height_source":"overture:height"},"geometry":{"type":"Polygon","coordinates":[[[-96.795223,32.7813551],[-96.7954239,32.781311],[-96.795395,32.7812179],[-96.7951941,32.781262],[-96.795223,32.7813551]]]}},{"type":"Feature","properties":{"overture_id":"8263632d-2aa7-41bf-acc6-02fe9ae4ad08","primary_source":"OpenStreetMap","render_height_m":24.1,"height_source":"overture:height"},"geometry":{"type":"Polygon","coordinates":[[[-96.7954813,32.7801554],[-96.795529,32.7803134],[-96.7954622,32.7803277],[-96.7955231,32.7805291],[-96.7959849,32.7804303],[-96.7959234,32.7802271],[-96.7958428,32.7802443],[-96.7957956,32.7800888],[-96.7958984,32.7800669],[-96.7958493,32.7799044],[-96.7953658,32.7800078],[-96.7954148,32.7801697],[-96.7954813,32.7801554]]]}},{"type":"Feature","properties":{"overture_id":"c6402f38-7499-4c39-a6ed-9cfac4405294","primary_source":"OpenStreetMap","render_height_m":24.0,"height_source":"overture:height"},"geometry":{"type":"Polygon","coordinates":[[[-96.7953829,32.7793325],[-96.7951719,32.7793772],[-96.7953128,32.7798477],[-96.7958647,32.7797309],[-96.7959694,32.7797087],[-96.7958285,32.7792382],[-96.7953829,32.7793325]]]}},{"type":"Feature","properties":{"overture_id":"8b9dcb12-a52a-4c65-939f-a49197819ef3","primary_source":"OpenStreetMap","render_height_m":7.86,"height_source":"overture:height"},"geometry":{"type":"Polygon","coordinates":[[[-96.7961599,32.7788781],[-96.7961648,32.7788932],[-96.7961336,32.7789005],[-96.7961789,32.7790391],[-96.7964964,32.7789651],[-96.7964515,32.7788279],[-96.7961804,32.7788911],[-96.796175,32.7788746],[-96.7961599,32.7788781]]]}},{"type":"Feature","properties":{"overture_id":"8196d09b-ca15-4332-88b0-a07cbb93cc29","primary_source":"OpenStreetMap","render_height_m":8.0,"height_source":"heuristic (Overture height absent)"},"geometry":{"type":"Polygon","coordinates":[[[-96.7965673,32.7800785],[-96.7963921,32.780117],[-96.7964521,32.7803104],[-96.796474,32.7803056],[-96.7964822,32.780332],[-96.7967894,32.7802646],[-96.7967028,32.7799852],[-96.7965489,32.780019],[-96.7965673,32.7800785]]]}},{"type":"Feature","properties":{"overture_id":"edc3a58a-329a-4d2e-b6f1-7066511cc089","primary_source":"OpenStreetMap","render_height_m":87.2,"height_source":"overture:height"},"geometry":{"type":"Polygon","coordinates":[[[-96.7961341,32.7803834],[-96.7964521,32.7803104],[-96.7963921,32.780117],[-96.7962618,32.7801512],[-96.7962337,32.7800625],[-96.796046,32.7801048],[-96.7961341,32.7803834]]]}},{"type":"Feature","properties":{"overture_id":"041fb0f4-5d40-43f8-9ee4-e115b2ebd09d","primary_source":"OpenStreetMap","render_height_m":130.9,"height_source":"overture:height"},"geometry":{"type":"Polygon","coordinates":[[[-96.7963619,32.780714],[-96.7962825,32.7807313],[-96.7963264,32.7808739],[-96.7964056,32.7811306],[-96.7967282,32.7810603],[-96.7969255,32.7810173],[-96.7970064,32.7809997],[-96.7968361,32.7804501],[-96.7967625,32.7804663],[-96.7965696,32.7805087],[-96.7964735,32.7805298],[-96.796479,32.7805477],[-96.7963212,32.7805821],[-96.7963619,32.780714]]]}},{"type":"Feature","properties":{"overture_id":"d5a3e28a-89d9-4a64-81c6-b40a399dd94b","primary_source":"OpenStreetMap","render_height_m":47.1,"height_source":"overture:height"},"geometry":{"type":"Polygon","coordinates":[[[-96.7971653,32.7809668],[-96.7977158,32.7808503],[-96.7976469,32.7806199],[-96.7976394,32.780595],[-96.7976982,32.7805826],[-96.7977563,32.7805703],[-96.7976755,32.7803005],[-96.7970081,32.7804417],[-96.7971653,32.7809668]]]}},{"type":"Feature","properties":{"overture_id":"c4d18963-68d8-48ea-9932-a178f9c5e8d4","primary_source":"OpenStreetMap","render_height_m":38.4,"height_source":"overture:height"},"geometry":{"type":"Polygon","coordinates":[[[-96.7974133,32.7795579],[-96.7968164,32.7796889],[-96.7969791,32.780218],[-96.7975761,32.7800869],[-96.7975407,32.7799719],[-96.7974133,32.7795579]]]}},{"type":"Feature","properties":{"overture_id":"47361c81-342c-46a2-8748-52f8399dbe4e","primary_source":"OpenStreetMap","render_height_m":8.0,"height_source":"heuristic (Overture height absent)"},"geometry":{"type":"Polygon","coordinates":[[[-96.7984614,32.7806953],[-96.7984692,32.7807161],[-96.7985646,32.7806963],[-96.7985587,32.7806768],[-96.7986079,32.7806657],[-96.7985286,32.7804063],[-96.7985896,32.7803933],[-96.7985179,32.7801447],[-96.7985113,32.7801219],[-96.7982403,32.7801787],[-96.7981525,32.7801967],[-96.7982356,32.7804697],[-96.7980342,32.7805089],[-96.7977928,32.7805574],[-96.7978009,32.7805844],[-96.7978747,32.7808166],[-96.7981146,32.780767],[-96.7982819,32.7807343],[-96.7983651,32.7807152],[-96.7984614,32.7806953]]]}},{"type":"Feature","properties":{"overture_id":"1e665392-fea0-497f-8480-5867b2c8d05a","primary_source":"OpenStreetMap","render_height_m":8.0,"height_source":"heuristic (Overture height absent)"},"geometry":{"type":"Polygon","coordinates":[[[-96.7976469,32.7806199],[-96.7977158,32.7808503],[-96.7978747,32.7808166],[-96.7978009,32.7805844],[-96.7977622,32.7805917],[-96.7977563,32.7805703],[-96.7976982,32.7805826],[-96.7977047,32.7806085],[-96.7976469,32.7806199]]]}},{"type":"Feature","properties":{"overture_id":"9237b41d-b7c8-423e-b9a4-3a898cc7adb0","primary_source":"OpenStreetMap","render_height_m":8.0,"height_source":"heuristic (Overture height absent)"},"geometry":{"type":"Polygon","coordinates":[[[-96.7985286,32.7804063],[-96.7986079,32.7806657],[-96.7987161,32.7806434],[-96.7987098,32.7806252],[-96.7987398,32.7806182],[-96.7987554,32.7806267],[-96.7987756,32.7806309],[-96.7987916,32.7806298],[-96.7988063,32.7806232],[-96.798817,32.780614],[-96.7988218,32.7805979],[-96.7988187,32.7805842],[-96.7988093,32.7805698],[-96.7987976,32.7805604],[-96.7987824,32.7805564],[-96.7987694,32.7805184],[-96.7987701,32.7804802],[-96.7987636,32.7804384],[-96.7987398,32.7803614],[-96.7985896,32.7803933],[-96.7985286,32.7804063]]]}},{"type":"Feature","properties":{"overture_id":"cc34158a-648f-4e67-81d9-fc05f774acc3","primary_source":"OpenStreetMap","render_height_m":68.6,"height_source":"overture:height"},"geometry":{"type":"Polygon","coordinates":[[[-96.7990698,32.7810077],[-96.7990881,32.7810705],[-96.7995678,32.7809726],[-96.7994877,32.7807102],[-96.7990067,32.780807],[-96.799051,32.7809488],[-96.7991324,32.780933],[-96.7991468,32.7809908],[-96.7990698,32.7810077]]]}},{"type":"Feature","properties":{"overture_id":"6e9faa09-8cc4-4d8c-a6d7-235563a903f4","primary_source":"OpenStreetMap","render_height_m":121.6,"height_source":"overture:height"},"geometry":{"type":"Polygon","coordinates":[[[-96.7993309,32.7802389],[-96.7992511,32.7799753],[-96.7988161,32.7800684],[-96.7988595,32.7802116],[-96.7988717,32.780252],[-96.7988148,32.7802642],[-96.798839,32.7803441],[-96.798948,32.7803208],[-96.7993309,32.7802389]]]}},{"type":"Feature","properties":{"overture_id":"2454c995-067a-4b39-9157-727b4d43c6db","primary_source":"OpenStreetMap","render_height_m":32.97,"height_source":"overture:height"},"geometry":{"type":"Polygon","coordinates":[[[-96.7985436,32.7797636],[-96.7985643,32.7797596],[-96.7985971,32.7798778],[-96.798918,32.7798148],[-96.7989069,32.779773],[-96.7989688,32.7797606],[-96.7989807,32.7798027],[-96.7990902,32.7797809],[-96.7990639,32.7796874],[-96.7990297,32.7796942],[-96.7989884,32.7795445],[-96.7989823,32.7795262],[-96.799183,32.7794857],[-96.7991559,32.7793877],[-96.7991712,32.7793846],[-96.7991411,32.7792787],[-96.7991231,32.7792126],[-96.7989483,32.7792473],[-96.7989644,32.7793044],[-96.7989236,32.7793126],[-96.7989076,32.7792558],[-96.7985676,32.7793236],[-96.7985655,32.7793149],[-96.7984491,32.7793397],[-96.7984715,32.7794232],[-96.7984728,32.7794311],[-96.7985379,32.7796639],[-96.7985171,32.779668],[-96.7985436,32.7797636]]]}},{"type":"Feature","properties":{"overture_id":"1493a688-bd74-4988-a835-daaeb6d301a3","primary_source":"OpenStreetMap","render_height_m":27.91,"height_source":"overture:height"},"geometry":{"type":"Polygon","coordinates":[[[-96.7983831,32.7789644],[-96.7984533,32.779202],[-96.7985917,32.7791731],[-96.7985942,32.7791814],[-96.7986666,32.7791662],[-96.798664,32.7791575],[-96.7988656,32.7791155],[-96.7988686,32.7791253],[-96.7992039,32.7790554],[-96.799056,32.7785543],[-96.7990502,32.7785345],[-96.7987911,32.7785885],[-96.7988101,32.7786528],[-96.7987748,32.7786602],[-96.7987779,32.7786708],[-96.7986883,32.7786895],[-96.7986671,32.7786177],[-96.7984805,32.7786575],[-96.7985605,32.7789282],[-96.7983831,32.7789644]]]}},{"type":"Feature","properties":{"overture_id":"a94701b3-8fd5-4d5d-97b2-4733c92d3a1c","primary_source":"OpenStreetMap","render_height_m":31.0,"height_source":"overture:height"},"geometry":{"type":"Polygon","coordinates":[[[-96.7982312,32.7792663],[-96.7981641,32.7790401],[-96.797987,32.7790772],[-96.7980134,32.7791662],[-96.7976571,32.7792408],[-96.7976306,32.7791515],[-96.7974652,32.7791862],[-96.7975324,32.7794128],[-96.7982312,32.7792663]]]}},{"type":"Feature","properties":{"overture_id":"91d03286-a832-4f01-a151-3ebc5b7d04be","primary_source":"OpenStreetMap","render_height_m":18.96,"height_source":"overture:height"},"geometry":{"type":"Polygon","coordinates":[[[-96.7983511,32.7796512],[-96.7982701,32.7793839],[-96.7981067,32.7794162],[-96.7979821,32.7794436],[-96.7979332,32.7794543],[-96.7975863,32.7795303],[-96.7976827,32.7798485],[-96.7977475,32.7800624],[-96.7980529,32.779997],[-96.7980503,32.7799884],[-96.7982532,32.7799449],[-96.7982356,32.779887],[-96.7981755,32.7796888],[-96.7983511,32.7796512]]]}},{"type":"Feature","properties":{"overture_id":"b59eb71e-a7b4-4a1c-9c33-604c47943b93","primary_source":"OpenStreetMap","render_height_m":15.0,"height_source":"overture:height"},"geometry":{"type":"Polygon","coordinates":[[[-96.7981641,32.7790401],[-96.7980806,32.7787581],[-96.7971824,32.7789454],[-96.7973327,32.7794549],[-96.7974369,32.7794332],[-96.7975324,32.7794128],[-96.7974652,32.7791862],[-96.7976306,32.7791515],[-96.797987,32.7790772],[-96.7981641,32.7790401]]]}},{"type":"Feature","properties":{"overture_id":"2afe7398-ecdb-452e-9388-48f663855328","primary_source":"Microsoft ML Buildings","render_height_m":16.37,"height_source":"overture:height"},"geometry":{"type":"Polygon","coordinates":[[[-96.7978898,32.778313],[-96.7978,32.7783291],[-96.7978164,32.7783938],[-96.7979062,32.7783777],[-96.7978898,32.778313]]]}},{"type":"Feature","properties":{"overture_id":"dcb4a542-c3d1-40dd-9b21-37fa77277503","primary_source":"Microsoft ML Buildings","render_height_m":19.18,"height_source":"overture:height"},"geometry":{"type":"Polygon","coordinates":[[[-96.7978803,32.7785831],[-96.7979791,32.7785564],[-96.797956,32.7784959],[-96.7978572,32.7785226],[-96.7978803,32.7785831]]]}},{"type":"Feature","properties":{"overture_id":"0a74fb66-b0c7-401e-bdb8-fd534e6f2b48","primary_source":"OpenStreetMap","render_height_m":26.04,"height_source":"overture:height"},"geometry":{"type":"Polygon","coordinates":[[[-96.7980568,32.7785655],[-96.7981534,32.7785446],[-96.7981675,32.7785903],[-96.7989692,32.7784118],[-96.7988592,32.7780626],[-96.7985882,32.7781229],[-96.7985833,32.7781072],[-96.79852,32.778121],[-96.7984923,32.7780311],[-96.7979022,32.7781595],[-96.7979363,32.7782704],[-96.7980379,32.7782484],[-96.7980754,32.7783707],[-96.798002,32.7783866],[-96.7980568,32.7785655]]]}},{"type":"Feature","properties":{"overture_id":"4cf66df1-28ab-4fb3-b585-463806a3545f","primary_source":"OpenStreetMap","render_height_m":43.0,"height_source":"overture:height"},"geometry":{"type":"Polygon","coordinates":[[[-96.7967156,32.778727],[-96.7967331,32.778782],[-96.7969855,32.778725],[-96.7975494,32.7785987],[-96.7975919,32.7785874],[-96.7976162,32.7785829],[-96.7975977,32.7785249],[-96.7976128,32.7785215],[-96.7976187,32.7785402],[-96.7976517,32.7785327],[-96.797473,32.777971],[-96.797437,32.7779791],[-96.797442,32.777995],[-96.7974263,32.7779985],[-96.7974086,32.7779429],[-96.7973473,32.7780313],[-96.7967804,32.7781575],[-96.79674,32.7781665],[-96.7967237,32.7781152],[-96.7965346,32.7781578],[-96.796548,32.7782001],[-96.7965308,32.7782039],[-96.7965258,32.7781883],[-96.7964905,32.7781962],[-96.796534,32.7783327],[-96.7966684,32.7787549],[-96.7967033,32.778747],[-96.7966982,32.7787309],[-96.7967156,32.778727]]]}},{"type":"Feature","properties":{"overture_id":"d4a061af-c346-4bde-a10f-b8c5fc97bd47","primary_source":"OpenStreetMap","render_height_m":7.0,"height_source":"overture:height"},"geometry":{"type":"Polygon","coordinates":[[[-96.7960565,32.7785287],[-96.7960814,32.7786016],[-96.7963278,32.7785422],[-96.7962582,32.7783384],[-96.7959504,32.7784127],[-96.7959731,32.7784792],[-96.7959886,32.7784754],[-96.7960106,32.7785398],[-96.7960565,32.7785287]]]}},{"type":"Feature","properties":{"overture_id":"651c3078-f772-4031-814f-d9279a96fbd2","primary_source":"OpenStreetMap","render_height_m":15.68,"height_source":"overture:height"},"geometry":{"type":"Polygon","coordinates":[[[-96.7962546,32.7761384],[-96.7960865,32.7761762],[-96.796091,32.7761876],[-96.7960655,32.7761937],[-96.7960679,32.7762001],[-96.7959703,32.7762336],[-96.796121,32.7767121],[-96.7974079,32.7764229],[-96.7979132,32.7763093],[-96.7977603,32.7758239],[-96.7977065,32.7758359],[-96.7977042,32.7758252],[-96.7976698,32.7758344],[-96.7976674,32.7758279],[-96.7975886,32.7758386],[-96.7975861,32.7758328],[-96.7974556,32.7758621],[-96.797461,32.7758792],[-96.7974189,32.7758886],[-96.7974154,32.7758774],[-96.7973976,32.775881],[-96.7974085,32.775909],[-96.797136,32.7759706],[-96.7971309,32.7759534],[-96.7970981,32.7759607],[-96.7970944,32.7759489],[-96.7962846,32.7761309],[-96.7962905,32.7761497],[-96.7962603,32.7761565],[-96.7962546,32.7761384]]]}},{"type":"Feature","properties":{"overture_id":"383039a4-86e5-40b6-9a96-1610caca928e","primary_source":"OpenStreetMap","render_height_m":30.0,"height_source":"overture:height"},"geometry":{"type":"Polygon","coordinates":[[[-96.8027428,32.7758516],[-96.8028463,32.7761869],[-96.802682,32.7761095],[-96.8026357,32.7761194],[-96.8026485,32.7761621],[-96.802737,32.7762066],[-96.80274,32.7762163],[-96.8027621,32.7762925],[-96.8025788,32.7763301],[-96.8024132,32.7763662],[-96.802465,32.776534],[-96.8030962,32.7763962],[-96.8029164,32.7758137],[-96.8027428,32.7758516]]]}}]}
